{
    "type": "FeatureCollection",
    "bbox": [
        -87.481676,
        20.051844,
        -87.443551,
        20.214111
    ],
    "features": [
        {
            "bbox": [
                -87.481676,
                20.051844,
                -87.443551,
                20.214111
            ],
            "type": "Feature",
            "properties": {
                "segments": [
                    {
                        "distance": 20430.0,
                        "duration": 1913.6,
                        "steps": [
                            {
                                "distance": 143.0,
                                "duration": 34.3,
                                "type": 11,
                                "instruction": "Head east on Polar Oriente",
                                "name": "Polar Oriente",
                                "way_points": [
                                    0,
                                    1
                                ]
                            },
                            {
                                "distance": 81.5,
                                "duration": 19.6,
                                "type": 1,
                                "instruction": "Turn right onto Alfa Norte",
                                "name": "Alfa Norte",
                                "way_points": [
                                    1,
                                    2
                                ]
                            },
                            {
                                "distance": 1161.3,
                                "duration": 171.0,
                                "type": 1,
                                "instruction": "Turn right",
                                "name": "-",
                                "way_points": [
                                    2,
                                    17
                                ]
                            },
                            {
                                "distance": 832.0,
                                "duration": 49.9,
                                "type": 1,
                                "instruction": "Turn right onto Avenida Cob\u00e1, QR 15",
                                "name": "Avenida Cob\u00e1, QR 15",
                                "way_points": [
                                    17,
                                    30
                                ]
                            },
                            {
                                "distance": 2365.9,
                                "duration": 152.9,
                                "type": 5,
                                "instruction": "Turn slight right onto Avenida Cob\u00e1, QR 15",
                                "name": "Avenida Cob\u00e1, QR 15",
                                "way_points": [
                                    30,
                                    54
                                ]
                            },
                            {
                                "distance": 15812.6,
                                "duration": 1477.9,
                                "type": 7,
                                "instruction": "Enter the roundabout and take the 1st exit onto Carretera Ramal a Punta Allen, QR 15",
                                "name": "Carretera Ramal a Punta Allen, QR 15",
                                "exit_number": 1,
                                "way_points": [
                                    54,
                                    276
                                ]
                            },
                            {
                                "distance": 33.7,
                                "duration": 8.1,
                                "type": 13,
                                "instruction": "Keep right",
                                "name": "-",
                                "way_points": [
                                    276,
                                    280
                                ]
                            },
                            {
                                "distance": 0.0,
                                "duration": 0.0,
                                "type": 10,
                                "instruction": "Arrive at your destination, on the right",
                                "name": "-",
                                "way_points": [
                                    280,
                                    280
                                ]
                            }
                        ]
                    }
                ],
                "way_points": [
                    0,
                    280
                ],
                "summary": {
                    "distance": 20430.0,
                    "duration": 1913.6
                }
            },
            "geometry": {
                "coordinates": [
                    [
                        -87.465218,
                        20.21121
                    ],
                    [
                        -87.463924,
                        20.211634
                    ],
                    [
                        -87.463784,
                        20.210913
                    ],
                    [
                        -87.463814,
                        20.210888
                    ],
                    [
                        -87.463824,
                        20.210846
                    ],
                    [
                        -87.463796,
                        20.210818
                    ],
                    [
                        -87.463756,
                        20.210818
                    ],
                    [
                        -87.46322,
                        20.210998
                    ],
                    [
                        -87.462805,
                        20.211137
                    ],
                    [
                        -87.461803,
                        20.211458
                    ],
                    [
                        -87.4607,
                        20.211814
                    ],
                    [
                        -87.459519,
                        20.212173
                    ],
                    [
                        -87.458444,
                        20.212506
                    ],
                    [
                        -87.458312,
                        20.212545
                    ],
                    [
                        -87.457085,
                        20.212919
                    ],
                    [
                        -87.455893,
                        20.213305
                    ],
                    [
                        -87.454748,
                        20.213665
                    ],
                    [
                        -87.45337,
                        20.214111
                    ],
                    [
                        -87.45313,
                        20.213454
                    ],
                    [
                        -87.452896,
                        20.212815
                    ],
                    [
                        -87.452829,
                        20.212642
                    ],
                    [
                        -87.452699,
                        20.212304
                    ],
                    [
                        -87.452348,
                        20.211311
                    ],
                    [
                        -87.452182,
                        20.210874
                    ],
                    [
                        -87.452123,
                        20.210703
                    ],
                    [
                        -87.451932,
                        20.210179
                    ],
                    [
                        -87.451759,
                        20.209734
                    ],
                    [
                        -87.451147,
                        20.208061
                    ],
                    [
                        -87.45097,
                        20.207551
                    ],
                    [
                        -87.450774,
                        20.207083
                    ],
                    [
                        -87.450737,
                        20.207058
                    ],
                    [
                        -87.450727,
                        20.207021
                    ],
                    [
                        -87.450718,
                        20.206994
                    ],
                    [
                        -87.450682,
                        20.206895
                    ],
                    [
                        -87.450405,
                        20.206121
                    ],
                    [
                        -87.450094,
                        20.20525
                    ],
                    [
                        -87.450058,
                        20.205149
                    ],
                    [
                        -87.449775,
                        20.20436
                    ],
                    [
                        -87.449663,
                        20.204047
                    ],
                    [
                        -87.449616,
                        20.203918
                    ],
                    [
                        -87.4495,
                        20.203594
                    ],
                    [
                        -87.44934,
                        20.20314
                    ],
                    [
                        -87.448973,
                        20.202151
                    ],
                    [
                        -87.448786,
                        20.201614
                    ],
                    [
                        -87.448017,
                        20.199459
                    ],
                    [
                        -87.447821,
                        20.198934
                    ],
                    [
                        -87.447707,
                        20.198607
                    ],
                    [
                        -87.446884,
                        20.196331
                    ],
                    [
                        -87.446827,
                        20.196174
                    ],
                    [
                        -87.446532,
                        20.195358
                    ],
                    [
                        -87.446345,
                        20.194842
                    ],
                    [
                        -87.443918,
                        20.188122
                    ],
                    [
                        -87.443658,
                        20.187267
                    ],
                    [
                        -87.4436,
                        20.187077
                    ],
                    [
                        -87.44357,
                        20.186877
                    ],
                    [
                        -87.443592,
                        20.186843
                    ],
                    [
                        -87.44358,
                        20.186796
                    ],
                    [
                        -87.443551,
                        20.186708
                    ],
                    [
                        -87.44374,
                        20.186083
                    ],
                    [
                        -87.444555,
                        20.183617
                    ],
                    [
                        -87.445242,
                        20.181522
                    ],
                    [
                        -87.44528,
                        20.181403
                    ],
                    [
                        -87.446658,
                        20.177186
                    ],
                    [
                        -87.446955,
                        20.176257
                    ],
                    [
                        -87.447691,
                        20.17397
                    ],
                    [
                        -87.447925,
                        20.173395
                    ],
                    [
                        -87.448347,
                        20.172575
                    ],
                    [
                        -87.449567,
                        20.170606
                    ],
                    [
                        -87.450225,
                        20.169586
                    ],
                    [
                        -87.450283,
                        20.169496
                    ],
                    [
                        -87.450427,
                        20.169289
                    ],
                    [
                        -87.451564,
                        20.16752
                    ],
                    [
                        -87.452104,
                        20.166688
                    ],
                    [
                        -87.452502,
                        20.166063
                    ],
                    [
                        -87.453409,
                        20.164608
                    ],
                    [
                        -87.453657,
                        20.164203
                    ],
                    [
                        -87.454181,
                        20.163057
                    ],
                    [
                        -87.45438,
                        20.162554
                    ],
                    [
                        -87.454579,
                        20.161944
                    ],
                    [
                        -87.454685,
                        20.16162
                    ],
                    [
                        -87.455628,
                        20.158743
                    ],
                    [
                        -87.455874,
                        20.158177
                    ],
                    [
                        -87.455999,
                        20.157789
                    ],
                    [
                        -87.456319,
                        20.156574
                    ],
                    [
                        -87.456396,
                        20.156408
                    ],
                    [
                        -87.456888,
                        20.155642
                    ],
                    [
                        -87.457095,
                        20.155322
                    ],
                    [
                        -87.457164,
                        20.155151
                    ],
                    [
                        -87.457285,
                        20.15413
                    ],
                    [
                        -87.457301,
                        20.154002
                    ],
                    [
                        -87.457334,
                        20.153734
                    ],
                    [
                        -87.457432,
                        20.153402
                    ],
                    [
                        -87.457669,
                        20.152985
                    ],
                    [
                        -87.458069,
                        20.152284
                    ],
                    [
                        -87.459045,
                        20.150022
                    ],
                    [
                        -87.459297,
                        20.149539
                    ],
                    [
                        -87.459401,
                        20.14921
                    ],
                    [
                        -87.459484,
                        20.148879
                    ],
                    [
                        -87.459707,
                        20.147825
                    ],
                    [
                        -87.459728,
                        20.147354
                    ],
                    [
                        -87.459862,
                        20.146628
                    ],
                    [
                        -87.459957,
                        20.146248
                    ],
                    [
                        -87.460183,
                        20.14583
                    ],
                    [
                        -87.460421,
                        20.145388
                    ],
                    [
                        -87.460531,
                        20.144992
                    ],
                    [
                        -87.460545,
                        20.144768
                    ],
                    [
                        -87.460531,
                        20.144555
                    ],
                    [
                        -87.46068,
                        20.143913
                    ],
                    [
                        -87.460808,
                        20.143558
                    ],
                    [
                        -87.460809,
                        20.143296
                    ],
                    [
                        -87.460739,
                        20.142744
                    ],
                    [
                        -87.460757,
                        20.142582
                    ],
                    [
                        -87.460916,
                        20.142159
                    ],
                    [
                        -87.46133,
                        20.14094
                    ],
                    [
                        -87.461814,
                        20.139899
                    ],
                    [
                        -87.462081,
                        20.139395
                    ],
                    [
                        -87.462547,
                        20.138763
                    ],
                    [
                        -87.462874,
                        20.138537
                    ],
                    [
                        -87.463053,
                        20.138385
                    ],
                    [
                        -87.463148,
                        20.138199
                    ],
                    [
                        -87.463244,
                        20.137842
                    ],
                    [
                        -87.463452,
                        20.137313
                    ],
                    [
                        -87.463657,
                        20.136681
                    ],
                    [
                        -87.463986,
                        20.136104
                    ],
                    [
                        -87.464104,
                        20.135826
                    ],
                    [
                        -87.464467,
                        20.133261
                    ],
                    [
                        -87.464496,
                        20.133138
                    ],
                    [
                        -87.464571,
                        20.132823
                    ],
                    [
                        -87.464774,
                        20.132468
                    ],
                    [
                        -87.464961,
                        20.132198
                    ],
                    [
                        -87.465268,
                        20.131642
                    ],
                    [
                        -87.465345,
                        20.131363
                    ],
                    [
                        -87.465349,
                        20.131128
                    ],
                    [
                        -87.46526,
                        20.130661
                    ],
                    [
                        -87.465305,
                        20.130437
                    ],
                    [
                        -87.465517,
                        20.129939
                    ],
                    [
                        -87.465526,
                        20.129787
                    ],
                    [
                        -87.465422,
                        20.129411
                    ],
                    [
                        -87.465409,
                        20.129128
                    ],
                    [
                        -87.465463,
                        20.128211
                    ],
                    [
                        -87.465498,
                        20.127951
                    ],
                    [
                        -87.465545,
                        20.127553
                    ],
                    [
                        -87.465605,
                        20.127289
                    ],
                    [
                        -87.465752,
                        20.12694
                    ],
                    [
                        -87.465813,
                        20.126751
                    ],
                    [
                        -87.465844,
                        20.126497
                    ],
                    [
                        -87.465851,
                        20.126284
                    ],
                    [
                        -87.465812,
                        20.126017
                    ],
                    [
                        -87.465947,
                        20.125087
                    ],
                    [
                        -87.466066,
                        20.124676
                    ],
                    [
                        -87.466271,
                        20.12407
                    ],
                    [
                        -87.466484,
                        20.123209
                    ],
                    [
                        -87.466563,
                        20.122672
                    ],
                    [
                        -87.466527,
                        20.121739
                    ],
                    [
                        -87.466704,
                        20.120842
                    ],
                    [
                        -87.466861,
                        20.120338
                    ],
                    [
                        -87.46712,
                        20.119722
                    ],
                    [
                        -87.467492,
                        20.118737
                    ],
                    [
                        -87.467908,
                        20.117504
                    ],
                    [
                        -87.468091,
                        20.117015
                    ],
                    [
                        -87.468362,
                        20.116435
                    ],
                    [
                        -87.469307,
                        20.113894
                    ],
                    [
                        -87.469661,
                        20.113112
                    ],
                    [
                        -87.469924,
                        20.112702
                    ],
                    [
                        -87.47036,
                        20.112106
                    ],
                    [
                        -87.470487,
                        20.111878
                    ],
                    [
                        -87.470592,
                        20.11156
                    ],
                    [
                        -87.470765,
                        20.110929
                    ],
                    [
                        -87.471071,
                        20.109699
                    ],
                    [
                        -87.471173,
                        20.10941
                    ],
                    [
                        -87.471921,
                        20.107422
                    ],
                    [
                        -87.472501,
                        20.106277
                    ],
                    [
                        -87.472718,
                        20.105753
                    ],
                    [
                        -87.473216,
                        20.103961
                    ],
                    [
                        -87.473544,
                        20.103055
                    ],
                    [
                        -87.473721,
                        20.102662
                    ],
                    [
                        -87.473917,
                        20.101861
                    ],
                    [
                        -87.474102,
                        20.101335
                    ],
                    [
                        -87.474628,
                        20.100162
                    ],
                    [
                        -87.474687,
                        20.099991
                    ],
                    [
                        -87.474705,
                        20.099812
                    ],
                    [
                        -87.474642,
                        20.099482
                    ],
                    [
                        -87.474617,
                        20.099138
                    ],
                    [
                        -87.474654,
                        20.098864
                    ],
                    [
                        -87.474826,
                        20.097997
                    ],
                    [
                        -87.474911,
                        20.097431
                    ],
                    [
                        -87.474934,
                        20.096816
                    ],
                    [
                        -87.474947,
                        20.095684
                    ],
                    [
                        -87.474917,
                        20.095293
                    ],
                    [
                        -87.474822,
                        20.094918
                    ],
                    [
                        -87.474806,
                        20.094789
                    ],
                    [
                        -87.474787,
                        20.093847
                    ],
                    [
                        -87.474679,
                        20.093501
                    ],
                    [
                        -87.474668,
                        20.093318
                    ],
                    [
                        -87.474774,
                        20.092513
                    ],
                    [
                        -87.474842,
                        20.092234
                    ],
                    [
                        -87.474931,
                        20.092032
                    ],
                    [
                        -87.475033,
                        20.091789
                    ],
                    [
                        -87.475132,
                        20.091015
                    ],
                    [
                        -87.475269,
                        20.090561
                    ],
                    [
                        -87.475314,
                        20.09004
                    ],
                    [
                        -87.475505,
                        20.089103
                    ],
                    [
                        -87.475647,
                        20.088698
                    ],
                    [
                        -87.475715,
                        20.088623
                    ],
                    [
                        -87.475929,
                        20.088455
                    ],
                    [
                        -87.476005,
                        20.088325
                    ],
                    [
                        -87.476141,
                        20.087595
                    ],
                    [
                        -87.476307,
                        20.086691
                    ],
                    [
                        -87.476387,
                        20.086405
                    ],
                    [
                        -87.476469,
                        20.086173
                    ],
                    [
                        -87.476559,
                        20.085975
                    ],
                    [
                        -87.476765,
                        20.085754
                    ],
                    [
                        -87.476845,
                        20.085576
                    ],
                    [
                        -87.476951,
                        20.085158
                    ],
                    [
                        -87.477259,
                        20.083291
                    ],
                    [
                        -87.477395,
                        20.08302
                    ],
                    [
                        -87.477696,
                        20.082578
                    ],
                    [
                        -87.477774,
                        20.082417
                    ],
                    [
                        -87.477864,
                        20.082162
                    ],
                    [
                        -87.478115,
                        20.080574
                    ],
                    [
                        -87.478269,
                        20.080113
                    ],
                    [
                        -87.478364,
                        20.079686
                    ],
                    [
                        -87.478465,
                        20.077622
                    ],
                    [
                        -87.478359,
                        20.076835
                    ],
                    [
                        -87.478359,
                        20.076503
                    ],
                    [
                        -87.478375,
                        20.07643
                    ],
                    [
                        -87.478424,
                        20.076339
                    ],
                    [
                        -87.478916,
                        20.075898
                    ],
                    [
                        -87.478937,
                        20.075858
                    ],
                    [
                        -87.478958,
                        20.075751
                    ],
                    [
                        -87.478953,
                        20.075282
                    ],
                    [
                        -87.478867,
                        20.074671
                    ],
                    [
                        -87.478668,
                        20.074028
                    ],
                    [
                        -87.478571,
                        20.073604
                    ],
                    [
                        -87.478529,
                        20.07212
                    ],
                    [
                        -87.478548,
                        20.07193
                    ],
                    [
                        -87.478618,
                        20.071568
                    ],
                    [
                        -87.478671,
                        20.070735
                    ],
                    [
                        -87.478689,
                        20.070639
                    ],
                    [
                        -87.478839,
                        20.070276
                    ],
                    [
                        -87.478863,
                        20.070065
                    ],
                    [
                        -87.47885,
                        20.068788
                    ],
                    [
                        -87.478868,
                        20.067997
                    ],
                    [
                        -87.478903,
                        20.067377
                    ],
                    [
                        -87.478955,
                        20.067193
                    ],
                    [
                        -87.47937,
                        20.066307
                    ],
                    [
                        -87.479552,
                        20.065835
                    ],
                    [
                        -87.479764,
                        20.065218
                    ],
                    [
                        -87.479901,
                        20.064739
                    ],
                    [
                        -87.480006,
                        20.064266
                    ],
                    [
                        -87.480132,
                        20.06386
                    ],
                    [
                        -87.480346,
                        20.063281
                    ],
                    [
                        -87.480403,
                        20.063082
                    ],
                    [
                        -87.480531,
                        20.062432
                    ],
                    [
                        -87.480547,
                        20.062013
                    ],
                    [
                        -87.480714,
                        20.060537
                    ],
                    [
                        -87.480738,
                        20.060089
                    ],
                    [
                        -87.480746,
                        20.059748
                    ],
                    [
                        -87.48077,
                        20.059474
                    ],
                    [
                        -87.480826,
                        20.059122
                    ],
                    [
                        -87.480856,
                        20.058826
                    ],
                    [
                        -87.480857,
                        20.058097
                    ],
                    [
                        -87.480875,
                        20.057735
                    ],
                    [
                        -87.480817,
                        20.057385
                    ],
                    [
                        -87.480813,
                        20.057259
                    ],
                    [
                        -87.480861,
                        20.056894
                    ],
                    [
                        -87.480895,
                        20.056287
                    ],
                    [
                        -87.480918,
                        20.055786
                    ],
                    [
                        -87.481006,
                        20.055071
                    ],
                    [
                        -87.481041,
                        20.054964
                    ],
                    [
                        -87.481285,
                        20.054476
                    ],
                    [
                        -87.481332,
                        20.054184
                    ],
                    [
                        -87.481341,
                        20.053524
                    ],
                    [
                        -87.481297,
                        20.052492
                    ],
                    [
                        -87.481346,
                        20.05224
                    ],
                    [
                        -87.48139,
                        20.052105
                    ],
                    [
                        -87.481399,
                        20.05195
                    ],
                    [
                        -87.48147,
                        20.051866
                    ],
                    [
                        -87.481531,
                        20.051857
                    ],
                    [
                        -87.481615,
                        20.051844
                    ],
                    [
                        -87.481676,
                        20.051851
                    ]
                ],
                "type": "LineString"
            }
        }
    ],
    "metadata": {
        "attribution": "openrouteservice.org | OpenStreetMap contributors",
        "service": "routing",
        "timestamp": 1756799513958,
        "query": {
            "coordinates": [
                [
                    -87.465124,
                    20.210958
                ],
                [
                    -87.481675,
                    20.051861
                ]
            ],
            "profile": "driving-car",
            "profileName": "driving-car",
            "format": "geojson"
        },
        "engine": {
            "version": "9.3.0",
            "build_date": "2025-06-06T15:39:25Z",
            "graph_date": "2025-08-31T11:45:10Z",
            "osm_date": "2025-08-24T23:59:58Z"
        }
    }
}