{
    "type": "FeatureCollection",
    "bbox": [
        -124.199418,
        41.540416,
        -124.04974,
        41.753227
    ],
    "features": [
        {
            "bbox": [
                -124.199418,
                41.540416,
                -124.04974,
                41.753227
            ],
            "type": "Feature",
            "properties": {
                "segments": [
                    {
                        "distance": 31305.6,
                        "duration": 1689.3,
                        "steps": [
                            {
                                "distance": 222.3,
                                "duration": 26.7,
                                "type": 11,
                                "instruction": "Head northeast on 2nd Street",
                                "name": "2nd Street",
                                "way_points": [
                                    0,
                                    6
                                ]
                            },
                            {
                                "distance": 95.9,
                                "duration": 11.5,
                                "type": 1,
                                "instruction": "Turn right onto H Street",
                                "name": "H Street",
                                "way_points": [
                                    6,
                                    9
                                ]
                            },
                            {
                                "distance": 366.0,
                                "duration": 46.1,
                                "type": 0,
                                "instruction": "Turn left onto Front Street",
                                "name": "Front Street",
                                "way_points": [
                                    9,
                                    15
                                ]
                            },
                            {
                                "distance": 30621.5,
                                "duration": 1605.1,
                                "type": 1,
                                "instruction": "Turn right onto L Street, US 101",
                                "name": "L Street, US 101",
                                "way_points": [
                                    15,
                                    515
                                ]
                            },
                            {
                                "distance": 0.0,
                                "duration": 0.0,
                                "type": 10,
                                "instruction": "Arrive at L Street, US 101, on the right",
                                "name": "-",
                                "way_points": [
                                    515,
                                    515
                                ]
                            }
                        ]
                    }
                ],
                "way_points": [
                    0,
                    515
                ],
                "summary": {
                    "distance": 31305.6,
                    "duration": 1689.3
                }
            },
            "geometry": {
                "coordinates": [
                    [
                        -124.199418,
                        41.750362
                    ],
                    [
                        -124.199024,
                        41.750578
                    ],
                    [
                        -124.198778,
                        41.750707
                    ],
                    [
                        -124.198701,
                        41.750747
                    ],
                    [
                        -124.19831,
                        41.750952
                    ],
                    [
                        -124.198123,
                        41.75105
                    ],
                    [
                        -124.197232,
                        41.751518
                    ],
                    [
                        -124.196863,
                        41.751131
                    ],
                    [
                        -124.196735,
                        41.750998
                    ],
                    [
                        -124.196561,
                        41.750816
                    ],
                    [
                        -124.196525,
                        41.750834
                    ],
                    [
                        -124.19567,
                        41.751279
                    ],
                    [
                        -124.19474,
                        41.751768
                    ],
                    [
                        -124.194021,
                        41.752166
                    ],
                    [
                        -124.19386,
                        41.752255
                    ],
                    [
                        -124.19302,
                        41.752776
                    ],
                    [
                        -124.192855,
                        41.752629
                    ],
                    [
                        -124.192634,
                        41.752528
                    ],
                    [
                        -124.192469,
                        41.752503
                    ],
                    [
                        -124.192274,
                        41.752502
                    ],
                    [
                        -124.192121,
                        41.752526
                    ],
                    [
                        -124.191979,
                        41.752573
                    ],
                    [
                        -124.191213,
                        41.753
                    ],
                    [
                        -124.191033,
                        41.753128
                    ],
                    [
                        -124.190841,
                        41.753179
                    ],
                    [
                        -124.190662,
                        41.753212
                    ],
                    [
                        -124.190476,
                        41.753227
                    ],
                    [
                        -124.190307,
                        41.753223
                    ],
                    [
                        -124.190157,
                        41.753197
                    ],
                    [
                        -124.190005,
                        41.753172
                    ],
                    [
                        -124.189177,
                        41.753001
                    ],
                    [
                        -124.188352,
                        41.75282
                    ],
                    [
                        -124.188067,
                        41.752757
                    ],
                    [
                        -124.187905,
                        41.752722
                    ],
                    [
                        -124.187791,
                        41.752697
                    ],
                    [
                        -124.187604,
                        41.752655
                    ],
                    [
                        -124.187406,
                        41.752614
                    ],
                    [
                        -124.187036,
                        41.752535
                    ],
                    [
                        -124.186426,
                        41.752406
                    ],
                    [
                        -124.186078,
                        41.752333
                    ],
                    [
                        -124.185537,
                        41.752218
                    ],
                    [
                        -124.184977,
                        41.752112
                    ],
                    [
                        -124.18462,
                        41.752008
                    ],
                    [
                        -124.184386,
                        41.751887
                    ],
                    [
                        -124.18419,
                        41.751745
                    ],
                    [
                        -124.184161,
                        41.751722
                    ],
                    [
                        -124.184021,
                        41.751623
                    ],
                    [
                        -124.183947,
                        41.751569
                    ],
                    [
                        -124.183598,
                        41.751316
                    ],
                    [
                        -124.182818,
                        41.750748
                    ],
                    [
                        -124.182625,
                        41.750604
                    ],
                    [
                        -124.182409,
                        41.750447
                    ],
                    [
                        -124.181642,
                        41.749884
                    ],
                    [
                        -124.181071,
                        41.749463
                    ],
                    [
                        -124.180811,
                        41.74927
                    ],
                    [
                        -124.180479,
                        41.749025
                    ],
                    [
                        -124.180277,
                        41.748876
                    ],
                    [
                        -124.179906,
                        41.748601
                    ],
                    [
                        -124.179339,
                        41.748183
                    ],
                    [
                        -124.179264,
                        41.748126
                    ],
                    [
                        -124.178931,
                        41.747876
                    ],
                    [
                        -124.178626,
                        41.747646
                    ],
                    [
                        -124.177886,
                        41.747097
                    ],
                    [
                        -124.177352,
                        41.746699
                    ],
                    [
                        -124.176888,
                        41.746366
                    ],
                    [
                        -124.17616,
                        41.745879
                    ],
                    [
                        -124.17592,
                        41.745745
                    ],
                    [
                        -124.175504,
                        41.745529
                    ],
                    [
                        -124.175026,
                        41.745335
                    ],
                    [
                        -124.173872,
                        41.744938
                    ],
                    [
                        -124.173042,
                        41.744681
                    ],
                    [
                        -124.170868,
                        41.743985
                    ],
                    [
                        -124.170375,
                        41.743812
                    ],
                    [
                        -124.169652,
                        41.743521
                    ],
                    [
                        -124.168947,
                        41.743213
                    ],
                    [
                        -124.166083,
                        41.741859
                    ],
                    [
                        -124.165477,
                        41.741575
                    ],
                    [
                        -124.165074,
                        41.741386
                    ],
                    [
                        -124.16253,
                        41.740165
                    ],
                    [
                        -124.161431,
                        41.73965
                    ],
                    [
                        -124.155751,
                        41.736915
                    ],
                    [
                        -124.154182,
                        41.736184
                    ],
                    [
                        -124.153939,
                        41.736069
                    ],
                    [
                        -124.149788,
                        41.734083
                    ],
                    [
                        -124.149662,
                        41.734019
                    ],
                    [
                        -124.14877,
                        41.733615
                    ],
                    [
                        -124.148444,
                        41.73345
                    ],
                    [
                        -124.147774,
                        41.733042
                    ],
                    [
                        -124.147154,
                        41.732611
                    ],
                    [
                        -124.1465,
                        41.732088
                    ],
                    [
                        -124.144454,
                        41.730324
                    ],
                    [
                        -124.143952,
                        41.729843
                    ],
                    [
                        -124.143488,
                        41.729334
                    ],
                    [
                        -124.143344,
                        41.729118
                    ],
                    [
                        -124.143065,
                        41.728803
                    ],
                    [
                        -124.142938,
                        41.728609
                    ],
                    [
                        -124.142484,
                        41.727833
                    ],
                    [
                        -124.142355,
                        41.727575
                    ],
                    [
                        -124.141916,
                        41.726556
                    ],
                    [
                        -124.141403,
                        41.72554
                    ],
                    [
                        -124.141163,
                        41.725132
                    ],
                    [
                        -124.140888,
                        41.724825
                    ],
                    [
                        -124.139725,
                        41.724044
                    ],
                    [
                        -124.139494,
                        41.723823
                    ],
                    [
                        -124.139366,
                        41.723674
                    ],
                    [
                        -124.139272,
                        41.723502
                    ],
                    [
                        -124.138949,
                        41.722775
                    ],
                    [
                        -124.13878,
                        41.72244
                    ],
                    [
                        -124.138524,
                        41.72191
                    ],
                    [
                        -124.137918,
                        41.720539
                    ],
                    [
                        -124.137523,
                        41.71976
                    ],
                    [
                        -124.136786,
                        41.717758
                    ],
                    [
                        -124.136558,
                        41.717299
                    ],
                    [
                        -124.136401,
                        41.717045
                    ],
                    [
                        -124.13612,
                        41.716695
                    ],
                    [
                        -124.135866,
                        41.716335
                    ],
                    [
                        -124.135769,
                        41.716116
                    ],
                    [
                        -124.135729,
                        41.715913
                    ],
                    [
                        -124.135702,
                        41.715388
                    ],
                    [
                        -124.135648,
                        41.714999
                    ],
                    [
                        -124.13559,
                        41.714775
                    ],
                    [
                        -124.135517,
                        41.714624
                    ],
                    [
                        -124.135399,
                        41.714447
                    ],
                    [
                        -124.135308,
                        41.714354
                    ],
                    [
                        -124.13521,
                        41.714276
                    ],
                    [
                        -124.13492,
                        41.714143
                    ],
                    [
                        -124.133945,
                        41.713849
                    ],
                    [
                        -124.133246,
                        41.713662
                    ],
                    [
                        -124.130982,
                        41.71323
                    ],
                    [
                        -124.130495,
                        41.713102
                    ],
                    [
                        -124.130266,
                        41.712977
                    ],
                    [
                        -124.130057,
                        41.712773
                    ],
                    [
                        -124.129931,
                        41.712544
                    ],
                    [
                        -124.129765,
                        41.712085
                    ],
                    [
                        -124.129674,
                        41.711928
                    ],
                    [
                        -124.129406,
                        41.711699
                    ],
                    [
                        -124.129041,
                        41.711506
                    ],
                    [
                        -124.128817,
                        41.711414
                    ],
                    [
                        -124.128511,
                        41.711352
                    ],
                    [
                        -124.128103,
                        41.711333
                    ],
                    [
                        -124.127913,
                        41.711306
                    ],
                    [
                        -124.127698,
                        41.711266
                    ],
                    [
                        -124.12753,
                        41.711213
                    ],
                    [
                        -124.127266,
                        41.711086
                    ],
                    [
                        -124.127151,
                        41.711002
                    ],
                    [
                        -124.127007,
                        41.71084
                    ],
                    [
                        -124.126968,
                        41.71071
                    ],
                    [
                        -124.126966,
                        41.710297
                    ],
                    [
                        -124.126988,
                        41.710182
                    ],
                    [
                        -124.127026,
                        41.710086
                    ],
                    [
                        -124.127091,
                        41.71
                    ],
                    [
                        -124.127171,
                        41.709917
                    ],
                    [
                        -124.127272,
                        41.709855
                    ],
                    [
                        -124.127617,
                        41.709711
                    ],
                    [
                        -124.127888,
                        41.709629
                    ],
                    [
                        -124.128324,
                        41.709553
                    ],
                    [
                        -124.129259,
                        41.709439
                    ],
                    [
                        -124.129852,
                        41.709323
                    ],
                    [
                        -124.130088,
                        41.709257
                    ],
                    [
                        -124.130738,
                        41.709033
                    ],
                    [
                        -124.130993,
                        41.708915
                    ],
                    [
                        -124.131092,
                        41.708855
                    ],
                    [
                        -124.131193,
                        41.708768
                    ],
                    [
                        -124.131389,
                        41.708567
                    ],
                    [
                        -124.131468,
                        41.708415
                    ],
                    [
                        -124.131487,
                        41.708292
                    ],
                    [
                        -124.131492,
                        41.70805
                    ],
                    [
                        -124.131459,
                        41.70789
                    ],
                    [
                        -124.131259,
                        41.707552
                    ],
                    [
                        -124.130786,
                        41.7069
                    ],
                    [
                        -124.130573,
                        41.706488
                    ],
                    [
                        -124.130443,
                        41.706317
                    ],
                    [
                        -124.130195,
                        41.706127
                    ],
                    [
                        -124.130028,
                        41.70605
                    ],
                    [
                        -124.129742,
                        41.705946
                    ],
                    [
                        -124.129411,
                        41.705877
                    ],
                    [
                        -124.128985,
                        41.705845
                    ],
                    [
                        -124.127856,
                        41.705888
                    ],
                    [
                        -124.127331,
                        41.705854
                    ],
                    [
                        -124.126919,
                        41.705741
                    ],
                    [
                        -124.126539,
                        41.705604
                    ],
                    [
                        -124.126354,
                        41.705517
                    ],
                    [
                        -124.126069,
                        41.705324
                    ],
                    [
                        -124.12501,
                        41.704331
                    ],
                    [
                        -124.12451,
                        41.703891
                    ],
                    [
                        -124.122307,
                        41.701781
                    ],
                    [
                        -124.121725,
                        41.701155
                    ],
                    [
                        -124.121322,
                        41.700631
                    ],
                    [
                        -124.120725,
                        41.699651
                    ],
                    [
                        -124.120218,
                        41.69881
                    ],
                    [
                        -124.119718,
                        41.697817
                    ],
                    [
                        -124.119366,
                        41.697235
                    ],
                    [
                        -124.119188,
                        41.69699
                    ],
                    [
                        -124.118841,
                        41.696571
                    ],
                    [
                        -124.11846,
                        41.696202
                    ],
                    [
                        -124.118014,
                        41.695829
                    ],
                    [
                        -124.117829,
                        41.695695
                    ],
                    [
                        -124.117446,
                        41.69548
                    ],
                    [
                        -124.117071,
                        41.695319
                    ],
                    [
                        -124.116219,
                        41.695035
                    ],
                    [
                        -124.115383,
                        41.694835
                    ],
                    [
                        -124.114048,
                        41.694582
                    ],
                    [
                        -124.113306,
                        41.69439
                    ],
                    [
                        -124.113045,
                        41.694309
                    ],
                    [
                        -124.109513,
                        41.692713
                    ],
                    [
                        -124.109287,
                        41.692623
                    ],
                    [
                        -124.108365,
                        41.692122
                    ],
                    [
                        -124.107753,
                        41.691716
                    ],
                    [
                        -124.107463,
                        41.691498
                    ],
                    [
                        -124.107102,
                        41.691177
                    ],
                    [
                        -124.106808,
                        41.690828
                    ],
                    [
                        -124.10644,
                        41.690306
                    ],
                    [
                        -124.106386,
                        41.690152
                    ],
                    [
                        -124.106356,
                        41.689979
                    ],
                    [
                        -124.106363,
                        41.689631
                    ],
                    [
                        -124.106407,
                        41.689397
                    ],
                    [
                        -124.106796,
                        41.688396
                    ],
                    [
                        -124.106897,
                        41.687992
                    ],
                    [
                        -124.106895,
                        41.68766
                    ],
                    [
                        -124.106866,
                        41.68746
                    ],
                    [
                        -124.106705,
                        41.686741
                    ],
                    [
                        -124.106696,
                        41.686452
                    ],
                    [
                        -124.106714,
                        41.686244
                    ],
                    [
                        -124.106775,
                        41.686046
                    ],
                    [
                        -124.106912,
                        41.685809
                    ],
                    [
                        -124.107066,
                        41.685597
                    ],
                    [
                        -124.107264,
                        41.685386
                    ],
                    [
                        -124.107624,
                        41.685103
                    ],
                    [
                        -124.10789,
                        41.684975
                    ],
                    [
                        -124.108174,
                        41.684873
                    ],
                    [
                        -124.112414,
                        41.683911
                    ],
                    [
                        -124.112671,
                        41.683834
                    ],
                    [
                        -124.11298,
                        41.683699
                    ],
                    [
                        -124.113336,
                        41.68343
                    ],
                    [
                        -124.113615,
                        41.683078
                    ],
                    [
                        -124.113767,
                        41.682718
                    ],
                    [
                        -124.113854,
                        41.682311
                    ],
                    [
                        -124.113906,
                        41.681543
                    ],
                    [
                        -124.113972,
                        41.680994
                    ],
                    [
                        -124.113957,
                        41.680606
                    ],
                    [
                        -124.113903,
                        41.680363
                    ],
                    [
                        -124.113765,
                        41.680015
                    ],
                    [
                        -124.113567,
                        41.67958
                    ],
                    [
                        -124.113199,
                        41.678873
                    ],
                    [
                        -124.113007,
                        41.678354
                    ],
                    [
                        -124.112848,
                        41.677424
                    ],
                    [
                        -124.112905,
                        41.676601
                    ],
                    [
                        -124.113005,
                        41.676099
                    ],
                    [
                        -124.113117,
                        41.675726
                    ],
                    [
                        -124.113705,
                        41.674305
                    ],
                    [
                        -124.113812,
                        41.673949
                    ],
                    [
                        -124.113836,
                        41.673737
                    ],
                    [
                        -124.113809,
                        41.673006
                    ],
                    [
                        -124.113725,
                        41.672296
                    ],
                    [
                        -124.113571,
                        41.671308
                    ],
                    [
                        -124.113403,
                        41.66996
                    ],
                    [
                        -124.113289,
                        41.669205
                    ],
                    [
                        -124.113054,
                        41.667965
                    ],
                    [
                        -124.112911,
                        41.667097
                    ],
                    [
                        -124.112909,
                        41.666541
                    ],
                    [
                        -124.112976,
                        41.665937
                    ],
                    [
                        -124.113061,
                        41.665703
                    ],
                    [
                        -124.11321,
                        41.665419
                    ],
                    [
                        -124.113678,
                        41.664789
                    ],
                    [
                        -124.114907,
                        41.663435
                    ],
                    [
                        -124.115191,
                        41.663156
                    ],
                    [
                        -124.115378,
                        41.662889
                    ],
                    [
                        -124.115615,
                        41.662382
                    ],
                    [
                        -124.11582,
                        41.661839
                    ],
                    [
                        -124.116171,
                        41.660583
                    ],
                    [
                        -124.11623,
                        41.660449
                    ],
                    [
                        -124.116259,
                        41.660303
                    ],
                    [
                        -124.116284,
                        41.660103
                    ],
                    [
                        -124.116281,
                        41.65979
                    ],
                    [
                        -124.116247,
                        41.659541
                    ],
                    [
                        -124.116151,
                        41.659327
                    ],
                    [
                        -124.115647,
                        41.658685
                    ],
                    [
                        -124.115529,
                        41.658502
                    ],
                    [
                        -124.115417,
                        41.658298
                    ],
                    [
                        -124.115356,
                        41.658017
                    ],
                    [
                        -124.115369,
                        41.657804
                    ],
                    [
                        -124.115423,
                        41.657528
                    ],
                    [
                        -124.11571,
                        41.65651
                    ],
                    [
                        -124.115838,
                        41.65595
                    ],
                    [
                        -124.115929,
                        41.655241
                    ],
                    [
                        -124.115934,
                        41.654424
                    ],
                    [
                        -124.115885,
                        41.653766
                    ],
                    [
                        -124.115834,
                        41.653506
                    ],
                    [
                        -124.11577,
                        41.653252
                    ],
                    [
                        -124.115516,
                        41.652516
                    ],
                    [
                        -124.115321,
                        41.651876
                    ],
                    [
                        -124.114636,
                        41.649844
                    ],
                    [
                        -124.114457,
                        41.649481
                    ],
                    [
                        -124.114093,
                        41.649008
                    ],
                    [
                        -124.113829,
                        41.648758
                    ],
                    [
                        -124.112744,
                        41.647893
                    ],
                    [
                        -124.11253,
                        41.647595
                    ],
                    [
                        -124.112367,
                        41.647254
                    ],
                    [
                        -124.112333,
                        41.647057
                    ],
                    [
                        -124.112384,
                        41.64654
                    ],
                    [
                        -124.112598,
                        41.646176
                    ],
                    [
                        -124.113098,
                        41.645482
                    ],
                    [
                        -124.113765,
                        41.644645
                    ],
                    [
                        -124.114052,
                        41.644248
                    ],
                    [
                        -124.115011,
                        41.643042
                    ],
                    [
                        -124.115329,
                        41.642616
                    ],
                    [
                        -124.115459,
                        41.642395
                    ],
                    [
                        -124.115561,
                        41.642117
                    ],
                    [
                        -124.115582,
                        41.64188
                    ],
                    [
                        -124.115561,
                        41.641655
                    ],
                    [
                        -124.115455,
                        41.641216
                    ],
                    [
                        -124.115225,
                        41.640656
                    ],
                    [
                        -124.115141,
                        41.640391
                    ],
                    [
                        -124.11509,
                        41.640063
                    ],
                    [
                        -124.115057,
                        41.639616
                    ],
                    [
                        -124.115237,
                        41.638871
                    ],
                    [
                        -124.115315,
                        41.638461
                    ],
                    [
                        -124.115323,
                        41.638236
                    ],
                    [
                        -124.115237,
                        41.638063
                    ],
                    [
                        -124.115109,
                        41.637883
                    ],
                    [
                        -124.114943,
                        41.637545
                    ],
                    [
                        -124.114957,
                        41.637437
                    ],
                    [
                        -124.115062,
                        41.637209
                    ],
                    [
                        -124.115313,
                        41.636753
                    ],
                    [
                        -124.11539,
                        41.636538
                    ],
                    [
                        -124.115375,
                        41.6359
                    ],
                    [
                        -124.115555,
                        41.635042
                    ],
                    [
                        -124.115735,
                        41.634298
                    ],
                    [
                        -124.11572,
                        41.634051
                    ],
                    [
                        -124.115632,
                        41.633811
                    ],
                    [
                        -124.11554,
                        41.633648
                    ],
                    [
                        -124.114672,
                        41.632724
                    ],
                    [
                        -124.11457,
                        41.632557
                    ],
                    [
                        -124.114519,
                        41.632388
                    ],
                    [
                        -124.114433,
                        41.632251
                    ],
                    [
                        -124.113669,
                        41.631561
                    ],
                    [
                        -124.113102,
                        41.630957
                    ],
                    [
                        -124.112663,
                        41.630431
                    ],
                    [
                        -124.11258,
                        41.630316
                    ],
                    [
                        -124.112511,
                        41.630155
                    ],
                    [
                        -124.112473,
                        41.629835
                    ],
                    [
                        -124.112485,
                        41.629503
                    ],
                    [
                        -124.112412,
                        41.62908
                    ],
                    [
                        -124.112285,
                        41.628591
                    ],
                    [
                        -124.112275,
                        41.628421
                    ],
                    [
                        -124.112319,
                        41.627754
                    ],
                    [
                        -124.112457,
                        41.627023
                    ],
                    [
                        -124.112459,
                        41.626697
                    ],
                    [
                        -124.112431,
                        41.626566
                    ],
                    [
                        -124.112299,
                        41.626227
                    ],
                    [
                        -124.111524,
                        41.624944
                    ],
                    [
                        -124.111487,
                        41.62482
                    ],
                    [
                        -124.111361,
                        41.624123
                    ],
                    [
                        -124.111314,
                        41.623964
                    ],
                    [
                        -124.111153,
                        41.623623
                    ],
                    [
                        -124.110965,
                        41.623332
                    ],
                    [
                        -124.110752,
                        41.623085
                    ],
                    [
                        -124.110261,
                        41.622594
                    ],
                    [
                        -124.110135,
                        41.622442
                    ],
                    [
                        -124.109976,
                        41.622212
                    ],
                    [
                        -124.109799,
                        41.621894
                    ],
                    [
                        -124.109712,
                        41.62169
                    ],
                    [
                        -124.109553,
                        41.621088
                    ],
                    [
                        -124.109301,
                        41.619552
                    ],
                    [
                        -124.109307,
                        41.619195
                    ],
                    [
                        -124.109397,
                        41.618592
                    ],
                    [
                        -124.109394,
                        41.618467
                    ],
                    [
                        -124.109374,
                        41.618198
                    ],
                    [
                        -124.109343,
                        41.618065
                    ],
                    [
                        -124.10921,
                        41.617718
                    ],
                    [
                        -124.10913,
                        41.617586
                    ],
                    [
                        -124.108841,
                        41.617237
                    ],
                    [
                        -124.108575,
                        41.617006
                    ],
                    [
                        -124.106944,
                        41.615986
                    ],
                    [
                        -124.106695,
                        41.615774
                    ],
                    [
                        -124.106582,
                        41.615655
                    ],
                    [
                        -124.106464,
                        41.61553
                    ],
                    [
                        -124.106198,
                        41.615132
                    ],
                    [
                        -124.106017,
                        41.6146
                    ],
                    [
                        -124.105951,
                        41.614094
                    ],
                    [
                        -124.10588,
                        41.613509
                    ],
                    [
                        -124.105816,
                        41.613192
                    ],
                    [
                        -124.105773,
                        41.612911
                    ],
                    [
                        -124.105564,
                        41.612029
                    ],
                    [
                        -124.105382,
                        41.611417
                    ],
                    [
                        -124.105022,
                        41.610621
                    ],
                    [
                        -124.104841,
                        41.6103
                    ],
                    [
                        -124.103908,
                        41.60892
                    ],
                    [
                        -124.10367,
                        41.608441
                    ],
                    [
                        -124.10349,
                        41.60801
                    ],
                    [
                        -124.103203,
                        41.607245
                    ],
                    [
                        -124.103011,
                        41.606618
                    ],
                    [
                        -124.102907,
                        41.606388
                    ],
                    [
                        -124.102716,
                        41.606069
                    ],
                    [
                        -124.10255,
                        41.605814
                    ],
                    [
                        -124.102327,
                        41.605564
                    ],
                    [
                        -124.101386,
                        41.604826
                    ],
                    [
                        -124.100888,
                        41.604425
                    ],
                    [
                        -124.1007,
                        41.604245
                    ],
                    [
                        -124.100523,
                        41.604052
                    ],
                    [
                        -124.1004,
                        41.603888
                    ],
                    [
                        -124.100207,
                        41.603567
                    ],
                    [
                        -124.100062,
                        41.603256
                    ],
                    [
                        -124.099966,
                        41.60283
                    ],
                    [
                        -124.099925,
                        41.602419
                    ],
                    [
                        -124.099946,
                        41.602146
                    ],
                    [
                        -124.100295,
                        41.599855
                    ],
                    [
                        -124.10043,
                        41.599376
                    ],
                    [
                        -124.100631,
                        41.598527
                    ],
                    [
                        -124.100998,
                        41.596927
                    ],
                    [
                        -124.101025,
                        41.596702
                    ],
                    [
                        -124.101019,
                        41.596462
                    ],
                    [
                        -124.100974,
                        41.59623
                    ],
                    [
                        -124.10078,
                        41.595812
                    ],
                    [
                        -124.100558,
                        41.595525
                    ],
                    [
                        -124.100423,
                        41.595395
                    ],
                    [
                        -124.100125,
                        41.595188
                    ],
                    [
                        -124.099136,
                        41.594656
                    ],
                    [
                        -124.098938,
                        41.594532
                    ],
                    [
                        -124.098649,
                        41.594309
                    ],
                    [
                        -124.09832,
                        41.594013
                    ],
                    [
                        -124.098004,
                        41.593729
                    ],
                    [
                        -124.097765,
                        41.593466
                    ],
                    [
                        -124.0975,
                        41.593153
                    ],
                    [
                        -124.097186,
                        41.592736
                    ],
                    [
                        -124.097012,
                        41.592467
                    ],
                    [
                        -124.096748,
                        41.591994
                    ],
                    [
                        -124.096323,
                        41.591169
                    ],
                    [
                        -124.096003,
                        41.590613
                    ],
                    [
                        -124.095741,
                        41.590209
                    ],
                    [
                        -124.095441,
                        41.589798
                    ],
                    [
                        -124.094799,
                        41.589026
                    ],
                    [
                        -124.093268,
                        41.587416
                    ],
                    [
                        -124.092442,
                        41.586507
                    ],
                    [
                        -124.091721,
                        41.58577
                    ],
                    [
                        -124.09133,
                        41.585462
                    ],
                    [
                        -124.091032,
                        41.585279
                    ],
                    [
                        -124.09071,
                        41.58512
                    ],
                    [
                        -124.090368,
                        41.584988
                    ],
                    [
                        -124.090009,
                        41.584883
                    ],
                    [
                        -124.08755,
                        41.584327
                    ],
                    [
                        -124.086583,
                        41.584103
                    ],
                    [
                        -124.085669,
                        41.583881
                    ],
                    [
                        -124.083449,
                        41.583276
                    ],
                    [
                        -124.082808,
                        41.583115
                    ],
                    [
                        -124.082068,
                        41.582789
                    ],
                    [
                        -124.081225,
                        41.582384
                    ],
                    [
                        -124.080853,
                        41.582205
                    ],
                    [
                        -124.079827,
                        41.581614
                    ],
                    [
                        -124.079423,
                        41.581351
                    ],
                    [
                        -124.078738,
                        41.58086
                    ],
                    [
                        -124.078152,
                        41.580426
                    ],
                    [
                        -124.077358,
                        41.579855
                    ],
                    [
                        -124.076014,
                        41.578869
                    ],
                    [
                        -124.075399,
                        41.578448
                    ],
                    [
                        -124.07496,
                        41.578089
                    ],
                    [
                        -124.074724,
                        41.577893
                    ],
                    [
                        -124.074384,
                        41.57757
                    ],
                    [
                        -124.074144,
                        41.577289
                    ],
                    [
                        -124.073944,
                        41.577021
                    ],
                    [
                        -124.073732,
                        41.576678
                    ],
                    [
                        -124.073389,
                        41.576078
                    ],
                    [
                        -124.072798,
                        41.575033
                    ],
                    [
                        -124.072703,
                        41.57487
                    ],
                    [
                        -124.072589,
                        41.574673
                    ],
                    [
                        -124.072366,
                        41.574289
                    ],
                    [
                        -124.072231,
                        41.574058
                    ],
                    [
                        -124.071974,
                        41.573601
                    ],
                    [
                        -124.071868,
                        41.573408
                    ],
                    [
                        -124.071586,
                        41.572905
                    ],
                    [
                        -124.071051,
                        41.571898
                    ],
                    [
                        -124.069968,
                        41.569985
                    ],
                    [
                        -124.069125,
                        41.568443
                    ],
                    [
                        -124.06899,
                        41.5682
                    ],
                    [
                        -124.068048,
                        41.566571
                    ],
                    [
                        -124.067723,
                        41.566006
                    ],
                    [
                        -124.067415,
                        41.56547
                    ],
                    [
                        -124.067149,
                        41.565006
                    ],
                    [
                        -124.066874,
                        41.564646
                    ],
                    [
                        -124.066584,
                        41.564345
                    ],
                    [
                        -124.066208,
                        41.564021
                    ],
                    [
                        -124.065827,
                        41.563738
                    ],
                    [
                        -124.064109,
                        41.562678
                    ],
                    [
                        -124.06339,
                        41.562202
                    ],
                    [
                        -124.062621,
                        41.56151
                    ],
                    [
                        -124.06035,
                        41.559401
                    ],
                    [
                        -124.059985,
                        41.559029
                    ],
                    [
                        -124.059164,
                        41.558256
                    ],
                    [
                        -124.058994,
                        41.558101
                    ],
                    [
                        -124.057231,
                        41.556458
                    ],
                    [
                        -124.056914,
                        41.556157
                    ],
                    [
                        -124.056537,
                        41.555798
                    ],
                    [
                        -124.056098,
                        41.555375
                    ],
                    [
                        -124.055787,
                        41.555036
                    ],
                    [
                        -124.055726,
                        41.554994
                    ],
                    [
                        -124.055489,
                        41.55469
                    ],
                    [
                        -124.055372,
                        41.554453
                    ],
                    [
                        -124.055223,
                        41.554145
                    ],
                    [
                        -124.055071,
                        41.553772
                    ],
                    [
                        -124.055009,
                        41.553621
                    ],
                    [
                        -124.054532,
                        41.552593
                    ],
                    [
                        -124.054038,
                        41.551505
                    ],
                    [
                        -124.05305,
                        41.549941
                    ],
                    [
                        -124.052919,
                        41.549661
                    ],
                    [
                        -124.052847,
                        41.549458
                    ],
                    [
                        -124.052023,
                        41.546534
                    ],
                    [
                        -124.051928,
                        41.546281
                    ],
                    [
                        -124.051332,
                        41.54424
                    ],
                    [
                        -124.051175,
                        41.543742
                    ],
                    [
                        -124.051062,
                        41.5434
                    ],
                    [
                        -124.050933,
                        41.543025
                    ],
                    [
                        -124.050831,
                        41.542796
                    ],
                    [
                        -124.050759,
                        41.542623
                    ],
                    [
                        -124.050362,
                        41.541732
                    ],
                    [
                        -124.050191,
                        41.541357
                    ],
                    [
                        -124.04974,
                        41.540416
                    ]
                ],
                "type": "LineString"
            }
        }
    ],
    "metadata": {
        "attribution": "openrouteservice.org | OpenStreetMap contributors",
        "service": "routing",
        "timestamp": 1756794955784,
        "query": {
            "coordinates": [
                [
                    -124.199322,
                    41.750265
                ],
                [
                    -124.0498,
                    41.5404
                ]
            ],
            "profile": "driving-car",
            "profileName": "driving-car",
            "format": "geojson"
        },
        "engine": {
            "version": "9.3.0",
            "build_date": "2025-06-06T15:39:25Z",
            "graph_date": "2025-08-31T11:45:10Z",
            "osm_date": "2025-08-24T23:59:58Z"
        }
    }
}