{
    "type": "FeatureCollection",
    "bbox": [
        -84.162914,
        9.389288,
        -84.147207,
        9.431545
    ],
    "features": [
        {
            "bbox": [
                -84.162914,
                9.389288,
                -84.147207,
                9.431545
            ],
            "type": "Feature",
            "properties": {
                "segments": [
                    {
                        "distance": 7297.1,
                        "duration": 841.6,
                        "steps": [
                            {
                                "distance": 195.8,
                                "duration": 47.0,
                                "type": 11,
                                "instruction": "Head east on Avenida Central",
                                "name": "Avenida Central",
                                "way_points": [
                                    0,
                                    4
                                ]
                            },
                            {
                                "distance": 74.6,
                                "duration": 5.4,
                                "type": 0,
                                "instruction": "Turn left onto Avenida 5",
                                "name": "Avenida 5",
                                "way_points": [
                                    4,
                                    5
                                ]
                            },
                            {
                                "distance": 157.2,
                                "duration": 37.7,
                                "type": 0,
                                "instruction": "Turn left onto Calle 1",
                                "name": "Calle 1",
                                "way_points": [
                                    5,
                                    8
                                ]
                            },
                            {
                                "distance": 105.0,
                                "duration": 25.2,
                                "type": 1,
                                "instruction": "Turn right onto Avenida Central",
                                "name": "Avenida Central",
                                "way_points": [
                                    8,
                                    10
                                ]
                            },
                            {
                                "distance": 83.2,
                                "duration": 20.0,
                                "type": 0,
                                "instruction": "Turn left onto Calle Central",
                                "name": "Calle Central",
                                "way_points": [
                                    10,
                                    11
                                ]
                            },
                            {
                                "distance": 302.1,
                                "duration": 31.1,
                                "type": 0,
                                "instruction": "Turn left onto Avenida 2, 235",
                                "name": "Avenida 2, 235",
                                "way_points": [
                                    11,
                                    16
                                ]
                            },
                            {
                                "distance": 6379.2,
                                "duration": 675.3,
                                "type": 13,
                                "instruction": "Keep right onto V\u00eda 618, 618",
                                "name": "V\u00eda 618, 618",
                                "way_points": [
                                    16,
                                    221
                                ]
                            },
                            {
                                "distance": 0.0,
                                "duration": 0.0,
                                "type": 10,
                                "instruction": "Arrive at V\u00eda 618, 618, on the right",
                                "name": "-",
                                "way_points": [
                                    221,
                                    221
                                ]
                            }
                        ]
                    }
                ],
                "way_points": [
                    0,
                    221
                ],
                "summary": {
                    "distance": 7297.1,
                    "duration": 841.6
                }
            },
            "geometry": {
                "coordinates": [
                    [
                        -84.161596,
                        9.430119
                    ],
                    [
                        -84.16123,
                        9.430097
                    ],
                    [
                        -84.161187,
                        9.430669
                    ],
                    [
                        -84.161182,
                        9.430735
                    ],
                    [
                        -84.161091,
                        9.431488
                    ],
                    [
                        -84.161769,
                        9.431545
                    ],
                    [
                        -84.161819,
                        9.430849
                    ],
                    [
                        -84.161824,
                        9.430785
                    ],
                    [
                        -84.16187,
                        9.430135
                    ],
                    [
                        -84.16223,
                        9.430166
                    ],
                    [
                        -84.162824,
                        9.430218
                    ],
                    [
                        -84.162914,
                        9.429476
                    ],
                    [
                        -84.162306,
                        9.429466
                    ],
                    [
                        -84.161785,
                        9.429473
                    ],
                    [
                        -84.161191,
                        9.429454
                    ],
                    [
                        -84.160346,
                        9.429401
                    ],
                    [
                        -84.160162,
                        9.429396
                    ],
                    [
                        -84.159953,
                        9.429264
                    ],
                    [
                        -84.159684,
                        9.429046
                    ],
                    [
                        -84.159536,
                        9.428906
                    ],
                    [
                        -84.159274,
                        9.428577
                    ],
                    [
                        -84.159216,
                        9.428511
                    ],
                    [
                        -84.15889,
                        9.428299
                    ],
                    [
                        -84.158669,
                        9.428164
                    ],
                    [
                        -84.158363,
                        9.428002
                    ],
                    [
                        -84.157909,
                        9.427774
                    ],
                    [
                        -84.157578,
                        9.427668
                    ],
                    [
                        -84.157235,
                        9.427414
                    ],
                    [
                        -84.157179,
                        9.427328
                    ],
                    [
                        -84.157169,
                        9.427267
                    ],
                    [
                        -84.15719,
                        9.427163
                    ],
                    [
                        -84.157241,
                        9.427051
                    ],
                    [
                        -84.157329,
                        9.42699
                    ],
                    [
                        -84.157903,
                        9.42689
                    ],
                    [
                        -84.158111,
                        9.426773
                    ],
                    [
                        -84.158296,
                        9.426718
                    ],
                    [
                        -84.15883,
                        9.42677
                    ],
                    [
                        -84.158977,
                        9.426748
                    ],
                    [
                        -84.159119,
                        9.426704
                    ],
                    [
                        -84.159306,
                        9.426621
                    ],
                    [
                        -84.159495,
                        9.426476
                    ],
                    [
                        -84.159767,
                        9.426218
                    ],
                    [
                        -84.159926,
                        9.426019
                    ],
                    [
                        -84.160014,
                        9.425707
                    ],
                    [
                        -84.160079,
                        9.425549
                    ],
                    [
                        -84.160137,
                        9.425459
                    ],
                    [
                        -84.16031,
                        9.425292
                    ],
                    [
                        -84.16033,
                        9.425228
                    ],
                    [
                        -84.160321,
                        9.42516
                    ],
                    [
                        -84.160227,
                        9.424935
                    ],
                    [
                        -84.160011,
                        9.42464
                    ],
                    [
                        -84.159569,
                        9.42422
                    ],
                    [
                        -84.15924,
                        9.424055
                    ],
                    [
                        -84.158972,
                        9.423823
                    ],
                    [
                        -84.15877,
                        9.423584
                    ],
                    [
                        -84.158636,
                        9.423309
                    ],
                    [
                        -84.158561,
                        9.422804
                    ],
                    [
                        -84.15858,
                        9.422232
                    ],
                    [
                        -84.158695,
                        9.421773
                    ],
                    [
                        -84.158702,
                        9.421662
                    ],
                    [
                        -84.158766,
                        9.421374
                    ],
                    [
                        -84.15894,
                        9.421098
                    ],
                    [
                        -84.159081,
                        9.42093
                    ],
                    [
                        -84.159177,
                        9.420751
                    ],
                    [
                        -84.159258,
                        9.420433
                    ],
                    [
                        -84.159288,
                        9.420303
                    ],
                    [
                        -84.159234,
                        9.420174
                    ],
                    [
                        -84.159086,
                        9.419958
                    ],
                    [
                        -84.15885,
                        9.419818
                    ],
                    [
                        -84.158648,
                        9.419758
                    ],
                    [
                        -84.15852,
                        9.419691
                    ],
                    [
                        -84.158377,
                        9.419556
                    ],
                    [
                        -84.157817,
                        9.418825
                    ],
                    [
                        -84.157726,
                        9.41843
                    ],
                    [
                        -84.157746,
                        9.418328
                    ],
                    [
                        -84.15785,
                        9.418051
                    ],
                    [
                        -84.157952,
                        9.417837
                    ],
                    [
                        -84.158013,
                        9.417568
                    ],
                    [
                        -84.158001,
                        9.417288
                    ],
                    [
                        -84.157874,
                        9.416819
                    ],
                    [
                        -84.157822,
                        9.416588
                    ],
                    [
                        -84.157728,
                        9.416357
                    ],
                    [
                        -84.157506,
                        9.416195
                    ],
                    [
                        -84.157263,
                        9.416063
                    ],
                    [
                        -84.15693,
                        9.415878
                    ],
                    [
                        -84.156333,
                        9.415216
                    ],
                    [
                        -84.156048,
                        9.414652
                    ],
                    [
                        -84.155862,
                        9.414392
                    ],
                    [
                        -84.155724,
                        9.414193
                    ],
                    [
                        -84.155719,
                        9.414139
                    ],
                    [
                        -84.155743,
                        9.414057
                    ],
                    [
                        -84.155992,
                        9.413773
                    ],
                    [
                        -84.156027,
                        9.4137
                    ],
                    [
                        -84.156031,
                        9.413636
                    ],
                    [
                        -84.155844,
                        9.413311
                    ],
                    [
                        -84.155669,
                        9.412874
                    ],
                    [
                        -84.155607,
                        9.412791
                    ],
                    [
                        -84.155313,
                        9.412543
                    ],
                    [
                        -84.155258,
                        9.412464
                    ],
                    [
                        -84.155203,
                        9.412304
                    ],
                    [
                        -84.154871,
                        9.41085
                    ],
                    [
                        -84.154874,
                        9.410606
                    ],
                    [
                        -84.154885,
                        9.410503
                    ],
                    [
                        -84.154959,
                        9.410339
                    ],
                    [
                        -84.155117,
                        9.410123
                    ],
                    [
                        -84.155219,
                        9.41004
                    ],
                    [
                        -84.155397,
                        9.409973
                    ],
                    [
                        -84.155709,
                        9.409909
                    ],
                    [
                        -84.156298,
                        9.409773
                    ],
                    [
                        -84.156468,
                        9.409761
                    ],
                    [
                        -84.156686,
                        9.409803
                    ],
                    [
                        -84.156834,
                        9.409856
                    ],
                    [
                        -84.157003,
                        9.409899
                    ],
                    [
                        -84.157145,
                        9.40991
                    ],
                    [
                        -84.157358,
                        9.40986
                    ],
                    [
                        -84.157518,
                        9.409798
                    ],
                    [
                        -84.157602,
                        9.409734
                    ],
                    [
                        -84.157675,
                        9.409632
                    ],
                    [
                        -84.157726,
                        9.409531
                    ],
                    [
                        -84.157839,
                        9.40907
                    ],
                    [
                        -84.158052,
                        9.408526
                    ],
                    [
                        -84.158138,
                        9.40824
                    ],
                    [
                        -84.158157,
                        9.407932
                    ],
                    [
                        -84.158149,
                        9.407681
                    ],
                    [
                        -84.15813,
                        9.407605
                    ],
                    [
                        -84.157908,
                        9.406976
                    ],
                    [
                        -84.157624,
                        9.406491
                    ],
                    [
                        -84.157533,
                        9.40631
                    ],
                    [
                        -84.157371,
                        9.406074
                    ],
                    [
                        -84.157245,
                        9.405835
                    ],
                    [
                        -84.157192,
                        9.405688
                    ],
                    [
                        -84.156732,
                        9.405409
                    ],
                    [
                        -84.156512,
                        9.405305
                    ],
                    [
                        -84.156427,
                        9.405238
                    ],
                    [
                        -84.15625,
                        9.405027
                    ],
                    [
                        -84.156134,
                        9.404804
                    ],
                    [
                        -84.155932,
                        9.404548
                    ],
                    [
                        -84.155609,
                        9.404298
                    ],
                    [
                        -84.155292,
                        9.40415
                    ],
                    [
                        -84.154977,
                        9.40405
                    ],
                    [
                        -84.154618,
                        9.403916
                    ],
                    [
                        -84.153623,
                        9.403484
                    ],
                    [
                        -84.153409,
                        9.403278
                    ],
                    [
                        -84.153286,
                        9.403042
                    ],
                    [
                        -84.15322,
                        9.402864
                    ],
                    [
                        -84.153147,
                        9.402452
                    ],
                    [
                        -84.153057,
                        9.402174
                    ],
                    [
                        -84.152908,
                        9.401929
                    ],
                    [
                        -84.152833,
                        9.401758
                    ],
                    [
                        -84.152848,
                        9.401642
                    ],
                    [
                        -84.152903,
                        9.40155
                    ],
                    [
                        -84.153374,
                        9.400967
                    ],
                    [
                        -84.153498,
                        9.400747
                    ],
                    [
                        -84.153526,
                        9.4006
                    ],
                    [
                        -84.153456,
                        9.400225
                    ],
                    [
                        -84.153494,
                        9.400095
                    ],
                    [
                        -84.153557,
                        9.400001
                    ],
                    [
                        -84.153935,
                        9.399588
                    ],
                    [
                        -84.154006,
                        9.399485
                    ],
                    [
                        -84.154123,
                        9.399152
                    ],
                    [
                        -84.154219,
                        9.399001
                    ],
                    [
                        -84.154337,
                        9.398911
                    ],
                    [
                        -84.154728,
                        9.39867
                    ],
                    [
                        -84.155052,
                        9.398487
                    ],
                    [
                        -84.155116,
                        9.398401
                    ],
                    [
                        -84.155164,
                        9.398259
                    ],
                    [
                        -84.15518,
                        9.398049
                    ],
                    [
                        -84.155122,
                        9.397895
                    ],
                    [
                        -84.155021,
                        9.397799
                    ],
                    [
                        -84.15492,
                        9.397768
                    ],
                    [
                        -84.154781,
                        9.397771
                    ],
                    [
                        -84.15442,
                        9.397838
                    ],
                    [
                        -84.154345,
                        9.397811
                    ],
                    [
                        -84.154263,
                        9.397688
                    ],
                    [
                        -84.154252,
                        9.397597
                    ],
                    [
                        -84.154323,
                        9.397109
                    ],
                    [
                        -84.154424,
                        9.396803
                    ],
                    [
                        -84.154424,
                        9.396626
                    ],
                    [
                        -84.154384,
                        9.39647
                    ],
                    [
                        -84.15428,
                        9.396356
                    ],
                    [
                        -84.154119,
                        9.396239
                    ],
                    [
                        -84.153955,
                        9.396145
                    ],
                    [
                        -84.153784,
                        9.396091
                    ],
                    [
                        -84.153362,
                        9.396029
                    ],
                    [
                        -84.152803,
                        9.395934
                    ],
                    [
                        -84.15217,
                        9.395831
                    ],
                    [
                        -84.152017,
                        9.395749
                    ],
                    [
                        -84.151892,
                        9.395579
                    ],
                    [
                        -84.151801,
                        9.395304
                    ],
                    [
                        -84.151772,
                        9.395166
                    ],
                    [
                        -84.151768,
                        9.395047
                    ],
                    [
                        -84.151801,
                        9.394945
                    ],
                    [
                        -84.151896,
                        9.394756
                    ],
                    [
                        -84.151953,
                        9.394547
                    ],
                    [
                        -84.151958,
                        9.394445
                    ],
                    [
                        -84.151921,
                        9.39434
                    ],
                    [
                        -84.151839,
                        9.394258
                    ],
                    [
                        -84.151572,
                        9.394104
                    ],
                    [
                        -84.151395,
                        9.394032
                    ],
                    [
                        -84.151197,
                        9.393927
                    ],
                    [
                        -84.150945,
                        9.393622
                    ],
                    [
                        -84.150541,
                        9.393254
                    ],
                    [
                        -84.150461,
                        9.393125
                    ],
                    [
                        -84.15041,
                        9.392919
                    ],
                    [
                        -84.150411,
                        9.392814
                    ],
                    [
                        -84.150487,
                        9.392404
                    ],
                    [
                        -84.150474,
                        9.392245
                    ],
                    [
                        -84.150425,
                        9.392131
                    ],
                    [
                        -84.150341,
                        9.392013
                    ],
                    [
                        -84.150149,
                        9.391787
                    ],
                    [
                        -84.149975,
                        9.391642
                    ],
                    [
                        -84.149638,
                        9.391401
                    ],
                    [
                        -84.148988,
                        9.390972
                    ],
                    [
                        -84.148613,
                        9.390663
                    ],
                    [
                        -84.148523,
                        9.390622
                    ],
                    [
                        -84.148106,
                        9.390538
                    ],
                    [
                        -84.148016,
                        9.390496
                    ],
                    [
                        -84.147875,
                        9.390377
                    ],
                    [
                        -84.14764,
                        9.390008
                    ],
                    [
                        -84.14746,
                        9.38968
                    ],
                    [
                        -84.147259,
                        9.389345
                    ],
                    [
                        -84.147207,
                        9.389288
                    ]
                ],
                "type": "LineString"
            }
        }
    ],
    "metadata": {
        "attribution": "openrouteservice.org | OpenStreetMap contributors",
        "service": "routing",
        "timestamp": 1756803835478,
        "query": {
            "coordinates": [
                [
                    -84.161592,
                    9.430187
                ],
                [
                    -84.147215,
                    9.389281
                ]
            ],
            "profile": "driving-car",
            "profileName": "driving-car",
            "format": "geojson"
        },
        "engine": {
            "version": "9.3.0",
            "build_date": "2025-06-06T15:39:25Z",
            "graph_date": "2025-08-31T11:45:10Z",
            "osm_date": "2025-08-24T23:59:58Z"
        }
    }
}