{
    "type": "FeatureCollection",
    "bbox": [
        -82.613882,
        9.500084,
        -82.613882,
        9.500084
    ],
    "features": [
        {
            "bbox": [
                -82.613882,
                9.500084,
                -82.613882,
                9.500084
            ],
            "type": "Feature",
            "properties": {
                "segments": [
                    {
                        "distance": 0.0,
                        "duration": 0.0,
                        "steps": [
                            {
                                "distance": 0.0,
                                "duration": 0.0,
                                "type": 11,
                                "instruction": "Head east",
                                "name": "-",
                                "way_points": [
                                    0,
                                    0
                                ]
                            }
                        ]
                    }
                ],
                "way_points": [
                    0,
                    0
                ],
                "summary": {}
            },
            "geometry": {
                "coordinates": [
                    [
                        -82.613882,
                        9.500084
                    ]
                ],
                "type": "LineString"
            }
        }
    ],
    "metadata": {
        "attribution": "openrouteservice.org | OpenStreetMap contributors",
        "service": "routing",
        "timestamp": 1756801715351,
        "query": {
            "coordinates": [
                [
                    -82.613864,
                    9.50009
                ],
                [
                    -82.613864,
                    9.50009
                ]
            ],
            "profile": "driving-car",
            "profileName": "driving-car",
            "format": "geojson"
        },
        "engine": {
            "version": "9.3.0",
            "build_date": "2025-06-06T15:39:25Z",
            "graph_date": "2025-08-31T11:45:10Z",
            "osm_date": "2025-08-24T23:59:58Z"
        }
    }
}