{
    "type": "FeatureCollection",
    "bbox": [
        -85.870494,
        11.252499,
        -85.757738,
        11.460858
    ],
    "features": [
        {
            "bbox": [
                -85.870494,
                11.252499,
                -85.757738,
                11.460858
            ],
            "type": "Feature",
            "properties": {
                "segments": [
                    {
                        "distance": 34943.1,
                        "duration": 2190.7,
                        "steps": [
                            {
                                "distance": 47.9,
                                "duration": 5.8,
                                "type": 11,
                                "instruction": "Head south",
                                "name": "-",
                                "way_points": [
                                    0,
                                    1
                                ]
                            },
                            {
                                "distance": 108.7,
                                "duration": 7.8,
                                "type": 0,
                                "instruction": "Turn left onto Calle Real",
                                "name": "Calle Real",
                                "way_points": [
                                    1,
                                    3
                                ]
                            },
                            {
                                "distance": 18861.9,
                                "duration": 1223.3,
                                "type": 0,
                                "instruction": "Turn left onto Avenida El Calvario",
                                "name": "Avenida El Calvario",
                                "way_points": [
                                    3,
                                    134
                                ]
                            },
                            {
                                "distance": 153.8,
                                "duration": 24.1,
                                "type": 12,
                                "instruction": "Keep left onto Carretera La Virgen - San Juan del Sur, NIC-16",
                                "name": "Carretera La Virgen - San Juan del Sur, NIC-16",
                                "way_points": [
                                    134,
                                    141
                                ]
                            },
                            {
                                "distance": 11064.4,
                                "duration": 620.2,
                                "type": 4,
                                "instruction": "Turn slight left onto Carretera Panamericana Sur, NIC-2",
                                "name": "Carretera Panamericana Sur, NIC-2",
                                "way_points": [
                                    141,
                                    234
                                ]
                            },
                            {
                                "distance": 3154.8,
                                "duration": 198.4,
                                "type": 7,
                                "instruction": "Enter the roundabout and take the 1st exit onto Calle Real, 221",
                                "name": "Calle Real, 221",
                                "exit_number": 1,
                                "way_points": [
                                    234,
                                    279
                                ]
                            },
                            {
                                "distance": 207.9,
                                "duration": 16.6,
                                "type": 0,
                                "instruction": "Turn left onto 221",
                                "name": "221",
                                "way_points": [
                                    279,
                                    283
                                ]
                            },
                            {
                                "distance": 1343.7,
                                "duration": 94.4,
                                "type": 1,
                                "instruction": "Turn right onto Calle del Lago, 221",
                                "name": "Calle del Lago, 221",
                                "way_points": [
                                    283,
                                    294
                                ]
                            },
                            {
                                "distance": 0.0,
                                "duration": 0.0,
                                "type": 10,
                                "instruction": "Arrive at Calle del Lago, 221, on the right",
                                "name": "-",
                                "way_points": [
                                    294,
                                    294
                                ]
                            }
                        ]
                    }
                ],
                "way_points": [
                    0,
                    294
                ],
                "summary": {
                    "distance": 34943.1,
                    "duration": 2190.7
                }
            },
            "geometry": {
                "coordinates": [
                    [
                        -85.870494,
                        11.252919
                    ],
                    [
                        -85.870399,
                        11.252499
                    ],
                    [
                        -85.869892,
                        11.252691
                    ],
                    [
                        -85.869483,
                        11.252883
                    ],
                    [
                        -85.869606,
                        11.253575
                    ],
                    [
                        -85.869681,
                        11.253975
                    ],
                    [
                        -85.869742,
                        11.254313
                    ],
                    [
                        -85.869841,
                        11.254819
                    ],
                    [
                        -85.869863,
                        11.254961
                    ],
                    [
                        -85.869875,
                        11.255036
                    ],
                    [
                        -85.869966,
                        11.255462
                    ],
                    [
                        -85.869907,
                        11.255624
                    ],
                    [
                        -85.869856,
                        11.255701
                    ],
                    [
                        -85.86968,
                        11.25583
                    ],
                    [
                        -85.869659,
                        11.255839
                    ],
                    [
                        -85.869571,
                        11.255882
                    ],
                    [
                        -85.869405,
                        11.255964
                    ],
                    [
                        -85.868944,
                        11.256193
                    ],
                    [
                        -85.868363,
                        11.256452
                    ],
                    [
                        -85.868017,
                        11.256577
                    ],
                    [
                        -85.867689,
                        11.256653
                    ],
                    [
                        -85.867379,
                        11.256694
                    ],
                    [
                        -85.866084,
                        11.256797
                    ],
                    [
                        -85.865858,
                        11.256836
                    ],
                    [
                        -85.86567,
                        11.256884
                    ],
                    [
                        -85.865441,
                        11.256981
                    ],
                    [
                        -85.864962,
                        11.257263
                    ],
                    [
                        -85.864026,
                        11.258161
                    ],
                    [
                        -85.863908,
                        11.258271
                    ],
                    [
                        -85.863671,
                        11.258498
                    ],
                    [
                        -85.862918,
                        11.259211
                    ],
                    [
                        -85.862347,
                        11.259764
                    ],
                    [
                        -85.862145,
                        11.259946
                    ],
                    [
                        -85.861534,
                        11.260528
                    ],
                    [
                        -85.861081,
                        11.260933
                    ],
                    [
                        -85.860694,
                        11.261252
                    ],
                    [
                        -85.860252,
                        11.261552
                    ],
                    [
                        -85.859964,
                        11.261725
                    ],
                    [
                        -85.859686,
                        11.261874
                    ],
                    [
                        -85.859176,
                        11.262114
                    ],
                    [
                        -85.858869,
                        11.262236
                    ],
                    [
                        -85.858331,
                        11.262405
                    ],
                    [
                        -85.857652,
                        11.262562
                    ],
                    [
                        -85.856456,
                        11.262681
                    ],
                    [
                        -85.855742,
                        11.262741
                    ],
                    [
                        -85.855329,
                        11.262771
                    ],
                    [
                        -85.854543,
                        11.262829
                    ],
                    [
                        -85.853943,
                        11.262904
                    ],
                    [
                        -85.853294,
                        11.263029
                    ],
                    [
                        -85.852442,
                        11.263275
                    ],
                    [
                        -85.85124,
                        11.263805
                    ],
                    [
                        -85.851127,
                        11.26387
                    ],
                    [
                        -85.850509,
                        11.264211
                    ],
                    [
                        -85.84973,
                        11.264704
                    ],
                    [
                        -85.849045,
                        11.265191
                    ],
                    [
                        -85.848416,
                        11.265797
                    ],
                    [
                        -85.848185,
                        11.26609
                    ],
                    [
                        -85.847848,
                        11.266515
                    ],
                    [
                        -85.847428,
                        11.267164
                    ],
                    [
                        -85.844463,
                        11.272261
                    ],
                    [
                        -85.842055,
                        11.276356
                    ],
                    [
                        -85.841826,
                        11.276776
                    ],
                    [
                        -85.841635,
                        11.277197
                    ],
                    [
                        -85.841166,
                        11.278487
                    ],
                    [
                        -85.840434,
                        11.280652
                    ],
                    [
                        -85.839999,
                        11.282073
                    ],
                    [
                        -85.839948,
                        11.282321
                    ],
                    [
                        -85.839982,
                        11.283053
                    ],
                    [
                        -85.840074,
                        11.283351
                    ],
                    [
                        -85.840408,
                        11.283879
                    ],
                    [
                        -85.840828,
                        11.284595
                    ],
                    [
                        -85.840968,
                        11.285
                    ],
                    [
                        -85.840996,
                        11.285381
                    ],
                    [
                        -85.840996,
                        11.285728
                    ],
                    [
                        -85.840911,
                        11.286129
                    ],
                    [
                        -85.840798,
                        11.286413
                    ],
                    [
                        -85.839598,
                        11.2891
                    ],
                    [
                        -85.839382,
                        11.289444
                    ],
                    [
                        -85.839063,
                        11.289813
                    ],
                    [
                        -85.838745,
                        11.290119
                    ],
                    [
                        -85.838172,
                        11.290615
                    ],
                    [
                        -85.837587,
                        11.291163
                    ],
                    [
                        -85.837307,
                        11.291519
                    ],
                    [
                        -85.837065,
                        11.291876
                    ],
                    [
                        -85.837,
                        11.29199
                    ],
                    [
                        -85.834518,
                        11.296497
                    ],
                    [
                        -85.834315,
                        11.296879
                    ],
                    [
                        -85.834162,
                        11.297248
                    ],
                    [
                        -85.834098,
                        11.297605
                    ],
                    [
                        -85.83406,
                        11.297949
                    ],
                    [
                        -85.833945,
                        11.299426
                    ],
                    [
                        -85.833907,
                        11.299757
                    ],
                    [
                        -85.833704,
                        11.300304
                    ],
                    [
                        -85.833183,
                        11.301253
                    ],
                    [
                        -85.833119,
                        11.301372
                    ],
                    [
                        -85.832009,
                        11.303266
                    ],
                    [
                        -85.830806,
                        11.305309
                    ],
                    [
                        -85.829439,
                        11.307675
                    ],
                    [
                        -85.828229,
                        11.309318
                    ],
                    [
                        -85.827249,
                        11.310349
                    ],
                    [
                        -85.826624,
                        11.310938
                    ],
                    [
                        -85.824685,
                        11.312831
                    ],
                    [
                        -85.822869,
                        11.314601
                    ],
                    [
                        -85.822524,
                        11.314971
                    ],
                    [
                        -85.822417,
                        11.315083
                    ],
                    [
                        -85.817449,
                        11.319862
                    ],
                    [
                        -85.812662,
                        11.324522
                    ],
                    [
                        -85.807334,
                        11.329681
                    ],
                    [
                        -85.802222,
                        11.334613
                    ],
                    [
                        -85.802093,
                        11.33474
                    ],
                    [
                        -85.801627,
                        11.33521
                    ],
                    [
                        -85.799586,
                        11.337189
                    ],
                    [
                        -85.79867,
                        11.338004
                    ],
                    [
                        -85.798211,
                        11.338361
                    ],
                    [
                        -85.797459,
                        11.338826
                    ],
                    [
                        -85.794657,
                        11.340585
                    ],
                    [
                        -85.794575,
                        11.340633
                    ],
                    [
                        -85.78305,
                        11.347849
                    ],
                    [
                        -85.782891,
                        11.347948
                    ],
                    [
                        -85.781712,
                        11.348689
                    ],
                    [
                        -85.780464,
                        11.349475
                    ],
                    [
                        -85.779827,
                        11.349921
                    ],
                    [
                        -85.778834,
                        11.350697
                    ],
                    [
                        -85.778325,
                        11.351168
                    ],
                    [
                        -85.776544,
                        11.352955
                    ],
                    [
                        -85.774468,
                        11.355038
                    ],
                    [
                        -85.769642,
                        11.359953
                    ],
                    [
                        -85.762737,
                        11.366953
                    ],
                    [
                        -85.761843,
                        11.367858
                    ],
                    [
                        -85.760105,
                        11.369615
                    ],
                    [
                        -85.759487,
                        11.370226
                    ],
                    [
                        -85.759019,
                        11.370692
                    ],
                    [
                        -85.758734,
                        11.370983
                    ],
                    [
                        -85.758452,
                        11.371268
                    ],
                    [
                        -85.758009,
                        11.371715
                    ],
                    [
                        -85.757901,
                        11.371869
                    ],
                    [
                        -85.757801,
                        11.372074
                    ],
                    [
                        -85.757738,
                        11.372317
                    ],
                    [
                        -85.75775,
                        11.372623
                    ],
                    [
                        -85.757813,
                        11.372838
                    ],
                    [
                        -85.75786,
                        11.372933
                    ],
                    [
                        -85.757897,
                        11.373007
                    ],
                    [
                        -85.761078,
                        11.376655
                    ],
                    [
                        -85.761091,
                        11.37667
                    ],
                    [
                        -85.761757,
                        11.377429
                    ],
                    [
                        -85.762065,
                        11.377853
                    ],
                    [
                        -85.762312,
                        11.378267
                    ],
                    [
                        -85.762572,
                        11.378808
                    ],
                    [
                        -85.762709,
                        11.379152
                    ],
                    [
                        -85.763024,
                        11.380392
                    ],
                    [
                        -85.763131,
                        11.38083
                    ],
                    [
                        -85.763331,
                        11.381717
                    ],
                    [
                        -85.763518,
                        11.382321
                    ],
                    [
                        -85.763555,
                        11.382411
                    ],
                    [
                        -85.763706,
                        11.382759
                    ],
                    [
                        -85.76381,
                        11.382959
                    ],
                    [
                        -85.764033,
                        11.383293
                    ],
                    [
                        -85.764375,
                        11.383724
                    ],
                    [
                        -85.764694,
                        11.38402
                    ],
                    [
                        -85.764983,
                        11.384257
                    ],
                    [
                        -85.765451,
                        11.384573
                    ],
                    [
                        -85.766003,
                        11.384926
                    ],
                    [
                        -85.76645,
                        11.385209
                    ],
                    [
                        -85.769979,
                        11.387438
                    ],
                    [
                        -85.770679,
                        11.387913
                    ],
                    [
                        -85.771141,
                        11.388269
                    ],
                    [
                        -85.771515,
                        11.388596
                    ],
                    [
                        -85.771907,
                        11.388972
                    ],
                    [
                        -85.7722,
                        11.389305
                    ],
                    [
                        -85.77249,
                        11.389672
                    ],
                    [
                        -85.772838,
                        11.390183
                    ],
                    [
                        -85.773243,
                        11.390912
                    ],
                    [
                        -85.773683,
                        11.391794
                    ],
                    [
                        -85.774145,
                        11.39262
                    ],
                    [
                        -85.774329,
                        11.392932
                    ],
                    [
                        -85.77455,
                        11.393291
                    ],
                    [
                        -85.775312,
                        11.394432
                    ],
                    [
                        -85.775727,
                        11.394975
                    ],
                    [
                        -85.776508,
                        11.39586
                    ],
                    [
                        -85.776999,
                        11.396392
                    ],
                    [
                        -85.781951,
                        11.401706
                    ],
                    [
                        -85.782076,
                        11.401841
                    ],
                    [
                        -85.784334,
                        11.404218
                    ],
                    [
                        -85.784439,
                        11.404333
                    ],
                    [
                        -85.790503,
                        11.410878
                    ],
                    [
                        -85.791874,
                        11.41233
                    ],
                    [
                        -85.791973,
                        11.412432
                    ],
                    [
                        -85.793641,
                        11.414235
                    ],
                    [
                        -85.794066,
                        11.41465
                    ],
                    [
                        -85.794477,
                        11.414999
                    ],
                    [
                        -85.795507,
                        11.415684
                    ],
                    [
                        -85.796865,
                        11.416306
                    ],
                    [
                        -85.797834,
                        11.416785
                    ],
                    [
                        -85.798228,
                        11.417006
                    ],
                    [
                        -85.798663,
                        11.417301
                    ],
                    [
                        -85.798983,
                        11.417577
                    ],
                    [
                        -85.799198,
                        11.417763
                    ],
                    [
                        -85.799682,
                        11.418268
                    ],
                    [
                        -85.800455,
                        11.419289
                    ],
                    [
                        -85.800537,
                        11.419407
                    ],
                    [
                        -85.802464,
                        11.42225
                    ],
                    [
                        -85.803325,
                        11.423492
                    ],
                    [
                        -85.80373,
                        11.424009
                    ],
                    [
                        -85.804247,
                        11.424605
                    ],
                    [
                        -85.810584,
                        11.430105
                    ],
                    [
                        -85.810856,
                        11.430336
                    ],
                    [
                        -85.811899,
                        11.431227
                    ],
                    [
                        -85.814628,
                        11.433568
                    ],
                    [
                        -85.815332,
                        11.434177
                    ],
                    [
                        -85.815825,
                        11.434605
                    ],
                    [
                        -85.816145,
                        11.434889
                    ],
                    [
                        -85.816748,
                        11.435402
                    ],
                    [
                        -85.817347,
                        11.435935
                    ],
                    [
                        -85.818049,
                        11.436539
                    ],
                    [
                        -85.818729,
                        11.437124
                    ],
                    [
                        -85.819542,
                        11.437816
                    ],
                    [
                        -85.819825,
                        11.43806
                    ],
                    [
                        -85.819953,
                        11.438179
                    ],
                    [
                        -85.821248,
                        11.439293
                    ],
                    [
                        -85.821589,
                        11.439568
                    ],
                    [
                        -85.822443,
                        11.440326
                    ],
                    [
                        -85.822505,
                        11.44038
                    ],
                    [
                        -85.822752,
                        11.440573
                    ],
                    [
                        -85.82357,
                        11.441291
                    ],
                    [
                        -85.823658,
                        11.441369
                    ],
                    [
                        -85.824019,
                        11.441686
                    ],
                    [
                        -85.82426,
                        11.441894
                    ],
                    [
                        -85.82434,
                        11.441963
                    ],
                    [
                        -85.824749,
                        11.442317
                    ],
                    [
                        -85.825342,
                        11.442829
                    ],
                    [
                        -85.825887,
                        11.443301
                    ],
                    [
                        -85.826363,
                        11.443696
                    ],
                    [
                        -85.826515,
                        11.443826
                    ],
                    [
                        -85.82676,
                        11.444035
                    ],
                    [
                        -85.82684,
                        11.444186
                    ],
                    [
                        -85.826841,
                        11.444199
                    ],
                    [
                        -85.826741,
                        11.444324
                    ],
                    [
                        -85.826694,
                        11.444357
                    ],
                    [
                        -85.826646,
                        11.44439
                    ],
                    [
                        -85.826538,
                        11.444465
                    ],
                    [
                        -85.82648,
                        11.444506
                    ],
                    [
                        -85.82623,
                        11.444679
                    ],
                    [
                        -85.826117,
                        11.444757
                    ],
                    [
                        -85.825243,
                        11.445339
                    ],
                    [
                        -85.82459,
                        11.445764
                    ],
                    [
                        -85.824444,
                        11.445864
                    ],
                    [
                        -85.823903,
                        11.446213
                    ],
                    [
                        -85.823286,
                        11.446632
                    ],
                    [
                        -85.823209,
                        11.446678
                    ],
                    [
                        -85.822767,
                        11.446947
                    ],
                    [
                        -85.822481,
                        11.447093
                    ],
                    [
                        -85.821809,
                        11.447404
                    ],
                    [
                        -85.82124,
                        11.447657
                    ],
                    [
                        -85.819979,
                        11.448209
                    ],
                    [
                        -85.819383,
                        11.448477
                    ],
                    [
                        -85.81905,
                        11.448626
                    ],
                    [
                        -85.818373,
                        11.448928
                    ],
                    [
                        -85.818041,
                        11.449076
                    ],
                    [
                        -85.817939,
                        11.449121
                    ],
                    [
                        -85.81784,
                        11.449165
                    ],
                    [
                        -85.817034,
                        11.449538
                    ],
                    [
                        -85.816385,
                        11.449824
                    ],
                    [
                        -85.815431,
                        11.450245
                    ],
                    [
                        -85.814652,
                        11.450589
                    ],
                    [
                        -85.813677,
                        11.451025
                    ],
                    [
                        -85.810383,
                        11.45249
                    ],
                    [
                        -85.809889,
                        11.452658
                    ],
                    [
                        -85.808607,
                        11.45292
                    ],
                    [
                        -85.807873,
                        11.453058
                    ],
                    [
                        -85.807007,
                        11.453227
                    ],
                    [
                        -85.806463,
                        11.453342
                    ],
                    [
                        -85.805806,
                        11.453469
                    ],
                    [
                        -85.80547,
                        11.453535
                    ],
                    [
                        -85.804921,
                        11.453654
                    ],
                    [
                        -85.804411,
                        11.453761
                    ],
                    [
                        -85.803098,
                        11.454027
                    ],
                    [
                        -85.801685,
                        11.454323
                    ],
                    [
                        -85.800995,
                        11.454478
                    ],
                    [
                        -85.80032,
                        11.454607
                    ],
                    [
                        -85.800262,
                        11.454644
                    ],
                    [
                        -85.800257,
                        11.454703
                    ],
                    [
                        -85.800308,
                        11.455013
                    ],
                    [
                        -85.800437,
                        11.455677
                    ],
                    [
                        -85.800602,
                        11.45648
                    ],
                    [
                        -85.79942,
                        11.456708
                    ],
                    [
                        -85.798618,
                        11.456863
                    ],
                    [
                        -85.794896,
                        11.458248
                    ],
                    [
                        -85.791975,
                        11.459231
                    ],
                    [
                        -85.791392,
                        11.459458
                    ],
                    [
                        -85.791093,
                        11.459592
                    ],
                    [
                        -85.790786,
                        11.459755
                    ],
                    [
                        -85.790291,
                        11.460104
                    ],
                    [
                        -85.789636,
                        11.460566
                    ],
                    [
                        -85.789256,
                        11.460821
                    ],
                    [
                        -85.789215,
                        11.460858
                    ]
                ],
                "type": "LineString"
            }
        }
    ],
    "metadata": {
        "attribution": "openrouteservice.org | OpenStreetMap contributors",
        "service": "routing",
        "timestamp": 1756872832858,
        "query": {
            "coordinates": [
                [
                    -85.87049,
                    11.25292
                ],
                [
                    -85.789179,
                    11.460819
                ]
            ],
            "profile": "driving-car",
            "profileName": "driving-car",
            "format": "geojson"
        },
        "engine": {
            "version": "9.3.0",
            "build_date": "2025-06-06T15:39:25Z",
            "graph_date": "2025-08-31T11:45:10Z",
            "osm_date": "2025-08-24T23:59:58Z"
        }
    }
}