{
    "type": "FeatureCollection",
    "bbox": [
        75.815365,
        26.915888,
        75.847692,
        26.974831
    ],
    "features": [
        {
            "bbox": [
                75.815365,
                26.915888,
                75.847692,
                26.974831
            ],
            "type": "Feature",
            "properties": {
                "segments": [
                    {
                        "distance": 15648.3,
                        "duration": 2552.6,
                        "steps": [
                            {
                                "distance": 7.0,
                                "duration": 2.5,
                                "type": 11,
                                "instruction": "Head south",
                                "name": "-",
                                "way_points": [
                                    0,
                                    1
                                ]
                            },
                            {
                                "distance": 14.0,
                                "duration": 0.6,
                                "type": 1,
                                "instruction": "Turn right onto Mirza Ismail Road",
                                "name": "Mirza Ismail Road",
                                "way_points": [
                                    1,
                                    2
                                ]
                            },
                            {
                                "distance": 912.6,
                                "duration": 72.3,
                                "type": 1,
                                "instruction": "Turn right",
                                "name": "-",
                                "way_points": [
                                    2,
                                    14
                                ]
                            },
                            {
                                "distance": 409.3,
                                "duration": 24.6,
                                "type": 1,
                                "instruction": "Turn right onto Tripolia Bazaar",
                                "name": "Tripolia Bazaar",
                                "way_points": [
                                    14,
                                    19
                                ]
                            },
                            {
                                "distance": 34.6,
                                "duration": 8.3,
                                "type": 0,
                                "instruction": "Turn left",
                                "name": "-",
                                "way_points": [
                                    19,
                                    23
                                ]
                            },
                            {
                                "distance": 959.7,
                                "duration": 62.8,
                                "type": 0,
                                "instruction": "Turn left onto Amer Road",
                                "name": "Amer Road",
                                "way_points": [
                                    23,
                                    36
                                ]
                            },
                            {
                                "distance": 538.2,
                                "duration": 35.2,
                                "type": 0,
                                "instruction": "Turn left",
                                "name": "-",
                                "way_points": [
                                    36,
                                    49
                                ]
                            },
                            {
                                "distance": 4141.6,
                                "duration": 274.8,
                                "type": 4,
                                "instruction": "Turn slight left onto Amer Road",
                                "name": "Amer Road",
                                "way_points": [
                                    49,
                                    133
                                ]
                            },
                            {
                                "distance": 3592.6,
                                "duration": 862.2,
                                "type": 0,
                                "instruction": "Turn left onto Nahargarh Road",
                                "name": "Nahargarh Road",
                                "way_points": [
                                    133,
                                    316
                                ]
                            },
                            {
                                "distance": 5038.7,
                                "duration": 1209.3,
                                "type": 0,
                                "instruction": "Turn left",
                                "name": "-",
                                "way_points": [
                                    316,
                                    407
                                ]
                            },
                            {
                                "distance": 0.0,
                                "duration": 0.0,
                                "type": 10,
                                "instruction": "Arrive at your destination, on the left",
                                "name": "-",
                                "way_points": [
                                    407,
                                    407
                                ]
                            }
                        ]
                    }
                ],
                "way_points": [
                    0,
                    407
                ],
                "summary": {
                    "distance": 15648.3,
                    "duration": 2552.6
                }
            },
            "geometry": {
                "coordinates": [
                    [
                        75.82055,
                        26.91595
                    ],
                    [
                        75.82054,
                        26.915888
                    ],
                    [
                        75.820402,
                        26.915917
                    ],
                    [
                        75.820431,
                        26.916031
                    ],
                    [
                        75.82048,
                        26.916216
                    ],
                    [
                        75.820641,
                        26.916895
                    ],
                    [
                        75.820779,
                        26.917436
                    ],
                    [
                        75.820913,
                        26.917914
                    ],
                    [
                        75.821183,
                        26.918828
                    ],
                    [
                        75.82148,
                        26.919849
                    ],
                    [
                        75.821734,
                        26.920821
                    ],
                    [
                        75.822042,
                        26.921984
                    ],
                    [
                        75.822314,
                        26.922957
                    ],
                    [
                        75.822522,
                        26.923809
                    ],
                    [
                        75.822544,
                        26.923897
                    ],
                    [
                        75.822661,
                        26.923874
                    ],
                    [
                        75.823958,
                        26.923617
                    ],
                    [
                        75.825967,
                        26.92319
                    ],
                    [
                        75.826371,
                        26.923113
                    ],
                    [
                        75.826572,
                        26.92311
                    ],
                    [
                        75.82662,
                        26.923176
                    ],
                    [
                        75.826684,
                        26.923223
                    ],
                    [
                        75.826761,
                        26.923252
                    ],
                    [
                        75.826854,
                        26.923259
                    ],
                    [
                        75.827639,
                        26.926055
                    ],
                    [
                        75.82784,
                        26.926762
                    ],
                    [
                        75.828227,
                        26.92818
                    ],
                    [
                        75.828488,
                        26.929154
                    ],
                    [
                        75.828629,
                        26.929651
                    ],
                    [
                        75.828704,
                        26.929732
                    ],
                    [
                        75.828757,
                        26.929758
                    ],
                    [
                        75.828782,
                        26.92977
                    ],
                    [
                        75.82886,
                        26.92978
                    ],
                    [
                        75.828978,
                        26.929766
                    ],
                    [
                        75.829737,
                        26.929598
                    ],
                    [
                        75.830078,
                        26.929548
                    ],
                    [
                        75.830824,
                        26.929406
                    ],
                    [
                        75.830998,
                        26.929759
                    ],
                    [
                        75.831496,
                        26.930535
                    ],
                    [
                        75.831566,
                        26.930605
                    ],
                    [
                        75.831774,
                        26.930897
                    ],
                    [
                        75.83185,
                        26.93104
                    ],
                    [
                        75.831963,
                        26.931223
                    ],
                    [
                        75.832168,
                        26.931752
                    ],
                    [
                        75.832416,
                        26.932389
                    ],
                    [
                        75.832552,
                        26.932751
                    ],
                    [
                        75.832589,
                        26.932863
                    ],
                    [
                        75.832758,
                        26.933374
                    ],
                    [
                        75.83291,
                        26.933648
                    ],
                    [
                        75.83302,
                        26.933803
                    ],
                    [
                        75.833089,
                        26.934078
                    ],
                    [
                        75.833134,
                        26.934215
                    ],
                    [
                        75.833252,
                        26.934585
                    ],
                    [
                        75.833459,
                        26.935263
                    ],
                    [
                        75.833588,
                        26.935673
                    ],
                    [
                        75.833586,
                        26.935747
                    ],
                    [
                        75.833623,
                        26.935868
                    ],
                    [
                        75.83372,
                        26.936034
                    ],
                    [
                        75.834079,
                        26.936483
                    ],
                    [
                        75.834528,
                        26.936997
                    ],
                    [
                        75.835138,
                        26.937623
                    ],
                    [
                        75.835252,
                        26.937742
                    ],
                    [
                        75.835809,
                        26.938272
                    ],
                    [
                        75.836046,
                        26.938493
                    ],
                    [
                        75.836498,
                        26.938913
                    ],
                    [
                        75.836616,
                        26.939049
                    ],
                    [
                        75.836835,
                        26.939301
                    ],
                    [
                        75.837243,
                        26.939784
                    ],
                    [
                        75.837536,
                        26.940163
                    ],
                    [
                        75.837783,
                        26.940507
                    ],
                    [
                        75.837845,
                        26.940601
                    ],
                    [
                        75.838021,
                        26.94087
                    ],
                    [
                        75.838335,
                        26.941331
                    ],
                    [
                        75.838578,
                        26.941683
                    ],
                    [
                        75.838684,
                        26.941844
                    ],
                    [
                        75.838734,
                        26.941921
                    ],
                    [
                        75.839051,
                        26.942415
                    ],
                    [
                        75.839198,
                        26.942679
                    ],
                    [
                        75.839284,
                        26.942919
                    ],
                    [
                        75.839377,
                        26.943494
                    ],
                    [
                        75.839423,
                        26.943739
                    ],
                    [
                        75.839474,
                        26.943963
                    ],
                    [
                        75.839669,
                        26.944711
                    ],
                    [
                        75.839983,
                        26.946079
                    ],
                    [
                        75.840001,
                        26.946154
                    ],
                    [
                        75.840102,
                        26.946577
                    ],
                    [
                        75.840177,
                        26.946856
                    ],
                    [
                        75.840271,
                        26.947148
                    ],
                    [
                        75.840297,
                        26.947229
                    ],
                    [
                        75.840494,
                        26.947957
                    ],
                    [
                        75.840658,
                        26.948561
                    ],
                    [
                        75.841189,
                        26.950432
                    ],
                    [
                        75.841431,
                        26.951205
                    ],
                    [
                        75.841445,
                        26.951251
                    ],
                    [
                        75.841745,
                        26.952246
                    ],
                    [
                        75.842088,
                        26.95336
                    ],
                    [
                        75.842241,
                        26.953907
                    ],
                    [
                        75.842274,
                        26.954019
                    ],
                    [
                        75.842554,
                        26.954928
                    ],
                    [
                        75.842795,
                        26.955572
                    ],
                    [
                        75.843033,
                        26.956215
                    ],
                    [
                        75.843171,
                        26.956578
                    ],
                    [
                        75.8434,
                        26.957116
                    ],
                    [
                        75.843696,
                        26.957675
                    ],
                    [
                        75.84406,
                        26.958417
                    ],
                    [
                        75.84415,
                        26.958597
                    ],
                    [
                        75.844547,
                        26.959397
                    ],
                    [
                        75.844695,
                        26.959723
                    ],
                    [
                        75.844788,
                        26.959981
                    ],
                    [
                        75.844873,
                        26.960308
                    ],
                    [
                        75.84491,
                        26.96066
                    ],
                    [
                        75.844971,
                        26.960849
                    ],
                    [
                        75.845191,
                        26.961357
                    ],
                    [
                        75.845446,
                        26.961844
                    ],
                    [
                        75.845483,
                        26.961914
                    ],
                    [
                        75.845926,
                        26.962763
                    ],
                    [
                        75.846002,
                        26.962879
                    ],
                    [
                        75.846126,
                        26.963067
                    ],
                    [
                        75.846159,
                        26.963132
                    ],
                    [
                        75.846553,
                        26.963955
                    ],
                    [
                        75.846684,
                        26.964278
                    ],
                    [
                        75.846746,
                        26.964485
                    ],
                    [
                        75.846775,
                        26.964661
                    ],
                    [
                        75.846751,
                        26.964884
                    ],
                    [
                        75.846543,
                        26.965416
                    ],
                    [
                        75.846463,
                        26.965722
                    ],
                    [
                        75.846449,
                        26.966031
                    ],
                    [
                        75.846457,
                        26.96652
                    ],
                    [
                        75.846483,
                        26.966666
                    ],
                    [
                        75.846532,
                        26.966768
                    ],
                    [
                        75.846627,
                        26.966875
                    ],
                    [
                        75.847261,
                        26.967373
                    ],
                    [
                        75.847497,
                        26.967532
                    ],
                    [
                        75.847692,
                        26.9677
                    ],
                    [
                        75.847597,
                        26.9678
                    ],
                    [
                        75.847443,
                        26.968042
                    ],
                    [
                        75.847414,
                        26.968196
                    ],
                    [
                        75.847442,
                        26.968586
                    ],
                    [
                        75.847421,
                        26.968648
                    ],
                    [
                        75.847376,
                        26.968703
                    ],
                    [
                        75.847149,
                        26.968833
                    ],
                    [
                        75.847091,
                        26.968848
                    ],
                    [
                        75.846993,
                        26.968826
                    ],
                    [
                        75.846902,
                        26.968741
                    ],
                    [
                        75.846664,
                        26.968389
                    ],
                    [
                        75.846545,
                        26.968305
                    ],
                    [
                        75.846463,
                        26.96829
                    ],
                    [
                        75.84639,
                        26.968296
                    ],
                    [
                        75.846183,
                        26.968368
                    ],
                    [
                        75.846098,
                        26.968425
                    ],
                    [
                        75.846024,
                        26.968497
                    ],
                    [
                        75.845838,
                        26.968765
                    ],
                    [
                        75.8456,
                        26.969003
                    ],
                    [
                        75.845561,
                        26.969081
                    ],
                    [
                        75.845538,
                        26.969236
                    ],
                    [
                        75.84556,
                        26.969306
                    ],
                    [
                        75.845621,
                        26.969405
                    ],
                    [
                        75.845806,
                        26.969567
                    ],
                    [
                        75.845861,
                        26.969635
                    ],
                    [
                        75.845903,
                        26.969722
                    ],
                    [
                        75.846003,
                        26.969976
                    ],
                    [
                        75.846088,
                        26.97046
                    ],
                    [
                        75.846119,
                        26.970527
                    ],
                    [
                        75.846175,
                        26.970596
                    ],
                    [
                        75.846246,
                        26.970652
                    ],
                    [
                        75.846369,
                        26.970693
                    ],
                    [
                        75.846442,
                        26.970692
                    ],
                    [
                        75.846704,
                        26.970623
                    ],
                    [
                        75.846778,
                        26.970618
                    ],
                    [
                        75.84685,
                        26.970633
                    ],
                    [
                        75.846914,
                        26.970678
                    ],
                    [
                        75.846938,
                        26.970711
                    ],
                    [
                        75.846948,
                        26.970763
                    ],
                    [
                        75.846931,
                        26.970822
                    ],
                    [
                        75.846888,
                        26.970865
                    ],
                    [
                        75.846631,
                        26.970989
                    ],
                    [
                        75.84632,
                        26.971207
                    ],
                    [
                        75.846239,
                        26.971281
                    ],
                    [
                        75.846167,
                        26.971388
                    ],
                    [
                        75.84602,
                        26.971693
                    ],
                    [
                        75.845973,
                        26.971725
                    ],
                    [
                        75.845917,
                        26.971739
                    ],
                    [
                        75.845848,
                        26.97173
                    ],
                    [
                        75.845793,
                        26.971696
                    ],
                    [
                        75.845375,
                        26.971154
                    ],
                    [
                        75.845311,
                        26.971097
                    ],
                    [
                        75.845249,
                        26.971069
                    ],
                    [
                        75.845176,
                        26.971061
                    ],
                    [
                        75.845072,
                        26.971081
                    ],
                    [
                        75.844974,
                        26.971149
                    ],
                    [
                        75.844912,
                        26.971226
                    ],
                    [
                        75.844847,
                        26.971412
                    ],
                    [
                        75.844848,
                        26.97154
                    ],
                    [
                        75.844891,
                        26.971879
                    ],
                    [
                        75.844859,
                        26.97199
                    ],
                    [
                        75.844793,
                        26.97208
                    ],
                    [
                        75.844631,
                        26.972233
                    ],
                    [
                        75.844614,
                        26.972292
                    ],
                    [
                        75.844622,
                        26.972687
                    ],
                    [
                        75.844689,
                        26.973255
                    ],
                    [
                        75.844717,
                        26.973339
                    ],
                    [
                        75.844832,
                        26.973551
                    ],
                    [
                        75.844834,
                        26.973608
                    ],
                    [
                        75.84478,
                        26.973672
                    ],
                    [
                        75.844739,
                        26.973687
                    ],
                    [
                        75.844647,
                        26.97367
                    ],
                    [
                        75.844606,
                        26.973634
                    ],
                    [
                        75.84458,
                        26.973561
                    ],
                    [
                        75.844525,
                        26.973285
                    ],
                    [
                        75.844497,
                        26.97291
                    ],
                    [
                        75.84438,
                        26.972298
                    ],
                    [
                        75.844348,
                        26.972
                    ],
                    [
                        75.844348,
                        26.971767
                    ],
                    [
                        75.844307,
                        26.971554
                    ],
                    [
                        75.843961,
                        26.971009
                    ],
                    [
                        75.843912,
                        26.970917
                    ],
                    [
                        75.843843,
                        26.97069
                    ],
                    [
                        75.843798,
                        26.970616
                    ],
                    [
                        75.843738,
                        26.970556
                    ],
                    [
                        75.843672,
                        26.970516
                    ],
                    [
                        75.843586,
                        26.970487
                    ],
                    [
                        75.843465,
                        26.970501
                    ],
                    [
                        75.843427,
                        26.97054
                    ],
                    [
                        75.843417,
                        26.970591
                    ],
                    [
                        75.843437,
                        26.970641
                    ],
                    [
                        75.843641,
                        26.970851
                    ],
                    [
                        75.843764,
                        26.971018
                    ],
                    [
                        75.843804,
                        26.971096
                    ],
                    [
                        75.843828,
                        26.971204
                    ],
                    [
                        75.843807,
                        26.971476
                    ],
                    [
                        75.843814,
                        26.971577
                    ],
                    [
                        75.843982,
                        26.972323
                    ],
                    [
                        75.843971,
                        26.972379
                    ],
                    [
                        75.843941,
                        26.972419
                    ],
                    [
                        75.84389,
                        26.972444
                    ],
                    [
                        75.843827,
                        26.972442
                    ],
                    [
                        75.843764,
                        26.972413
                    ],
                    [
                        75.843614,
                        26.972275
                    ],
                    [
                        75.843349,
                        26.971948
                    ],
                    [
                        75.843261,
                        26.971739
                    ],
                    [
                        75.843198,
                        26.971446
                    ],
                    [
                        75.843143,
                        26.971291
                    ],
                    [
                        75.843005,
                        26.970952
                    ],
                    [
                        75.842968,
                        26.970895
                    ],
                    [
                        75.842927,
                        26.970867
                    ],
                    [
                        75.842806,
                        26.970857
                    ],
                    [
                        75.842756,
                        26.970882
                    ],
                    [
                        75.842732,
                        26.970922
                    ],
                    [
                        75.84273,
                        26.970975
                    ],
                    [
                        75.842828,
                        26.971189
                    ],
                    [
                        75.84284,
                        26.971256
                    ],
                    [
                        75.84283,
                        26.971325
                    ],
                    [
                        75.842791,
                        26.97142
                    ],
                    [
                        75.842729,
                        26.971506
                    ],
                    [
                        75.842539,
                        26.971725
                    ],
                    [
                        75.842483,
                        26.971769
                    ],
                    [
                        75.842431,
                        26.97179
                    ],
                    [
                        75.842318,
                        26.971796
                    ],
                    [
                        75.841934,
                        26.971736
                    ],
                    [
                        75.841744,
                        26.971726
                    ],
                    [
                        75.841598,
                        26.971763
                    ],
                    [
                        75.841563,
                        26.971816
                    ],
                    [
                        75.841554,
                        26.971879
                    ],
                    [
                        75.841586,
                        26.971938
                    ],
                    [
                        75.841831,
                        26.972145
                    ],
                    [
                        75.842469,
                        26.972869
                    ],
                    [
                        75.842511,
                        26.972988
                    ],
                    [
                        75.842522,
                        26.973231
                    ],
                    [
                        75.842551,
                        26.973307
                    ],
                    [
                        75.842598,
                        26.973368
                    ],
                    [
                        75.842792,
                        26.973517
                    ],
                    [
                        75.842966,
                        26.973618
                    ],
                    [
                        75.843022,
                        26.973681
                    ],
                    [
                        75.843178,
                        26.974001
                    ],
                    [
                        75.843273,
                        26.974262
                    ],
                    [
                        75.843351,
                        26.974542
                    ],
                    [
                        75.843369,
                        26.974676
                    ],
                    [
                        75.843372,
                        26.974738
                    ],
                    [
                        75.843342,
                        26.974793
                    ],
                    [
                        75.84329,
                        26.974826
                    ],
                    [
                        75.84323,
                        26.974831
                    ],
                    [
                        75.843176,
                        26.974805
                    ],
                    [
                        75.842985,
                        26.974637
                    ],
                    [
                        75.842859,
                        26.974557
                    ],
                    [
                        75.842752,
                        26.974498
                    ],
                    [
                        75.842536,
                        26.97442
                    ],
                    [
                        75.842354,
                        26.974324
                    ],
                    [
                        75.841984,
                        26.974088
                    ],
                    [
                        75.841579,
                        26.973731
                    ],
                    [
                        75.841429,
                        26.973623
                    ],
                    [
                        75.84131,
                        26.973562
                    ],
                    [
                        75.841127,
                        26.973493
                    ],
                    [
                        75.840903,
                        26.973468
                    ],
                    [
                        75.840494,
                        26.973539
                    ],
                    [
                        75.840404,
                        26.973538
                    ],
                    [
                        75.840313,
                        26.973498
                    ],
                    [
                        75.840203,
                        26.973406
                    ],
                    [
                        75.840059,
                        26.973324
                    ],
                    [
                        75.839541,
                        26.973097
                    ],
                    [
                        75.839336,
                        26.972984
                    ],
                    [
                        75.839255,
                        26.972924
                    ],
                    [
                        75.839034,
                        26.972708
                    ],
                    [
                        75.838752,
                        26.972619
                    ],
                    [
                        75.838697,
                        26.972587
                    ],
                    [
                        75.838435,
                        26.972344
                    ],
                    [
                        75.838361,
                        26.97231
                    ],
                    [
                        75.838205,
                        26.97228
                    ],
                    [
                        75.838046,
                        26.972292
                    ],
                    [
                        75.837973,
                        26.972322
                    ],
                    [
                        75.837933,
                        26.972367
                    ],
                    [
                        75.837902,
                        26.972442
                    ],
                    [
                        75.837917,
                        26.972605
                    ],
                    [
                        75.837989,
                        26.972751
                    ],
                    [
                        75.838438,
                        26.973496
                    ],
                    [
                        75.83851,
                        26.973785
                    ],
                    [
                        75.838537,
                        26.974084
                    ],
                    [
                        75.838626,
                        26.974448
                    ],
                    [
                        75.838536,
                        26.974562
                    ],
                    [
                        75.838431,
                        26.974592
                    ],
                    [
                        75.838297,
                        26.974556
                    ],
                    [
                        75.838168,
                        26.974446
                    ],
                    [
                        75.837704,
                        26.973867
                    ],
                    [
                        75.837313,
                        26.9735
                    ],
                    [
                        75.836519,
                        26.972866
                    ],
                    [
                        75.836275,
                        26.972366
                    ],
                    [
                        75.8361,
                        26.97186
                    ],
                    [
                        75.836019,
                        26.971505
                    ],
                    [
                        75.836111,
                        26.970888
                    ],
                    [
                        75.836045,
                        26.970655
                    ],
                    [
                        75.835784,
                        26.970259
                    ],
                    [
                        75.835562,
                        26.96998
                    ],
                    [
                        75.835353,
                        26.969607
                    ],
                    [
                        75.835184,
                        26.969072
                    ],
                    [
                        75.835053,
                        26.968548
                    ],
                    [
                        75.834805,
                        26.96799
                    ],
                    [
                        75.834583,
                        26.967641
                    ],
                    [
                        75.834034,
                        26.966989
                    ],
                    [
                        75.833852,
                        26.96671
                    ],
                    [
                        75.833721,
                        26.966453
                    ],
                    [
                        75.83359,
                        26.965825
                    ],
                    [
                        75.83346,
                        26.965522
                    ],
                    [
                        75.832911,
                        26.964498
                    ],
                    [
                        75.832624,
                        26.964137
                    ],
                    [
                        75.831945,
                        26.962962
                    ],
                    [
                        75.831775,
                        26.962589
                    ],
                    [
                        75.831645,
                        26.962194
                    ],
                    [
                        75.831553,
                        26.96181
                    ],
                    [
                        75.831658,
                        26.961169
                    ],
                    [
                        75.831749,
                        26.961006
                    ],
                    [
                        75.832115,
                        26.960669
                    ],
                    [
                        75.832227,
                        26.96051
                    ],
                    [
                        75.832284,
                        26.960372
                    ],
                    [
                        75.832128,
                        26.959237
                    ],
                    [
                        75.832063,
                        26.958935
                    ],
                    [
                        75.831957,
                        26.958718
                    ],
                    [
                        75.831796,
                        26.958549
                    ],
                    [
                        75.831632,
                        26.958271
                    ],
                    [
                        75.830899,
                        26.956793
                    ],
                    [
                        75.830606,
                        26.956232
                    ],
                    [
                        75.830287,
                        26.955687
                    ],
                    [
                        75.829966,
                        26.95521
                    ],
                    [
                        75.829741,
                        26.954959
                    ],
                    [
                        75.828447,
                        26.953653
                    ],
                    [
                        75.827009,
                        26.952551
                    ],
                    [
                        75.826412,
                        26.952121
                    ],
                    [
                        75.825789,
                        26.951736
                    ],
                    [
                        75.825476,
                        26.95157
                    ],
                    [
                        75.824882,
                        26.951285
                    ],
                    [
                        75.823673,
                        26.950437
                    ],
                    [
                        75.823335,
                        26.95013
                    ],
                    [
                        75.822952,
                        26.94973
                    ],
                    [
                        75.822595,
                        26.949285
                    ],
                    [
                        75.822254,
                        26.948953
                    ],
                    [
                        75.821829,
                        26.948568
                    ],
                    [
                        75.821112,
                        26.947967
                    ],
                    [
                        75.81974,
                        26.94668
                    ],
                    [
                        75.819031,
                        26.946084
                    ],
                    [
                        75.818612,
                        26.9457
                    ],
                    [
                        75.818325,
                        26.945106
                    ],
                    [
                        75.818247,
                        26.944745
                    ],
                    [
                        75.818257,
                        26.944392
                    ],
                    [
                        75.818294,
                        26.944075
                    ],
                    [
                        75.818386,
                        26.943738
                    ],
                    [
                        75.818484,
                        26.943467
                    ],
                    [
                        75.818505,
                        26.943327
                    ],
                    [
                        75.818438,
                        26.943223
                    ],
                    [
                        75.818349,
                        26.943185
                    ],
                    [
                        75.81818,
                        26.943179
                    ],
                    [
                        75.81815,
                        26.943154
                    ],
                    [
                        75.818068,
                        26.942813
                    ],
                    [
                        75.817981,
                        26.94259
                    ],
                    [
                        75.817934,
                        26.942375
                    ],
                    [
                        75.817981,
                        26.94177
                    ],
                    [
                        75.818022,
                        26.941482
                    ],
                    [
                        75.817981,
                        26.941258
                    ],
                    [
                        75.817764,
                        26.940969
                    ],
                    [
                        75.817533,
                        26.940735
                    ],
                    [
                        75.817338,
                        26.940608
                    ],
                    [
                        75.816856,
                        26.940456
                    ],
                    [
                        75.816653,
                        26.940311
                    ],
                    [
                        75.816515,
                        26.940096
                    ],
                    [
                        75.816267,
                        26.939777
                    ],
                    [
                        75.816134,
                        26.939767
                    ],
                    [
                        75.816036,
                        26.939703
                    ],
                    [
                        75.816004,
                        26.939416
                    ],
                    [
                        75.816046,
                        26.938947
                    ],
                    [
                        75.815723,
                        26.93835
                    ],
                    [
                        75.815365,
                        26.93778
                    ]
                ],
                "type": "LineString"
            }
        }
    ],
    "metadata": {
        "attribution": "openrouteservice.org | OpenStreetMap contributors",
        "service": "routing",
        "timestamp": 1756632298431,
        "query": {
            "coordinates": [
                [
                    75.820505,
                    26.915956
                ],
                [
                    75.815749,
                    26.937588
                ]
            ],
            "profile": "driving-car",
            "profileName": "driving-car",
            "format": "geojson"
        },
        "engine": {
            "version": "9.3.0",
            "build_date": "2025-06-06T15:39:25Z",
            "graph_date": "2025-08-24T11:22:16Z",
            "osm_date": "2025-08-18T00:00:00Z"
        }
    }
}