{
    "type": "FeatureCollection",
    "bbox": [
        -87.73626,
        20.210818,
        -87.453294,
        20.508171
    ],
    "features": [
        {
            "bbox": [
                -87.73626,
                20.210818,
                -87.453294,
                20.508171
            ],
            "type": "Feature",
            "properties": {
                "segments": [
                    {
                        "distance": 47724.7,
                        "duration": 2546.6,
                        "steps": [
                            {
                                "distance": 143.0,
                                "duration": 34.3,
                                "type": 11,
                                "instruction": "Head east on Polar Oriente",
                                "name": "Polar Oriente",
                                "way_points": [
                                    0,
                                    1
                                ]
                            },
                            {
                                "distance": 81.5,
                                "duration": 19.6,
                                "type": 1,
                                "instruction": "Turn right onto Alfa Norte",
                                "name": "Alfa Norte",
                                "way_points": [
                                    1,
                                    2
                                ]
                            },
                            {
                                "distance": 1169.8,
                                "duration": 172.2,
                                "type": 1,
                                "instruction": "Turn right",
                                "name": "-",
                                "way_points": [
                                    2,
                                    18
                                ]
                            },
                            {
                                "distance": 562.7,
                                "duration": 36.8,
                                "type": 0,
                                "instruction": "Turn left onto Avenida Cob\u00e1, QR 109",
                                "name": "Avenida Cob\u00e1, QR 109",
                                "way_points": [
                                    18,
                                    32
                                ]
                            },
                            {
                                "distance": 42720.6,
                                "duration": 2042.9,
                                "type": 5,
                                "instruction": "Turn slight right onto Carretera Tulum - Nuevo X-Can, QR 109",
                                "name": "Carretera Tulum - Nuevo X-Can, QR 109",
                                "way_points": [
                                    32,
                                    177
                                ]
                            },
                            {
                                "distance": 2898.9,
                                "duration": 206.6,
                                "type": 7,
                                "instruction": "Enter the roundabout and take the 3rd exit",
                                "name": "-",
                                "exit_number": 3,
                                "way_points": [
                                    177,
                                    221
                                ]
                            },
                            {
                                "distance": 9.8,
                                "duration": 1.0,
                                "type": 5,
                                "instruction": "Turn slight right",
                                "name": "-",
                                "way_points": [
                                    221,
                                    222
                                ]
                            },
                            {
                                "distance": 138.4,
                                "duration": 33.2,
                                "type": 12,
                                "instruction": "Keep left",
                                "name": "-",
                                "way_points": [
                                    222,
                                    227
                                ]
                            },
                            {
                                "distance": 0.0,
                                "duration": 0.0,
                                "type": 10,
                                "instruction": "Arrive at your destination, on the right",
                                "name": "-",
                                "way_points": [
                                    227,
                                    227
                                ]
                            }
                        ]
                    }
                ],
                "way_points": [
                    0,
                    227
                ],
                "summary": {
                    "distance": 47724.7,
                    "duration": 2546.6
                }
            },
            "geometry": {
                "coordinates": [
                    [
                        -87.465218,
                        20.21121
                    ],
                    [
                        -87.463924,
                        20.211634
                    ],
                    [
                        -87.463784,
                        20.210913
                    ],
                    [
                        -87.463814,
                        20.210888
                    ],
                    [
                        -87.463824,
                        20.210846
                    ],
                    [
                        -87.463796,
                        20.210818
                    ],
                    [
                        -87.463756,
                        20.210818
                    ],
                    [
                        -87.46322,
                        20.210998
                    ],
                    [
                        -87.462805,
                        20.211137
                    ],
                    [
                        -87.461803,
                        20.211458
                    ],
                    [
                        -87.4607,
                        20.211814
                    ],
                    [
                        -87.459519,
                        20.212173
                    ],
                    [
                        -87.458444,
                        20.212506
                    ],
                    [
                        -87.458312,
                        20.212545
                    ],
                    [
                        -87.457085,
                        20.212919
                    ],
                    [
                        -87.455893,
                        20.213305
                    ],
                    [
                        -87.454748,
                        20.213665
                    ],
                    [
                        -87.45337,
                        20.214111
                    ],
                    [
                        -87.453294,
                        20.214138
                    ],
                    [
                        -87.453337,
                        20.214263
                    ],
                    [
                        -87.453424,
                        20.214474
                    ],
                    [
                        -87.453479,
                        20.21462
                    ],
                    [
                        -87.4536,
                        20.214948
                    ],
                    [
                        -87.453724,
                        20.215288
                    ],
                    [
                        -87.453826,
                        20.215572
                    ],
                    [
                        -87.454032,
                        20.216193
                    ],
                    [
                        -87.454253,
                        20.21677
                    ],
                    [
                        -87.454482,
                        20.217394
                    ],
                    [
                        -87.454498,
                        20.21744
                    ],
                    [
                        -87.454647,
                        20.217877
                    ],
                    [
                        -87.45469,
                        20.218004
                    ],
                    [
                        -87.454979,
                        20.218848
                    ],
                    [
                        -87.455043,
                        20.218918
                    ],
                    [
                        -87.455101,
                        20.219074
                    ],
                    [
                        -87.455167,
                        20.219257
                    ],
                    [
                        -87.455758,
                        20.22089
                    ],
                    [
                        -87.455928,
                        20.221359
                    ],
                    [
                        -87.45644,
                        20.22274
                    ],
                    [
                        -87.45722,
                        20.224953
                    ],
                    [
                        -87.45733,
                        20.225254
                    ],
                    [
                        -87.45736,
                        20.225338
                    ],
                    [
                        -87.458586,
                        20.228705
                    ],
                    [
                        -87.459185,
                        20.23036
                    ],
                    [
                        -87.460887,
                        20.235067
                    ],
                    [
                        -87.461057,
                        20.235543
                    ],
                    [
                        -87.461143,
                        20.235782
                    ],
                    [
                        -87.46128,
                        20.236166
                    ],
                    [
                        -87.463151,
                        20.241391
                    ],
                    [
                        -87.463207,
                        20.241547
                    ],
                    [
                        -87.464738,
                        20.24583
                    ],
                    [
                        -87.465092,
                        20.24683
                    ],
                    [
                        -87.465786,
                        20.248791
                    ],
                    [
                        -87.465961,
                        20.249291
                    ],
                    [
                        -87.466154,
                        20.249845
                    ],
                    [
                        -87.46642,
                        20.250588
                    ],
                    [
                        -87.467918,
                        20.254851
                    ],
                    [
                        -87.468385,
                        20.256123
                    ],
                    [
                        -87.468528,
                        20.256512
                    ],
                    [
                        -87.468821,
                        20.257139
                    ],
                    [
                        -87.469135,
                        20.25765
                    ],
                    [
                        -87.46961,
                        20.258292
                    ],
                    [
                        -87.470209,
                        20.258916
                    ],
                    [
                        -87.471506,
                        20.2602
                    ],
                    [
                        -87.471569,
                        20.260263
                    ],
                    [
                        -87.472078,
                        20.260764
                    ],
                    [
                        -87.473254,
                        20.261938
                    ],
                    [
                        -87.473814,
                        20.262495
                    ],
                    [
                        -87.476903,
                        20.265603
                    ],
                    [
                        -87.477024,
                        20.265724
                    ],
                    [
                        -87.477857,
                        20.266554
                    ],
                    [
                        -87.480855,
                        20.26954
                    ],
                    [
                        -87.48159,
                        20.270271
                    ],
                    [
                        -87.486219,
                        20.274858
                    ],
                    [
                        -87.486947,
                        20.275579
                    ],
                    [
                        -87.48936,
                        20.277995
                    ],
                    [
                        -87.490858,
                        20.279479
                    ],
                    [
                        -87.491487,
                        20.280036
                    ],
                    [
                        -87.492156,
                        20.280557
                    ],
                    [
                        -87.493837,
                        20.281678
                    ],
                    [
                        -87.49397,
                        20.28176
                    ],
                    [
                        -87.494705,
                        20.282252
                    ],
                    [
                        -87.494799,
                        20.282328
                    ],
                    [
                        -87.496753,
                        20.283614
                    ],
                    [
                        -87.499694,
                        20.28557
                    ],
                    [
                        -87.502327,
                        20.287321
                    ],
                    [
                        -87.506382,
                        20.290017
                    ],
                    [
                        -87.507093,
                        20.29049
                    ],
                    [
                        -87.508908,
                        20.291698
                    ],
                    [
                        -87.512582,
                        20.294126
                    ],
                    [
                        -87.514783,
                        20.295545
                    ],
                    [
                        -87.516948,
                        20.296983
                    ],
                    [
                        -87.518348,
                        20.297894
                    ],
                    [
                        -87.525033,
                        20.302408
                    ],
                    [
                        -87.525283,
                        20.302573
                    ],
                    [
                        -87.52708,
                        20.303757
                    ],
                    [
                        -87.527746,
                        20.304217
                    ],
                    [
                        -87.530895,
                        20.306318
                    ],
                    [
                        -87.531603,
                        20.306822
                    ],
                    [
                        -87.532168,
                        20.307297
                    ],
                    [
                        -87.532286,
                        20.30741
                    ],
                    [
                        -87.532376,
                        20.307472
                    ],
                    [
                        -87.532537,
                        20.307659
                    ],
                    [
                        -87.53296,
                        20.308072
                    ],
                    [
                        -87.535065,
                        20.310167
                    ],
                    [
                        -87.537688,
                        20.312818
                    ],
                    [
                        -87.539403,
                        20.314511
                    ],
                    [
                        -87.539941,
                        20.315067
                    ],
                    [
                        -87.552984,
                        20.328103
                    ],
                    [
                        -87.554228,
                        20.329331
                    ],
                    [
                        -87.558076,
                        20.333198
                    ],
                    [
                        -87.564332,
                        20.339448
                    ],
                    [
                        -87.567383,
                        20.34249
                    ],
                    [
                        -87.569783,
                        20.344937
                    ],
                    [
                        -87.570127,
                        20.345234
                    ],
                    [
                        -87.570936,
                        20.346025
                    ],
                    [
                        -87.571701,
                        20.34681
                    ],
                    [
                        -87.572094,
                        20.347159
                    ],
                    [
                        -87.572817,
                        20.347915
                    ],
                    [
                        -87.574262,
                        20.34935
                    ],
                    [
                        -87.575012,
                        20.350102
                    ],
                    [
                        -87.575763,
                        20.350851
                    ],
                    [
                        -87.576457,
                        20.351537
                    ],
                    [
                        -87.577166,
                        20.352264
                    ],
                    [
                        -87.577908,
                        20.35301
                    ],
                    [
                        -87.578619,
                        20.353721
                    ],
                    [
                        -87.579317,
                        20.354424
                    ],
                    [
                        -87.579977,
                        20.355091
                    ],
                    [
                        -87.581482,
                        20.356607
                    ],
                    [
                        -87.582075,
                        20.357199
                    ],
                    [
                        -87.583081,
                        20.358211
                    ],
                    [
                        -87.584028,
                        20.359159
                    ],
                    [
                        -87.584421,
                        20.359549
                    ],
                    [
                        -87.585138,
                        20.360262
                    ],
                    [
                        -87.586617,
                        20.361721
                    ],
                    [
                        -87.587325,
                        20.36243
                    ],
                    [
                        -87.588049,
                        20.363155
                    ],
                    [
                        -87.588809,
                        20.363914
                    ],
                    [
                        -87.589505,
                        20.36461
                    ],
                    [
                        -87.590234,
                        20.365344
                    ],
                    [
                        -87.590941,
                        20.366052
                    ],
                    [
                        -87.591646,
                        20.366758
                    ],
                    [
                        -87.592363,
                        20.367414
                    ],
                    [
                        -87.592958,
                        20.368033
                    ],
                    [
                        -87.607107,
                        20.382203
                    ],
                    [
                        -87.616897,
                        20.391981
                    ],
                    [
                        -87.617587,
                        20.392668
                    ],
                    [
                        -87.618461,
                        20.393542
                    ],
                    [
                        -87.619712,
                        20.394786
                    ],
                    [
                        -87.620063,
                        20.395137
                    ],
                    [
                        -87.623304,
                        20.398367
                    ],
                    [
                        -87.623868,
                        20.398929
                    ],
                    [
                        -87.636097,
                        20.41113
                    ],
                    [
                        -87.639441,
                        20.414471
                    ],
                    [
                        -87.640541,
                        20.415736
                    ],
                    [
                        -87.644243,
                        20.420153
                    ],
                    [
                        -87.648675,
                        20.425423
                    ],
                    [
                        -87.650084,
                        20.427126
                    ],
                    [
                        -87.650383,
                        20.427538
                    ],
                    [
                        -87.650988,
                        20.428295
                    ],
                    [
                        -87.651568,
                        20.428973
                    ],
                    [
                        -87.652136,
                        20.429656
                    ],
                    [
                        -87.652729,
                        20.430368
                    ],
                    [
                        -87.654981,
                        20.433016
                    ],
                    [
                        -87.655289,
                        20.43332
                    ],
                    [
                        -87.662441,
                        20.44185
                    ],
                    [
                        -87.664882,
                        20.444737
                    ],
                    [
                        -87.667135,
                        20.44742
                    ],
                    [
                        -87.667681,
                        20.44806
                    ],
                    [
                        -87.669008,
                        20.449616
                    ],
                    [
                        -87.669507,
                        20.450229
                    ],
                    [
                        -87.669641,
                        20.450383
                    ],
                    [
                        -87.671193,
                        20.45225
                    ],
                    [
                        -87.684229,
                        20.46776
                    ],
                    [
                        -87.702054,
                        20.488844
                    ],
                    [
                        -87.717123,
                        20.506858
                    ],
                    [
                        -87.717416,
                        20.507222
                    ],
                    [
                        -87.717547,
                        20.507466
                    ],
                    [
                        -87.717677,
                        20.507791
                    ],
                    [
                        -87.717702,
                        20.507925
                    ],
                    [
                        -87.71777,
                        20.508035
                    ],
                    [
                        -87.717872,
                        20.508118
                    ],
                    [
                        -87.717998,
                        20.508166
                    ],
                    [
                        -87.718134,
                        20.508171
                    ],
                    [
                        -87.718221,
                        20.508152
                    ],
                    [
                        -87.71834,
                        20.50809
                    ],
                    [
                        -87.71843,
                        20.507995
                    ],
                    [
                        -87.718482,
                        20.507877
                    ],
                    [
                        -87.71849,
                        20.507836
                    ],
                    [
                        -87.718493,
                        20.507795
                    ],
                    [
                        -87.718603,
                        20.507686
                    ],
                    [
                        -87.718742,
                        20.507585
                    ],
                    [
                        -87.719007,
                        20.507445
                    ],
                    [
                        -87.723256,
                        20.505711
                    ],
                    [
                        -87.723662,
                        20.505535
                    ],
                    [
                        -87.724233,
                        20.505197
                    ],
                    [
                        -87.724727,
                        20.504859
                    ],
                    [
                        -87.725731,
                        20.504126
                    ],
                    [
                        -87.730671,
                        20.500433
                    ],
                    [
                        -87.731343,
                        20.499955
                    ],
                    [
                        -87.731744,
                        20.499574
                    ],
                    [
                        -87.732141,
                        20.49914
                    ],
                    [
                        -87.732332,
                        20.498921
                    ],
                    [
                        -87.732354,
                        20.498891
                    ],
                    [
                        -87.732443,
                        20.498827
                    ],
                    [
                        -87.732723,
                        20.498491
                    ],
                    [
                        -87.732894,
                        20.498256
                    ],
                    [
                        -87.733597,
                        20.497319
                    ],
                    [
                        -87.734267,
                        20.49649
                    ],
                    [
                        -87.734745,
                        20.495846
                    ],
                    [
                        -87.734991,
                        20.495496
                    ],
                    [
                        -87.735174,
                        20.495258
                    ],
                    [
                        -87.735462,
                        20.49491
                    ],
                    [
                        -87.735778,
                        20.494531
                    ],
                    [
                        -87.736161,
                        20.493997
                    ],
                    [
                        -87.736238,
                        20.493807
                    ],
                    [
                        -87.73626,
                        20.493616
                    ],
                    [
                        -87.736175,
                        20.493412
                    ],
                    [
                        -87.736057,
                        20.493286
                    ],
                    [
                        -87.735832,
                        20.493109
                    ],
                    [
                        -87.734923,
                        20.492539
                    ],
                    [
                        -87.734299,
                        20.492142
                    ],
                    [
                        -87.734164,
                        20.492106
                    ],
                    [
                        -87.734111,
                        20.492033
                    ],
                    [
                        -87.733871,
                        20.491965
                    ],
                    [
                        -87.733762,
                        20.491873
                    ],
                    [
                        -87.733605,
                        20.491711
                    ],
                    [
                        -87.733434,
                        20.491347
                    ],
                    [
                        -87.733296,
                        20.491128
                    ]
                ],
                "type": "LineString"
            }
        }
    ],
    "metadata": {
        "attribution": "openrouteservice.org | OpenStreetMap contributors",
        "service": "routing",
        "timestamp": 1756799299911,
        "query": {
            "coordinates": [
                [
                    -87.465124,
                    20.210958
                ],
                [
                    -87.733341,
                    20.491103
                ]
            ],
            "profile": "driving-car",
            "profileName": "driving-car",
            "format": "geojson"
        },
        "engine": {
            "version": "9.3.0",
            "build_date": "2025-06-06T15:39:25Z",
            "graph_date": "2025-08-31T11:45:10Z",
            "osm_date": "2025-08-24T23:59:58Z"
        }
    }
}