{
    "type": "FeatureCollection",
    "bbox": [
        -85.665783,
        10.635086,
        -85.436838,
        10.877652
    ],
    "features": [
        {
            "bbox": [
                -85.665783,
                10.635086,
                -85.436838,
                10.877652
            ],
            "type": "Feature",
            "properties": {
                "segments": [
                    {
                        "distance": 53265.2,
                        "duration": 3834.1,
                        "steps": [
                            {
                                "distance": 24.3,
                                "duration": 5.8,
                                "type": 11,
                                "instruction": "Head east on Avenida 11",
                                "name": "Avenida 11",
                                "way_points": [
                                    0,
                                    1
                                ]
                            },
                            {
                                "distance": 46.0,
                                "duration": 11.0,
                                "type": 2,
                                "instruction": "Turn sharp left onto Calle 5",
                                "name": "Calle 5",
                                "way_points": [
                                    1,
                                    2
                                ]
                            },
                            {
                                "distance": 72.0,
                                "duration": 17.3,
                                "type": 1,
                                "instruction": "Turn right onto Calle 5",
                                "name": "Calle 5",
                                "way_points": [
                                    2,
                                    4
                                ]
                            },
                            {
                                "distance": 152.0,
                                "duration": 36.5,
                                "type": 6,
                                "instruction": "Continue straight onto Avenida 13",
                                "name": "Avenida 13",
                                "way_points": [
                                    4,
                                    8
                                ]
                            },
                            {
                                "distance": 574.1,
                                "duration": 106.2,
                                "type": 2,
                                "instruction": "Turn sharp left onto Transversal 7",
                                "name": "Transversal 7",
                                "way_points": [
                                    8,
                                    16
                                ]
                            },
                            {
                                "distance": 177.8,
                                "duration": 21.3,
                                "type": 0,
                                "instruction": "Turn left onto Avenida 21",
                                "name": "Avenida 21",
                                "way_points": [
                                    16,
                                    18
                                ]
                            },
                            {
                                "distance": 232.9,
                                "duration": 55.9,
                                "type": 1,
                                "instruction": "Turn right onto Calle Central Rafael Iglesias",
                                "name": "Calle Central Rafael Iglesias",
                                "way_points": [
                                    18,
                                    25
                                ]
                            },
                            {
                                "distance": 961.7,
                                "duration": 69.2,
                                "type": 0,
                                "instruction": "Turn left onto Avenida 25",
                                "name": "Avenida 25",
                                "way_points": [
                                    25,
                                    44
                                ]
                            },
                            {
                                "distance": 32564.9,
                                "duration": 1405.8,
                                "type": 7,
                                "instruction": "Enter the roundabout and take the 1st exit onto Carretera Interamericana Norte, 1",
                                "name": "Carretera Interamericana Norte, 1",
                                "exit_number": 1,
                                "way_points": [
                                    44,
                                    211
                                ]
                            },
                            {
                                "distance": 7108.7,
                                "duration": 731.2,
                                "type": 2,
                                "instruction": "Turn sharp left onto V\u00eda 913, 913",
                                "name": "V\u00eda 913, 913",
                                "way_points": [
                                    211,
                                    288
                                ]
                            },
                            {
                                "distance": 300.5,
                                "duration": 36.1,
                                "type": 13,
                                "instruction": "Keep right onto Calle Estaci\u00f3n de Guardaparques",
                                "name": "Calle Estaci\u00f3n de Guardaparques",
                                "way_points": [
                                    288,
                                    292
                                ]
                            },
                            {
                                "distance": 39.3,
                                "duration": 9.4,
                                "type": 0,
                                "instruction": "Turn left",
                                "name": "-",
                                "way_points": [
                                    292,
                                    294
                                ]
                            },
                            {
                                "distance": 11011.1,
                                "duration": 1328.4,
                                "type": 5,
                                "instruction": "Turn slight right onto Calle Playa Naranjo",
                                "name": "Calle Playa Naranjo",
                                "way_points": [
                                    294,
                                    492
                                ]
                            },
                            {
                                "distance": 0.0,
                                "duration": 0.0,
                                "type": 10,
                                "instruction": "Arrive at Calle Playa Naranjo, on the left",
                                "name": "-",
                                "way_points": [
                                    492,
                                    492
                                ]
                            }
                        ]
                    }
                ],
                "way_points": [
                    0,
                    492
                ],
                "summary": {
                    "distance": 53265.2,
                    "duration": 3834.1
                }
            },
            "geometry": {
                "coordinates": [
                    [
                        -85.437731,
                        10.635086
                    ],
                    [
                        -85.437516,
                        10.635138
                    ],
                    [
                        -85.43785,
                        10.63539
                    ],
                    [
                        -85.437827,
                        10.635632
                    ],
                    [
                        -85.437767,
                        10.636032
                    ],
                    [
                        -85.437739,
                        10.636142
                    ],
                    [
                        -85.437639,
                        10.636274
                    ],
                    [
                        -85.437037,
                        10.63685
                    ],
                    [
                        -85.436838,
                        10.637026
                    ],
                    [
                        -85.437444,
                        10.637147
                    ],
                    [
                        -85.438011,
                        10.637265
                    ],
                    [
                        -85.43864,
                        10.637376
                    ],
                    [
                        -85.438831,
                        10.637473
                    ],
                    [
                        -85.438983,
                        10.637689
                    ],
                    [
                        -85.439303,
                        10.638094
                    ],
                    [
                        -85.439941,
                        10.638856
                    ],
                    [
                        -85.440793,
                        10.639957
                    ],
                    [
                        -85.441517,
                        10.639435
                    ],
                    [
                        -85.442118,
                        10.639029
                    ],
                    [
                        -85.442181,
                        10.639149
                    ],
                    [
                        -85.442272,
                        10.63932
                    ],
                    [
                        -85.442353,
                        10.639557
                    ],
                    [
                        -85.442433,
                        10.639905
                    ],
                    [
                        -85.442648,
                        10.640116
                    ],
                    [
                        -85.442737,
                        10.640337
                    ],
                    [
                        -85.44297,
                        10.640917
                    ],
                    [
                        -85.443453,
                        10.640652
                    ],
                    [
                        -85.444452,
                        10.640049
                    ],
                    [
                        -85.445357,
                        10.639456
                    ],
                    [
                        -85.445491,
                        10.639398
                    ],
                    [
                        -85.445984,
                        10.639351
                    ],
                    [
                        -85.446354,
                        10.639291
                    ],
                    [
                        -85.446624,
                        10.639247
                    ],
                    [
                        -85.447283,
                        10.639103
                    ],
                    [
                        -85.447547,
                        10.639037
                    ],
                    [
                        -85.447881,
                        10.639007
                    ],
                    [
                        -85.448044,
                        10.638993
                    ],
                    [
                        -85.448479,
                        10.638867
                    ],
                    [
                        -85.44865,
                        10.638802
                    ],
                    [
                        -85.448962,
                        10.638686
                    ],
                    [
                        -85.449082,
                        10.638534
                    ],
                    [
                        -85.449186,
                        10.638337
                    ],
                    [
                        -85.449478,
                        10.637702
                    ],
                    [
                        -85.449773,
                        10.63717
                    ],
                    [
                        -85.450037,
                        10.636715
                    ],
                    [
                        -85.450087,
                        10.636731
                    ],
                    [
                        -85.450292,
                        10.636964
                    ],
                    [
                        -85.450648,
                        10.637457
                    ],
                    [
                        -85.450792,
                        10.637613
                    ],
                    [
                        -85.450978,
                        10.637911
                    ],
                    [
                        -85.451312,
                        10.638424
                    ],
                    [
                        -85.451611,
                        10.638875
                    ],
                    [
                        -85.451751,
                        10.639098
                    ],
                    [
                        -85.451993,
                        10.63948
                    ],
                    [
                        -85.452878,
                        10.640814
                    ],
                    [
                        -85.453668,
                        10.641994
                    ],
                    [
                        -85.453823,
                        10.642232
                    ],
                    [
                        -85.45428,
                        10.642939
                    ],
                    [
                        -85.454538,
                        10.643307
                    ],
                    [
                        -85.455017,
                        10.643897
                    ],
                    [
                        -85.455178,
                        10.644079
                    ],
                    [
                        -85.45557,
                        10.644477
                    ],
                    [
                        -85.456207,
                        10.645032
                    ],
                    [
                        -85.456585,
                        10.645326
                    ],
                    [
                        -85.457204,
                        10.645744
                    ],
                    [
                        -85.45938,
                        10.647115
                    ],
                    [
                        -85.460572,
                        10.647883
                    ],
                    [
                        -85.461179,
                        10.648307
                    ],
                    [
                        -85.46195,
                        10.648911
                    ],
                    [
                        -85.463142,
                        10.650026
                    ],
                    [
                        -85.463419,
                        10.650321
                    ],
                    [
                        -85.464033,
                        10.650992
                    ],
                    [
                        -85.464359,
                        10.651387
                    ],
                    [
                        -85.464962,
                        10.652222
                    ],
                    [
                        -85.465397,
                        10.652811
                    ],
                    [
                        -85.467078,
                        10.655554
                    ],
                    [
                        -85.46746,
                        10.656176
                    ],
                    [
                        -85.468624,
                        10.65805
                    ],
                    [
                        -85.468839,
                        10.658391
                    ],
                    [
                        -85.469365,
                        10.659271
                    ],
                    [
                        -85.46969,
                        10.659758
                    ],
                    [
                        -85.47053,
                        10.661135
                    ],
                    [
                        -85.471364,
                        10.662489
                    ],
                    [
                        -85.47211,
                        10.663714
                    ],
                    [
                        -85.472595,
                        10.664461
                    ],
                    [
                        -85.473014,
                        10.665101
                    ],
                    [
                        -85.473582,
                        10.66578
                    ],
                    [
                        -85.473741,
                        10.665927
                    ],
                    [
                        -85.473962,
                        10.666116
                    ],
                    [
                        -85.474617,
                        10.666554
                    ],
                    [
                        -85.474923,
                        10.666728
                    ],
                    [
                        -85.475588,
                        10.666999
                    ],
                    [
                        -85.47599,
                        10.667134
                    ],
                    [
                        -85.478298,
                        10.667866
                    ],
                    [
                        -85.478863,
                        10.668032
                    ],
                    [
                        -85.481177,
                        10.668767
                    ],
                    [
                        -85.481658,
                        10.668921
                    ],
                    [
                        -85.482227,
                        10.669086
                    ],
                    [
                        -85.482988,
                        10.669397
                    ],
                    [
                        -85.483621,
                        10.669684
                    ],
                    [
                        -85.484126,
                        10.669996
                    ],
                    [
                        -85.484672,
                        10.670435
                    ],
                    [
                        -85.485466,
                        10.671192
                    ],
                    [
                        -85.485756,
                        10.671511
                    ],
                    [
                        -85.4869,
                        10.673394
                    ],
                    [
                        -85.488745,
                        10.67682
                    ],
                    [
                        -85.489104,
                        10.677559
                    ],
                    [
                        -85.493823,
                        10.686211
                    ],
                    [
                        -85.494194,
                        10.68716
                    ],
                    [
                        -85.494716,
                        10.688779
                    ],
                    [
                        -85.495146,
                        10.69011
                    ],
                    [
                        -85.495837,
                        10.692253
                    ],
                    [
                        -85.496687,
                        10.694921
                    ],
                    [
                        -85.497856,
                        10.698745
                    ],
                    [
                        -85.497897,
                        10.698871
                    ],
                    [
                        -85.499816,
                        10.704805
                    ],
                    [
                        -85.500239,
                        10.705925
                    ],
                    [
                        -85.500511,
                        10.706526
                    ],
                    [
                        -85.502007,
                        10.708422
                    ],
                    [
                        -85.502606,
                        10.709091
                    ],
                    [
                        -85.504172,
                        10.710841
                    ],
                    [
                        -85.504824,
                        10.711569
                    ],
                    [
                        -85.507658,
                        10.71491
                    ],
                    [
                        -85.50808,
                        10.715407
                    ],
                    [
                        -85.508984,
                        10.716773
                    ],
                    [
                        -85.509083,
                        10.716996
                    ],
                    [
                        -85.509558,
                        10.718003
                    ],
                    [
                        -85.509761,
                        10.718507
                    ],
                    [
                        -85.509949,
                        10.719118
                    ],
                    [
                        -85.510193,
                        10.720227
                    ],
                    [
                        -85.510268,
                        10.72076
                    ],
                    [
                        -85.510386,
                        10.722067
                    ],
                    [
                        -85.510447,
                        10.722811
                    ],
                    [
                        -85.510471,
                        10.723084
                    ],
                    [
                        -85.510521,
                        10.723624
                    ],
                    [
                        -85.511204,
                        10.731131
                    ],
                    [
                        -85.511687,
                        10.737333
                    ],
                    [
                        -85.511808,
                        10.738713
                    ],
                    [
                        -85.51265,
                        10.749458
                    ],
                    [
                        -85.512747,
                        10.74999
                    ],
                    [
                        -85.512886,
                        10.750512
                    ],
                    [
                        -85.51302,
                        10.750881
                    ],
                    [
                        -85.51323,
                        10.751339
                    ],
                    [
                        -85.51382,
                        10.752146
                    ],
                    [
                        -85.514292,
                        10.752646
                    ],
                    [
                        -85.515325,
                        10.753531
                    ],
                    [
                        -85.515984,
                        10.754122
                    ],
                    [
                        -85.516908,
                        10.754946
                    ],
                    [
                        -85.518941,
                        10.756766
                    ],
                    [
                        -85.51974,
                        10.757641
                    ],
                    [
                        -85.520461,
                        10.75862
                    ],
                    [
                        -85.521105,
                        10.759753
                    ],
                    [
                        -85.528779,
                        10.775256
                    ],
                    [
                        -85.530487,
                        10.778664
                    ],
                    [
                        -85.537381,
                        10.792588
                    ],
                    [
                        -85.538641,
                        10.795037
                    ],
                    [
                        -85.543613,
                        10.805001
                    ],
                    [
                        -85.544231,
                        10.806287
                    ],
                    [
                        -85.544402,
                        10.806682
                    ],
                    [
                        -85.544536,
                        10.807072
                    ],
                    [
                        -85.54472,
                        10.807783
                    ],
                    [
                        -85.544778,
                        10.808269
                    ],
                    [
                        -85.544805,
                        10.808801
                    ],
                    [
                        -85.544686,
                        10.810266
                    ],
                    [
                        -85.544438,
                        10.812093
                    ],
                    [
                        -85.544368,
                        10.812505
                    ],
                    [
                        -85.544035,
                        10.81488
                    ],
                    [
                        -85.543982,
                        10.815403
                    ],
                    [
                        -85.54388,
                        10.816097
                    ],
                    [
                        -85.543781,
                        10.817236
                    ],
                    [
                        -85.543804,
                        10.817668
                    ],
                    [
                        -85.543938,
                        10.818373
                    ],
                    [
                        -85.544083,
                        10.81879
                    ],
                    [
                        -85.544268,
                        10.819205
                    ],
                    [
                        -85.544823,
                        10.81999
                    ],
                    [
                        -85.553451,
                        10.827458
                    ],
                    [
                        -85.554172,
                        10.828128
                    ],
                    [
                        -85.554738,
                        10.828797
                    ],
                    [
                        -85.555382,
                        10.829621
                    ],
                    [
                        -85.555974,
                        10.830497
                    ],
                    [
                        -85.559219,
                        10.83606
                    ],
                    [
                        -85.55976,
                        10.837038
                    ],
                    [
                        -85.560456,
                        10.838017
                    ],
                    [
                        -85.567955,
                        10.846866
                    ],
                    [
                        -85.568395,
                        10.847448
                    ],
                    [
                        -85.56888,
                        10.847929
                    ],
                    [
                        -85.56934,
                        10.848292
                    ],
                    [
                        -85.570113,
                        10.848601
                    ],
                    [
                        -85.571031,
                        10.848928
                    ],
                    [
                        -85.571735,
                        10.849202
                    ],
                    [
                        -85.572328,
                        10.849606
                    ],
                    [
                        -85.572663,
                        10.850121
                    ],
                    [
                        -85.572843,
                        10.850636
                    ],
                    [
                        -85.572894,
                        10.851151
                    ],
                    [
                        -85.572766,
                        10.851769
                    ],
                    [
                        -85.5705,
                        10.85898
                    ],
                    [
                        -85.570319,
                        10.859503
                    ],
                    [
                        -85.570259,
                        10.859924
                    ],
                    [
                        -85.570429,
                        10.860516
                    ],
                    [
                        -85.571003,
                        10.862017
                    ],
                    [
                        -85.572598,
                        10.868193
                    ],
                    [
                        -85.572834,
                        10.869294
                    ],
                    [
                        -85.573402,
                        10.871486
                    ],
                    [
                        -85.573618,
                        10.872418
                    ],
                    [
                        -85.573874,
                        10.873085
                    ],
                    [
                        -85.574115,
                        10.873565
                    ],
                    [
                        -85.574488,
                        10.874046
                    ],
                    [
                        -85.574999,
                        10.874433
                    ],
                    [
                        -85.575304,
                        10.874606
                    ],
                    [
                        -85.576003,
                        10.874871
                    ],
                    [
                        -85.584265,
                        10.877156
                    ],
                    [
                        -85.585886,
                        10.877652
                    ],
                    [
                        -85.586018,
                        10.875262
                    ],
                    [
                        -85.5861,
                        10.875004
                    ],
                    [
                        -85.586516,
                        10.874171
                    ],
                    [
                        -85.587858,
                        10.872116
                    ],
                    [
                        -85.58823,
                        10.871665
                    ],
                    [
                        -85.588608,
                        10.871256
                    ],
                    [
                        -85.589112,
                        10.87089
                    ],
                    [
                        -85.589676,
                        10.870643
                    ],
                    [
                        -85.592041,
                        10.870068
                    ],
                    [
                        -85.592501,
                        10.870003
                    ],
                    [
                        -85.595787,
                        10.869895
                    ],
                    [
                        -85.597123,
                        10.869971
                    ],
                    [
                        -85.597555,
                        10.869971
                    ],
                    [
                        -85.59795,
                        10.86989
                    ],
                    [
                        -85.599373,
                        10.869385
                    ],
                    [
                        -85.599773,
                        10.869191
                    ],
                    [
                        -85.600277,
                        10.868906
                    ],
                    [
                        -85.600786,
                        10.868761
                    ],
                    [
                        -85.602111,
                        10.868755
                    ],
                    [
                        -85.602555,
                        10.868841
                    ],
                    [
                        -85.602932,
                        10.868971
                    ],
                    [
                        -85.603261,
                        10.869137
                    ],
                    [
                        -85.603529,
                        10.869309
                    ],
                    [
                        -85.603737,
                        10.869395
                    ],
                    [
                        -85.604039,
                        10.869406
                    ],
                    [
                        -85.605895,
                        10.86904
                    ],
                    [
                        -85.606202,
                        10.868906
                    ],
                    [
                        -85.60774,
                        10.867142
                    ],
                    [
                        -85.607866,
                        10.867035
                    ],
                    [
                        -85.608452,
                        10.866674
                    ],
                    [
                        -85.608688,
                        10.866448
                    ],
                    [
                        -85.608852,
                        10.866185
                    ],
                    [
                        -85.609345,
                        10.865104
                    ],
                    [
                        -85.609394,
                        10.864948
                    ],
                    [
                        -85.609372,
                        10.864824
                    ],
                    [
                        -85.609295,
                        10.864572
                    ],
                    [
                        -85.609208,
                        10.8644
                    ],
                    [
                        -85.60889,
                        10.863991
                    ],
                    [
                        -85.608748,
                        10.863706
                    ],
                    [
                        -85.608233,
                        10.862442
                    ],
                    [
                        -85.608156,
                        10.862141
                    ],
                    [
                        -85.608003,
                        10.860619
                    ],
                    [
                        -85.60802,
                        10.860318
                    ],
                    [
                        -85.608162,
                        10.85992
                    ],
                    [
                        -85.608249,
                        10.859522
                    ],
                    [
                        -85.60831,
                        10.858995
                    ],
                    [
                        -85.608474,
                        10.858409
                    ],
                    [
                        -85.608874,
                        10.857624
                    ],
                    [
                        -85.608961,
                        10.857387
                    ],
                    [
                        -85.609235,
                        10.856344
                    ],
                    [
                        -85.609284,
                        10.856199
                    ],
                    [
                        -85.609569,
                        10.855532
                    ],
                    [
                        -85.609613,
                        10.855252
                    ],
                    [
                        -85.609345,
                        10.854026
                    ],
                    [
                        -85.609126,
                        10.853655
                    ],
                    [
                        -85.608709,
                        10.853235
                    ],
                    [
                        -85.608282,
                        10.852999
                    ],
                    [
                        -85.607729,
                        10.852827
                    ],
                    [
                        -85.607466,
                        10.852526
                    ],
                    [
                        -85.607406,
                        10.852149
                    ],
                    [
                        -85.607598,
                        10.851799
                    ],
                    [
                        -85.608436,
                        10.851186
                    ],
                    [
                        -85.608824,
                        10.85102
                    ],
                    [
                        -85.609805,
                        10.85074
                    ],
                    [
                        -85.610254,
                        10.850783
                    ],
                    [
                        -85.610801,
                        10.851176
                    ],
                    [
                        -85.611185,
                        10.851219
                    ],
                    [
                        -85.611502,
                        10.85109
                    ],
                    [
                        -85.611979,
                        10.850745
                    ],
                    [
                        -85.612159,
                        10.850573
                    ],
                    [
                        -85.612269,
                        10.850358
                    ],
                    [
                        -85.612619,
                        10.849401
                    ],
                    [
                        -85.613676,
                        10.845346
                    ],
                    [
                        -85.613786,
                        10.844754
                    ],
                    [
                        -85.613972,
                        10.842388
                    ],
                    [
                        -85.614059,
                        10.841705
                    ],
                    [
                        -85.614951,
                        10.83709
                    ],
                    [
                        -85.616387,
                        10.836164
                    ],
                    [
                        -85.616654,
                        10.836018
                    ],
                    [
                        -85.616926,
                        10.83601
                    ],
                    [
                        -85.617381,
                        10.836033
                    ],
                    [
                        -85.617485,
                        10.835924
                    ],
                    [
                        -85.617596,
                        10.835751
                    ],
                    [
                        -85.618125,
                        10.835558
                    ],
                    [
                        -85.619271,
                        10.836038
                    ],
                    [
                        -85.620189,
                        10.836512
                    ],
                    [
                        -85.621091,
                        10.836723
                    ],
                    [
                        -85.621939,
                        10.836415
                    ],
                    [
                        -85.62334,
                        10.835833
                    ],
                    [
                        -85.624699,
                        10.835404
                    ],
                    [
                        -85.62558,
                        10.835153
                    ],
                    [
                        -85.62618,
                        10.834921
                    ],
                    [
                        -85.626416,
                        10.834652
                    ],
                    [
                        -85.626585,
                        10.834352
                    ],
                    [
                        -85.626816,
                        10.834085
                    ],
                    [
                        -85.627557,
                        10.833713
                    ],
                    [
                        -85.628323,
                        10.833446
                    ],
                    [
                        -85.629724,
                        10.83326
                    ],
                    [
                        -85.631063,
                        10.833135
                    ],
                    [
                        -85.632772,
                        10.833219
                    ],
                    [
                        -85.633076,
                        10.833033
                    ],
                    [
                        -85.633828,
                        10.831988
                    ],
                    [
                        -85.634084,
                        10.831469
                    ],
                    [
                        -85.634135,
                        10.83116
                    ],
                    [
                        -85.634279,
                        10.830994
                    ],
                    [
                        -85.634931,
                        10.830332
                    ],
                    [
                        -85.63597,
                        10.828885
                    ],
                    [
                        -85.636075,
                        10.828783
                    ],
                    [
                        -85.636311,
                        10.828641
                    ],
                    [
                        -85.636483,
                        10.828475
                    ],
                    [
                        -85.636522,
                        10.828291
                    ],
                    [
                        -85.636487,
                        10.827988
                    ],
                    [
                        -85.636554,
                        10.827389
                    ],
                    [
                        -85.636693,
                        10.82703
                    ],
                    [
                        -85.637459,
                        10.826423
                    ],
                    [
                        -85.637747,
                        10.826156
                    ],
                    [
                        -85.637928,
                        10.825671
                    ],
                    [
                        -85.638027,
                        10.825468
                    ],
                    [
                        -85.638859,
                        10.824894
                    ],
                    [
                        -85.639617,
                        10.82449
                    ],
                    [
                        -85.64007,
                        10.824109
                    ],
                    [
                        -85.640918,
                        10.823705
                    ],
                    [
                        -85.641948,
                        10.823268
                    ],
                    [
                        -85.642244,
                        10.823219
                    ],
                    [
                        -85.642862,
                        10.823244
                    ],
                    [
                        -85.64303,
                        10.823076
                    ],
                    [
                        -85.643072,
                        10.822469
                    ],
                    [
                        -85.643241,
                        10.822297
                    ],
                    [
                        -85.643468,
                        10.822269
                    ],
                    [
                        -85.643746,
                        10.822268
                    ],
                    [
                        -85.643906,
                        10.822191
                    ],
                    [
                        -85.644073,
                        10.822038
                    ],
                    [
                        -85.644192,
                        10.821551
                    ],
                    [
                        -85.644151,
                        10.821223
                    ],
                    [
                        -85.643844,
                        10.820254
                    ],
                    [
                        -85.643543,
                        10.819387
                    ],
                    [
                        -85.643409,
                        10.818911
                    ],
                    [
                        -85.64334,
                        10.818372
                    ],
                    [
                        -85.643323,
                        10.817694
                    ],
                    [
                        -85.643286,
                        10.817303
                    ],
                    [
                        -85.643364,
                        10.816456
                    ],
                    [
                        -85.643468,
                        10.816111
                    ],
                    [
                        -85.643529,
                        10.815736
                    ],
                    [
                        -85.64359,
                        10.814986
                    ],
                    [
                        -85.643506,
                        10.812925
                    ],
                    [
                        -85.643158,
                        10.811832
                    ],
                    [
                        -85.643002,
                        10.811497
                    ],
                    [
                        -85.642711,
                        10.811056
                    ],
                    [
                        -85.642574,
                        10.810875
                    ],
                    [
                        -85.642444,
                        10.810525
                    ],
                    [
                        -85.642521,
                        10.810137
                    ],
                    [
                        -85.642401,
                        10.809762
                    ],
                    [
                        -85.64222,
                        10.809467
                    ],
                    [
                        -85.642007,
                        10.809363
                    ],
                    [
                        -85.641818,
                        10.809316
                    ],
                    [
                        -85.641459,
                        10.809097
                    ],
                    [
                        -85.641053,
                        10.808733
                    ],
                    [
                        -85.6408,
                        10.808418
                    ],
                    [
                        -85.640713,
                        10.80825
                    ],
                    [
                        -85.640692,
                        10.808015
                    ],
                    [
                        -85.640724,
                        10.807617
                    ],
                    [
                        -85.640926,
                        10.807144
                    ],
                    [
                        -85.640985,
                        10.806741
                    ],
                    [
                        -85.640979,
                        10.806477
                    ],
                    [
                        -85.640883,
                        10.806268
                    ],
                    [
                        -85.640786,
                        10.805931
                    ],
                    [
                        -85.640688,
                        10.805683
                    ],
                    [
                        -85.640613,
                        10.805406
                    ],
                    [
                        -85.640597,
                        10.805121
                    ],
                    [
                        -85.640668,
                        10.804815
                    ],
                    [
                        -85.640776,
                        10.804511
                    ],
                    [
                        -85.640773,
                        10.804372
                    ],
                    [
                        -85.640702,
                        10.804246
                    ],
                    [
                        -85.640569,
                        10.804089
                    ],
                    [
                        -85.64054,
                        10.803972
                    ],
                    [
                        -85.640539,
                        10.803798
                    ],
                    [
                        -85.640611,
                        10.803265
                    ],
                    [
                        -85.640734,
                        10.802853
                    ],
                    [
                        -85.640769,
                        10.802645
                    ],
                    [
                        -85.640785,
                        10.802285
                    ],
                    [
                        -85.640279,
                        10.801606
                    ],
                    [
                        -85.640179,
                        10.801362
                    ],
                    [
                        -85.640183,
                        10.801093
                    ],
                    [
                        -85.640262,
                        10.800925
                    ],
                    [
                        -85.640865,
                        10.800236
                    ],
                    [
                        -85.641083,
                        10.799927
                    ],
                    [
                        -85.641176,
                        10.799702
                    ],
                    [
                        -85.641072,
                        10.799131
                    ],
                    [
                        -85.641075,
                        10.79892
                    ],
                    [
                        -85.641137,
                        10.798737
                    ],
                    [
                        -85.641208,
                        10.798607
                    ],
                    [
                        -85.641336,
                        10.798495
                    ],
                    [
                        -85.641528,
                        10.798236
                    ],
                    [
                        -85.641636,
                        10.798187
                    ],
                    [
                        -85.64178,
                        10.79821
                    ],
                    [
                        -85.64232,
                        10.798441
                    ],
                    [
                        -85.64265,
                        10.798612
                    ],
                    [
                        -85.642965,
                        10.798675
                    ],
                    [
                        -85.643532,
                        10.798629
                    ],
                    [
                        -85.64384,
                        10.798767
                    ],
                    [
                        -85.64417,
                        10.799097
                    ],
                    [
                        -85.644362,
                        10.79917
                    ],
                    [
                        -85.6447,
                        10.799056
                    ],
                    [
                        -85.645043,
                        10.799045
                    ],
                    [
                        -85.645658,
                        10.799229
                    ],
                    [
                        -85.645997,
                        10.799386
                    ],
                    [
                        -85.646353,
                        10.799798
                    ],
                    [
                        -85.646825,
                        10.800281
                    ],
                    [
                        -85.646972,
                        10.800406
                    ],
                    [
                        -85.647342,
                        10.800181
                    ],
                    [
                        -85.647628,
                        10.79985
                    ],
                    [
                        -85.647998,
                        10.799859
                    ],
                    [
                        -85.64843,
                        10.799929
                    ],
                    [
                        -85.64866,
                        10.799939
                    ],
                    [
                        -85.648845,
                        10.799884
                    ],
                    [
                        -85.64891,
                        10.799692
                    ],
                    [
                        -85.648894,
                        10.799513
                    ],
                    [
                        -85.648939,
                        10.799241
                    ],
                    [
                        -85.649387,
                        10.798672
                    ],
                    [
                        -85.649794,
                        10.79807
                    ],
                    [
                        -85.649896,
                        10.797814
                    ],
                    [
                        -85.650163,
                        10.797635
                    ],
                    [
                        -85.65095,
                        10.797326
                    ],
                    [
                        -85.651315,
                        10.797024
                    ],
                    [
                        -85.651694,
                        10.796447
                    ],
                    [
                        -85.651988,
                        10.796229
                    ],
                    [
                        -85.652417,
                        10.795702
                    ],
                    [
                        -85.652971,
                        10.795461
                    ],
                    [
                        -85.653242,
                        10.795189
                    ],
                    [
                        -85.653554,
                        10.794949
                    ],
                    [
                        -85.65412,
                        10.79475
                    ],
                    [
                        -85.654632,
                        10.794493
                    ],
                    [
                        -85.655204,
                        10.79413
                    ],
                    [
                        -85.655605,
                        10.794024
                    ],
                    [
                        -85.656012,
                        10.793956
                    ],
                    [
                        -85.65648,
                        10.793686
                    ],
                    [
                        -85.657051,
                        10.793266
                    ],
                    [
                        -85.65753,
                        10.79302
                    ],
                    [
                        -85.658055,
                        10.792822
                    ],
                    [
                        -85.658584,
                        10.792799
                    ],
                    [
                        -85.659113,
                        10.792728
                    ],
                    [
                        -85.659395,
                        10.792619
                    ],
                    [
                        -85.659639,
                        10.79245
                    ],
                    [
                        -85.659973,
                        10.792027
                    ],
                    [
                        -85.660786,
                        10.791592
                    ],
                    [
                        -85.661744,
                        10.791009
                    ],
                    [
                        -85.662136,
                        10.790601
                    ],
                    [
                        -85.662231,
                        10.790166
                    ],
                    [
                        -85.662288,
                        10.789701
                    ],
                    [
                        -85.662487,
                        10.788888
                    ],
                    [
                        -85.662696,
                        10.787799
                    ],
                    [
                        -85.662834,
                        10.787602
                    ],
                    [
                        -85.663071,
                        10.787355
                    ],
                    [
                        -85.663709,
                        10.786812
                    ],
                    [
                        -85.663846,
                        10.786673
                    ],
                    [
                        -85.663888,
                        10.786427
                    ],
                    [
                        -85.663862,
                        10.786151
                    ],
                    [
                        -85.663727,
                        10.785362
                    ],
                    [
                        -85.663709,
                        10.785178
                    ],
                    [
                        -85.663901,
                        10.784438
                    ],
                    [
                        -85.664054,
                        10.78399
                    ],
                    [
                        -85.664099,
                        10.783721
                    ],
                    [
                        -85.664377,
                        10.783069
                    ],
                    [
                        -85.66438,
                        10.782936
                    ],
                    [
                        -85.664323,
                        10.782818
                    ],
                    [
                        -85.664121,
                        10.782713
                    ],
                    [
                        -85.66386,
                        10.78263
                    ],
                    [
                        -85.663425,
                        10.782564
                    ],
                    [
                        -85.663163,
                        10.782384
                    ],
                    [
                        -85.662723,
                        10.781225
                    ],
                    [
                        -85.662693,
                        10.780986
                    ],
                    [
                        -85.662729,
                        10.780622
                    ],
                    [
                        -85.662914,
                        10.780362
                    ],
                    [
                        -85.663161,
                        10.780339
                    ],
                    [
                        -85.663518,
                        10.780259
                    ],
                    [
                        -85.663736,
                        10.780115
                    ],
                    [
                        -85.664025,
                        10.780047
                    ],
                    [
                        -85.664268,
                        10.779742
                    ],
                    [
                        -85.664558,
                        10.779575
                    ],
                    [
                        -85.665626,
                        10.779244
                    ],
                    [
                        -85.665783,
                        10.779147
                    ]
                ],
                "type": "LineString"
            }
        }
    ],
    "metadata": {
        "attribution": "openrouteservice.org | OpenStreetMap contributors",
        "service": "routing",
        "timestamp": 1756806985038,
        "query": {
            "coordinates": [
                [
                    -85.43772,
                    10.63504
                ],
                [
                    -85.665756,
                    10.779104
                ]
            ],
            "profile": "driving-car",
            "profileName": "driving-car",
            "format": "geojson"
        },
        "engine": {
            "version": "9.3.0",
            "build_date": "2025-06-06T15:39:25Z",
            "graph_date": "2025-08-31T11:45:10Z",
            "osm_date": "2025-08-24T23:59:58Z"
        }
    }
}