{
    "type": "FeatureCollection",
    "bbox": [
        -85.05671,
        10.716289,
        -84.987384,
        10.741565
    ],
    "features": [
        {
            "bbox": [
                -85.05671,
                10.716289,
                -84.987384,
                10.741565
            ],
            "type": "Feature",
            "properties": {
                "segments": [
                    {
                        "distance": 12090.4,
                        "duration": 1786.0,
                        "steps": [
                            {
                                "distance": 137.9,
                                "duration": 33.1,
                                "type": 11,
                                "instruction": "Head east on Avenida 3",
                                "name": "Avenida 3",
                                "way_points": [
                                    0,
                                    4
                                ]
                            },
                            {
                                "distance": 168.8,
                                "duration": 30.4,
                                "type": 1,
                                "instruction": "Turn right onto Calle 2",
                                "name": "Calle 2",
                                "way_points": [
                                    4,
                                    5
                                ]
                            },
                            {
                                "distance": 1292.0,
                                "duration": 66.4,
                                "type": 0,
                                "instruction": "Turn left onto V\u00eda 6, 6",
                                "name": "V\u00eda 6, 6",
                                "way_points": [
                                    5,
                                    23
                                ]
                            },
                            {
                                "distance": 5617.1,
                                "duration": 674.1,
                                "type": 13,
                                "instruction": "Keep right onto Calle La Rejoya",
                                "name": "Calle La Rejoya",
                                "way_points": [
                                    23,
                                    179
                                ]
                            },
                            {
                                "distance": 3202.4,
                                "duration": 580.7,
                                "type": 1,
                                "instruction": "Turn right onto Calle San Miguel",
                                "name": "Calle San Miguel",
                                "way_points": [
                                    179,
                                    242
                                ]
                            },
                            {
                                "distance": 1543.7,
                                "duration": 370.5,
                                "type": 0,
                                "instruction": "Turn left onto Calle El Pil\u00f3n",
                                "name": "Calle El Pil\u00f3n",
                                "way_points": [
                                    242,
                                    273
                                ]
                            },
                            {
                                "distance": 128.4,
                                "duration": 30.8,
                                "type": 6,
                                "instruction": "Continue straight onto Calle El Pil\u00f3n",
                                "name": "Calle El Pil\u00f3n",
                                "way_points": [
                                    273,
                                    275
                                ]
                            },
                            {
                                "distance": 0.0,
                                "duration": 0.0,
                                "type": 10,
                                "instruction": "Arrive at Calle El Pil\u00f3n, on the right",
                                "name": "-",
                                "way_points": [
                                    275,
                                    275
                                ]
                            }
                        ]
                    }
                ],
                "way_points": [
                    0,
                    275
                ],
                "summary": {
                    "distance": 12090.4,
                    "duration": 1786.0
                }
            },
            "geometry": {
                "coordinates": [
                    [
                        -85.05671,
                        10.732635
                    ],
                    [
                        -85.056229,
                        10.732776
                    ],
                    [
                        -85.056082,
                        10.732821
                    ],
                    [
                        -85.055965,
                        10.73286
                    ],
                    [
                        -85.055511,
                        10.733022
                    ],
                    [
                        -85.054851,
                        10.731649
                    ],
                    [
                        -85.054766,
                        10.731701
                    ],
                    [
                        -85.054423,
                        10.731916
                    ],
                    [
                        -85.053835,
                        10.732293
                    ],
                    [
                        -85.053038,
                        10.73283
                    ],
                    [
                        -85.05294,
                        10.732894
                    ],
                    [
                        -85.052321,
                        10.733291
                    ],
                    [
                        -85.052085,
                        10.733442
                    ],
                    [
                        -85.051883,
                        10.733568
                    ],
                    [
                        -85.050907,
                        10.734155
                    ],
                    [
                        -85.050772,
                        10.734233
                    ],
                    [
                        -85.046878,
                        10.73595
                    ],
                    [
                        -85.046636,
                        10.736125
                    ],
                    [
                        -85.046416,
                        10.736318
                    ],
                    [
                        -85.046198,
                        10.736549
                    ],
                    [
                        -85.046043,
                        10.736747
                    ],
                    [
                        -85.045894,
                        10.737024
                    ],
                    [
                        -85.045793,
                        10.737333
                    ],
                    [
                        -85.045627,
                        10.738187
                    ],
                    [
                        -85.045174,
                        10.73848
                    ],
                    [
                        -85.044231,
                        10.738763
                    ],
                    [
                        -85.043778,
                        10.73905
                    ],
                    [
                        -85.043207,
                        10.739527
                    ],
                    [
                        -85.042788,
                        10.739969
                    ],
                    [
                        -85.042587,
                        10.74012
                    ],
                    [
                        -85.042359,
                        10.740208
                    ],
                    [
                        -85.042165,
                        10.740226
                    ],
                    [
                        -85.041876,
                        10.740172
                    ],
                    [
                        -85.041728,
                        10.740072
                    ],
                    [
                        -85.041608,
                        10.739966
                    ],
                    [
                        -85.041521,
                        10.739766
                    ],
                    [
                        -85.04145,
                        10.739373
                    ],
                    [
                        -85.041386,
                        10.739324
                    ],
                    [
                        -85.041299,
                        10.739303
                    ],
                    [
                        -85.04093,
                        10.739333
                    ],
                    [
                        -85.040625,
                        10.739379
                    ],
                    [
                        -85.040218,
                        10.739542
                    ],
                    [
                        -85.039593,
                        10.739938
                    ],
                    [
                        -85.039294,
                        10.740323
                    ],
                    [
                        -85.038998,
                        10.74062
                    ],
                    [
                        -85.03885,
                        10.740711
                    ],
                    [
                        -85.038622,
                        10.740741
                    ],
                    [
                        -85.038471,
                        10.740714
                    ],
                    [
                        -85.038206,
                        10.740602
                    ],
                    [
                        -85.037913,
                        10.740586
                    ],
                    [
                        -85.037633,
                        10.740662
                    ],
                    [
                        -85.03714,
                        10.740925
                    ],
                    [
                        -85.036986,
                        10.740974
                    ],
                    [
                        -85.036776,
                        10.740956
                    ],
                    [
                        -85.036345,
                        10.740889
                    ],
                    [
                        -85.036006,
                        10.74078
                    ],
                    [
                        -85.035147,
                        10.740396
                    ],
                    [
                        -85.034365,
                        10.739736
                    ],
                    [
                        -85.034268,
                        10.739692
                    ],
                    [
                        -85.034186,
                        10.739682
                    ],
                    [
                        -85.034105,
                        10.739694
                    ],
                    [
                        -85.033932,
                        10.739758
                    ],
                    [
                        -85.033308,
                        10.74005
                    ],
                    [
                        -85.033052,
                        10.740143
                    ],
                    [
                        -85.032749,
                        10.740181
                    ],
                    [
                        -85.032489,
                        10.740171
                    ],
                    [
                        -85.032204,
                        10.740127
                    ],
                    [
                        -85.031987,
                        10.740062
                    ],
                    [
                        -85.031839,
                        10.739986
                    ],
                    [
                        -85.031688,
                        10.739832
                    ],
                    [
                        -85.031454,
                        10.739538
                    ],
                    [
                        -85.031139,
                        10.739223
                    ],
                    [
                        -85.030958,
                        10.739085
                    ],
                    [
                        -85.030718,
                        10.738975
                    ],
                    [
                        -85.030546,
                        10.738921
                    ],
                    [
                        -85.030003,
                        10.738847
                    ],
                    [
                        -85.029702,
                        10.738831
                    ],
                    [
                        -85.029413,
                        10.738903
                    ],
                    [
                        -85.029334,
                        10.738867
                    ],
                    [
                        -85.02856,
                        10.738334
                    ],
                    [
                        -85.028064,
                        10.738015
                    ],
                    [
                        -85.027742,
                        10.737779
                    ],
                    [
                        -85.027609,
                        10.737659
                    ],
                    [
                        -85.027455,
                        10.737444
                    ],
                    [
                        -85.027303,
                        10.73732
                    ],
                    [
                        -85.026757,
                        10.737012
                    ],
                    [
                        -85.026621,
                        10.736895
                    ],
                    [
                        -85.026509,
                        10.7367
                    ],
                    [
                        -85.026091,
                        10.736409
                    ],
                    [
                        -85.025276,
                        10.735881
                    ],
                    [
                        -85.025131,
                        10.735728
                    ],
                    [
                        -85.02491,
                        10.735551
                    ],
                    [
                        -85.024606,
                        10.7354
                    ],
                    [
                        -85.024302,
                        10.735221
                    ],
                    [
                        -85.023992,
                        10.734996
                    ],
                    [
                        -85.023842,
                        10.734783
                    ],
                    [
                        -85.023721,
                        10.734721
                    ],
                    [
                        -85.023396,
                        10.734626
                    ],
                    [
                        -85.023261,
                        10.734567
                    ],
                    [
                        -85.023058,
                        10.734287
                    ],
                    [
                        -85.022943,
                        10.734085
                    ],
                    [
                        -85.022787,
                        10.733993
                    ],
                    [
                        -85.022434,
                        10.733883
                    ],
                    [
                        -85.022213,
                        10.733791
                    ],
                    [
                        -85.022033,
                        10.733773
                    ],
                    [
                        -85.021755,
                        10.733826
                    ],
                    [
                        -85.021489,
                        10.733949
                    ],
                    [
                        -85.021212,
                        10.734003
                    ],
                    [
                        -85.020974,
                        10.733939
                    ],
                    [
                        -85.020531,
                        10.733709
                    ],
                    [
                        -85.020362,
                        10.73365
                    ],
                    [
                        -85.020157,
                        10.733686
                    ],
                    [
                        -85.019788,
                        10.733783
                    ],
                    [
                        -85.01955,
                        10.733939
                    ],
                    [
                        -85.019312,
                        10.733962
                    ],
                    [
                        -85.018905,
                        10.733866
                    ],
                    [
                        -85.018803,
                        10.733888
                    ],
                    [
                        -85.018508,
                        10.734214
                    ],
                    [
                        -85.018401,
                        10.734283
                    ],
                    [
                        -85.017822,
                        10.734412
                    ],
                    [
                        -85.017663,
                        10.734462
                    ],
                    [
                        -85.017439,
                        10.734668
                    ],
                    [
                        -85.017084,
                        10.735058
                    ],
                    [
                        -85.016818,
                        10.735705
                    ],
                    [
                        -85.016809,
                        10.735829
                    ],
                    [
                        -85.016874,
                        10.735939
                    ],
                    [
                        -85.017023,
                        10.736059
                    ],
                    [
                        -85.017135,
                        10.736192
                    ],
                    [
                        -85.017234,
                        10.736352
                    ],
                    [
                        -85.017187,
                        10.736458
                    ],
                    [
                        -85.017084,
                        10.736494
                    ],
                    [
                        -85.016883,
                        10.736458
                    ],
                    [
                        -85.016734,
                        10.736458
                    ],
                    [
                        -85.016645,
                        10.736508
                    ],
                    [
                        -85.016626,
                        10.736596
                    ],
                    [
                        -85.016715,
                        10.737123
                    ],
                    [
                        -85.016725,
                        10.737279
                    ],
                    [
                        -85.016678,
                        10.737389
                    ],
                    [
                        -85.016449,
                        10.737605
                    ],
                    [
                        -85.016262,
                        10.737816
                    ],
                    [
                        -85.016155,
                        10.738022
                    ],
                    [
                        -85.016117,
                        10.738169
                    ],
                    [
                        -85.016286,
                        10.739087
                    ],
                    [
                        -85.016272,
                        10.73927
                    ],
                    [
                        -85.016173,
                        10.739454
                    ],
                    [
                        -85.016001,
                        10.739482
                    ],
                    [
                        -85.015856,
                        10.739408
                    ],
                    [
                        -85.015734,
                        10.739229
                    ],
                    [
                        -85.015744,
                        10.739096
                    ],
                    [
                        -85.01566,
                        10.739018
                    ],
                    [
                        -85.015141,
                        10.738968
                    ],
                    [
                        -85.014875,
                        10.739046
                    ],
                    [
                        -85.014455,
                        10.739289
                    ],
                    [
                        -85.01417,
                        10.739587
                    ],
                    [
                        -85.013941,
                        10.73978
                    ],
                    [
                        -85.013708,
                        10.739844
                    ],
                    [
                        -85.013577,
                        10.739922
                    ],
                    [
                        -85.012993,
                        10.740739
                    ],
                    [
                        -85.0129,
                        10.740785
                    ],
                    [
                        -85.012806,
                        10.740775
                    ],
                    [
                        -85.012694,
                        10.740716
                    ],
                    [
                        -85.012363,
                        10.740477
                    ],
                    [
                        -85.012185,
                        10.740408
                    ],
                    [
                        -85.012031,
                        10.740385
                    ],
                    [
                        -85.010966,
                        10.740574
                    ],
                    [
                        -85.010233,
                        10.740835
                    ],
                    [
                        -85.010126,
                        10.740959
                    ],
                    [
                        -85.010046,
                        10.741381
                    ],
                    [
                        -85.00999,
                        10.741505
                    ],
                    [
                        -85.009892,
                        10.74156
                    ],
                    [
                        -85.009537,
                        10.741565
                    ],
                    [
                        -85.008585,
                        10.741257
                    ],
                    [
                        -85.008375,
                        10.741207
                    ],
                    [
                        -85.008052,
                        10.741239
                    ],
                    [
                        -85.007744,
                        10.741184
                    ],
                    [
                        -85.007539,
                        10.74111
                    ],
                    [
                        -85.006675,
                        10.740418
                    ],
                    [
                        -85.006516,
                        10.740344
                    ],
                    [
                        -85.00631,
                        10.740335
                    ],
                    [
                        -85.006133,
                        10.740354
                    ],
                    [
                        -85.006062,
                        10.740099
                    ],
                    [
                        -85.00593,
                        10.740024
                    ],
                    [
                        -85.005544,
                        10.74001
                    ],
                    [
                        -85.003619,
                        10.739627
                    ],
                    [
                        -85.002287,
                        10.739828
                    ],
                    [
                        -85.001776,
                        10.740039
                    ],
                    [
                        -85.001388,
                        10.740077
                    ],
                    [
                        -85.000889,
                        10.740025
                    ],
                    [
                        -85.000001,
                        10.740142
                    ],
                    [
                        -84.999579,
                        10.74015
                    ],
                    [
                        -84.999284,
                        10.739844
                    ],
                    [
                        -84.999069,
                        10.739697
                    ],
                    [
                        -84.998849,
                        10.73964
                    ],
                    [
                        -84.998729,
                        10.739554
                    ],
                    [
                        -84.998509,
                        10.739347
                    ],
                    [
                        -84.998352,
                        10.739136
                    ],
                    [
                        -84.997753,
                        10.738738
                    ],
                    [
                        -84.996912,
                        10.737438
                    ],
                    [
                        -84.996639,
                        10.736585
                    ],
                    [
                        -84.996715,
                        10.736277
                    ],
                    [
                        -84.997084,
                        10.735849
                    ],
                    [
                        -84.997166,
                        10.735422
                    ],
                    [
                        -84.997052,
                        10.734905
                    ],
                    [
                        -84.997355,
                        10.733921
                    ],
                    [
                        -84.99761,
                        10.733591
                    ],
                    [
                        -84.997733,
                        10.733188
                    ],
                    [
                        -84.997741,
                        10.73301
                    ],
                    [
                        -84.997593,
                        10.732994
                    ],
                    [
                        -84.997207,
                        10.733091
                    ],
                    [
                        -84.996838,
                        10.732986
                    ],
                    [
                        -84.996592,
                        10.732728
                    ],
                    [
                        -84.996723,
                        10.732236
                    ],
                    [
                        -84.996583,
                        10.731784
                    ],
                    [
                        -84.996625,
                        10.731143
                    ],
                    [
                        -84.996769,
                        10.730604
                    ],
                    [
                        -84.996998,
                        10.730027
                    ],
                    [
                        -84.997059,
                        10.72976
                    ],
                    [
                        -84.996985,
                        10.729489
                    ],
                    [
                        -84.996886,
                        10.729317
                    ],
                    [
                        -84.996782,
                        10.729235
                    ],
                    [
                        -84.996671,
                        10.729202
                    ],
                    [
                        -84.996532,
                        10.729183
                    ],
                    [
                        -84.996178,
                        10.729338
                    ],
                    [
                        -84.995854,
                        10.72965
                    ],
                    [
                        -84.995514,
                        10.730152
                    ],
                    [
                        -84.995424,
                        10.730144
                    ],
                    [
                        -84.995376,
                        10.730091
                    ],
                    [
                        -84.995339,
                        10.730028
                    ],
                    [
                        -84.995383,
                        10.729931
                    ],
                    [
                        -84.995498,
                        10.729794
                    ],
                    [
                        -84.995547,
                        10.729605
                    ],
                    [
                        -84.995591,
                        10.729109
                    ],
                    [
                        -84.995753,
                        10.728603
                    ],
                    [
                        -84.996396,
                        10.727727
                    ],
                    [
                        -84.99714,
                        10.72679
                    ],
                    [
                        -84.997356,
                        10.726542
                    ],
                    [
                        -84.997658,
                        10.726547
                    ],
                    [
                        -84.997808,
                        10.726396
                    ],
                    [
                        -84.997902,
                        10.726278
                    ],
                    [
                        -84.997925,
                        10.726166
                    ],
                    [
                        -84.997962,
                        10.725799
                    ],
                    [
                        -84.998057,
                        10.725639
                    ],
                    [
                        -84.998767,
                        10.724782
                    ],
                    [
                        -84.997986,
                        10.723147
                    ],
                    [
                        -84.997366,
                        10.722314
                    ],
                    [
                        -84.996635,
                        10.721599
                    ],
                    [
                        -84.996137,
                        10.721432
                    ],
                    [
                        -84.995391,
                        10.721012
                    ],
                    [
                        -84.995305,
                        10.720804
                    ],
                    [
                        -84.995315,
                        10.720465
                    ],
                    [
                        -84.995226,
                        10.720388
                    ],
                    [
                        -84.994971,
                        10.720278
                    ],
                    [
                        -84.994581,
                        10.719834
                    ],
                    [
                        -84.994283,
                        10.719677
                    ],
                    [
                        -84.994045,
                        10.719496
                    ],
                    [
                        -84.993908,
                        10.719458
                    ],
                    [
                        -84.993546,
                        10.71953
                    ],
                    [
                        -84.993436,
                        10.719523
                    ],
                    [
                        -84.993065,
                        10.71939
                    ],
                    [
                        -84.992315,
                        10.719244
                    ],
                    [
                        -84.991823,
                        10.719232
                    ],
                    [
                        -84.991566,
                        10.719238
                    ],
                    [
                        -84.99142,
                        10.71922
                    ],
                    [
                        -84.991315,
                        10.719168
                    ],
                    [
                        -84.991119,
                        10.719064
                    ],
                    [
                        -84.990793,
                        10.718828
                    ],
                    [
                        -84.990492,
                        10.71856
                    ],
                    [
                        -84.990321,
                        10.718377
                    ],
                    [
                        -84.990166,
                        10.718295
                    ],
                    [
                        -84.989994,
                        10.718242
                    ],
                    [
                        -84.989765,
                        10.718232
                    ],
                    [
                        -84.989574,
                        10.718146
                    ],
                    [
                        -84.988322,
                        10.717309
                    ],
                    [
                        -84.988165,
                        10.717152
                    ],
                    [
                        -84.988011,
                        10.716999
                    ],
                    [
                        -84.987384,
                        10.716289
                    ]
                ],
                "type": "LineString"
            }
        }
    ],
    "metadata": {
        "attribution": "openrouteservice.org | OpenStreetMap contributors",
        "service": "routing",
        "timestamp": 1756806034388,
        "query": {
            "coordinates": [
                [
                    -85.05676,
                    10.7328
                ],
                [
                    -84.987401,
                    10.716275
                ]
            ],
            "profile": "driving-car",
            "profileName": "driving-car",
            "format": "geojson"
        },
        "engine": {
            "version": "9.3.0",
            "build_date": "2025-06-06T15:39:25Z",
            "graph_date": "2025-08-31T11:45:10Z",
            "osm_date": "2025-08-24T23:59:58Z"
        }
    }
}