{
    "type": "FeatureCollection",
    "bbox": [
        -85.438162,
        10.628545,
        -85.312607,
        10.772914
    ],
    "features": [
        {
            "bbox": [
                -85.438162,
                10.628545,
                -85.312607,
                10.772914
            ],
            "type": "Feature",
            "properties": {
                "segments": [
                    {
                        "distance": 31554.7,
                        "duration": 3648.0,
                        "steps": [
                            {
                                "distance": 50.2,
                                "duration": 12.1,
                                "type": 11,
                                "instruction": "Head west on Avenida 11",
                                "name": "Avenida 11",
                                "way_points": [
                                    0,
                                    2
                                ]
                            },
                            {
                                "distance": 568.8,
                                "duration": 136.5,
                                "type": 0,
                                "instruction": "Turn left onto Calle 3",
                                "name": "Calle 3",
                                "way_points": [
                                    2,
                                    10
                                ]
                            },
                            {
                                "distance": 198.4,
                                "duration": 20.4,
                                "type": 0,
                                "instruction": "Turn left onto Avenida 25 de Julio, 918",
                                "name": "Avenida 25 de Julio, 918",
                                "way_points": [
                                    10,
                                    12
                                ]
                            },
                            {
                                "distance": 303.8,
                                "duration": 42.5,
                                "type": 1,
                                "instruction": "Turn right onto Calle 7",
                                "name": "Calle 7",
                                "way_points": [
                                    12,
                                    18
                                ]
                            },
                            {
                                "distance": 605.2,
                                "duration": 51.0,
                                "type": 0,
                                "instruction": "Turn left onto Avenida 6, 918",
                                "name": "Avenida 6, 918",
                                "way_points": [
                                    18,
                                    26
                                ]
                            },
                            {
                                "distance": 20364.9,
                                "duration": 1488.8,
                                "type": 5,
                                "instruction": "Turn slight right onto V\u00eda 918, 918",
                                "name": "V\u00eda 918, 918",
                                "way_points": [
                                    26,
                                    388
                                ]
                            },
                            {
                                "distance": 146.1,
                                "duration": 17.5,
                                "type": 12,
                                "instruction": "Keep left onto Calle Parque Nacional Rinc\u00f3n de la Vieja",
                                "name": "Calle Parque Nacional Rinc\u00f3n de la Vieja",
                                "way_points": [
                                    388,
                                    392
                                ]
                            },
                            {
                                "distance": 2297.9,
                                "duration": 275.7,
                                "type": 0,
                                "instruction": "Turn left onto Calle Hacienda Santa Mar\u00eda",
                                "name": "Calle Hacienda Santa Mar\u00eda",
                                "way_points": [
                                    392,
                                    498
                                ]
                            },
                            {
                                "distance": 1485.4,
                                "duration": 356.5,
                                "type": 1,
                                "instruction": "Turn right onto Calle Las Pailas",
                                "name": "Calle Las Pailas",
                                "way_points": [
                                    498,
                                    536
                                ]
                            },
                            {
                                "distance": 2887.9,
                                "duration": 693.1,
                                "type": 13,
                                "instruction": "Keep right onto Calle Las Pailas",
                                "name": "Calle Las Pailas",
                                "way_points": [
                                    536,
                                    581
                                ]
                            },
                            {
                                "distance": 120.8,
                                "duration": 21.7,
                                "type": 1,
                                "instruction": "Turn right",
                                "name": "-",
                                "way_points": [
                                    581,
                                    584
                                ]
                            },
                            {
                                "distance": 1300.8,
                                "duration": 238.2,
                                "type": 0,
                                "instruction": "Turn left",
                                "name": "-",
                                "way_points": [
                                    584,
                                    601
                                ]
                            },
                            {
                                "distance": 1224.6,
                                "duration": 293.9,
                                "type": 3,
                                "instruction": "Turn sharp right onto Calle Rinc\u00f3n de la Vieja",
                                "name": "Calle Rinc\u00f3n de la Vieja",
                                "way_points": [
                                    601,
                                    611
                                ]
                            },
                            {
                                "distance": 0.0,
                                "duration": 0.0,
                                "type": 10,
                                "instruction": "Arrive at Calle Rinc\u00f3n de la Vieja, on the right",
                                "name": "-",
                                "way_points": [
                                    611,
                                    611
                                ]
                            }
                        ]
                    }
                ],
                "way_points": [
                    0,
                    611
                ],
                "summary": {
                    "distance": 31554.7,
                    "duration": 3648.0
                }
            },
            "geometry": {
                "coordinates": [
                    [
                        -85.437731,
                        10.635086
                    ],
                    [
                        -85.438074,
                        10.635003
                    ],
                    [
                        -85.438162,
                        10.634944
                    ],
                    [
                        -85.438085,
                        10.634526
                    ],
                    [
                        -85.438022,
                        10.634378
                    ],
                    [
                        -85.437885,
                        10.634059
                    ],
                    [
                        -85.437526,
                        10.633286
                    ],
                    [
                        -85.437176,
                        10.632481
                    ],
                    [
                        -85.436809,
                        10.631685
                    ],
                    [
                        -85.436466,
                        10.630931
                    ],
                    [
                        -85.436151,
                        10.630238
                    ],
                    [
                        -85.435344,
                        10.630604
                    ],
                    [
                        -85.434509,
                        10.631
                    ],
                    [
                        -85.434033,
                        10.630041
                    ],
                    [
                        -85.433788,
                        10.629558
                    ],
                    [
                        -85.433687,
                        10.62936
                    ],
                    [
                        -85.433618,
                        10.629225
                    ],
                    [
                        -85.433521,
                        10.629036
                    ],
                    [
                        -85.433288,
                        10.628545
                    ],
                    [
                        -85.432766,
                        10.628796
                    ],
                    [
                        -85.432051,
                        10.629133
                    ],
                    [
                        -85.431424,
                        10.62944
                    ],
                    [
                        -85.430925,
                        10.629671
                    ],
                    [
                        -85.430429,
                        10.629902
                    ],
                    [
                        -85.429212,
                        10.630532
                    ],
                    [
                        -85.428841,
                        10.63079
                    ],
                    [
                        -85.428523,
                        10.63121
                    ],
                    [
                        -85.428081,
                        10.631311
                    ],
                    [
                        -85.427131,
                        10.631629
                    ],
                    [
                        -85.426818,
                        10.631764
                    ],
                    [
                        -85.426439,
                        10.632
                    ],
                    [
                        -85.425056,
                        10.632839
                    ],
                    [
                        -85.4246,
                        10.633116
                    ],
                    [
                        -85.424525,
                        10.633171
                    ],
                    [
                        -85.42403,
                        10.633575
                    ],
                    [
                        -85.423625,
                        10.633865
                    ],
                    [
                        -85.423178,
                        10.634152
                    ],
                    [
                        -85.422784,
                        10.634435
                    ],
                    [
                        -85.422565,
                        10.634626
                    ],
                    [
                        -85.422177,
                        10.634971
                    ],
                    [
                        -85.422041,
                        10.635093
                    ],
                    [
                        -85.421852,
                        10.635263
                    ],
                    [
                        -85.421507,
                        10.635573
                    ],
                    [
                        -85.421298,
                        10.63576
                    ],
                    [
                        -85.420528,
                        10.636423
                    ],
                    [
                        -85.420056,
                        10.636924
                    ],
                    [
                        -85.41995,
                        10.637037
                    ],
                    [
                        -85.419715,
                        10.637287
                    ],
                    [
                        -85.419434,
                        10.637664
                    ],
                    [
                        -85.419257,
                        10.63796
                    ],
                    [
                        -85.419023,
                        10.638432
                    ],
                    [
                        -85.418819,
                        10.638735
                    ],
                    [
                        -85.418626,
                        10.638922
                    ],
                    [
                        -85.418406,
                        10.63908
                    ],
                    [
                        -85.417983,
                        10.639301
                    ],
                    [
                        -85.417916,
                        10.639478
                    ],
                    [
                        -85.417862,
                        10.639768
                    ],
                    [
                        -85.417771,
                        10.639968
                    ],
                    [
                        -85.417698,
                        10.640063
                    ],
                    [
                        -85.417618,
                        10.640101
                    ],
                    [
                        -85.417427,
                        10.640142
                    ],
                    [
                        -85.417103,
                        10.640179
                    ],
                    [
                        -85.41688,
                        10.640253
                    ],
                    [
                        -85.41665,
                        10.64036
                    ],
                    [
                        -85.416537,
                        10.640432
                    ],
                    [
                        -85.416456,
                        10.640609
                    ],
                    [
                        -85.416416,
                        10.640801
                    ],
                    [
                        -85.416499,
                        10.641534
                    ],
                    [
                        -85.416446,
                        10.641927
                    ],
                    [
                        -85.4164,
                        10.64204
                    ],
                    [
                        -85.415931,
                        10.642858
                    ],
                    [
                        -85.415471,
                        10.643568
                    ],
                    [
                        -85.41541,
                        10.643662
                    ],
                    [
                        -85.414933,
                        10.644176
                    ],
                    [
                        -85.414866,
                        10.644331
                    ],
                    [
                        -85.414842,
                        10.644484
                    ],
                    [
                        -85.414879,
                        10.645059
                    ],
                    [
                        -85.414815,
                        10.645233
                    ],
                    [
                        -85.414614,
                        10.645417
                    ],
                    [
                        -85.414421,
                        10.645544
                    ],
                    [
                        -85.414107,
                        10.645781
                    ],
                    [
                        -85.413565,
                        10.646656
                    ],
                    [
                        -85.41297,
                        10.647468
                    ],
                    [
                        -85.412607,
                        10.647829
                    ],
                    [
                        -85.41235,
                        10.648022
                    ],
                    [
                        -85.411354,
                        10.648552
                    ],
                    [
                        -85.409818,
                        10.649005
                    ],
                    [
                        -85.409515,
                        10.649155
                    ],
                    [
                        -85.408961,
                        10.649758
                    ],
                    [
                        -85.408131,
                        10.650257
                    ],
                    [
                        -85.407919,
                        10.650433
                    ],
                    [
                        -85.407769,
                        10.650607
                    ],
                    [
                        -85.407699,
                        10.650729
                    ],
                    [
                        -85.407712,
                        10.6509
                    ],
                    [
                        -85.407836,
                        10.651034
                    ],
                    [
                        -85.408005,
                        10.651113
                    ],
                    [
                        -85.408083,
                        10.651224
                    ],
                    [
                        -85.408123,
                        10.651348
                    ],
                    [
                        -85.408058,
                        10.651527
                    ],
                    [
                        -85.407897,
                        10.651664
                    ],
                    [
                        -85.407565,
                        10.651794
                    ],
                    [
                        -85.406972,
                        10.652091
                    ],
                    [
                        -85.406661,
                        10.6523
                    ],
                    [
                        -85.406508,
                        10.652461
                    ],
                    [
                        -85.406346,
                        10.652675
                    ],
                    [
                        -85.40595,
                        10.653396
                    ],
                    [
                        -85.405242,
                        10.653953
                    ],
                    [
                        -85.404883,
                        10.654348
                    ],
                    [
                        -85.404523,
                        10.654646
                    ],
                    [
                        -85.404118,
                        10.65516
                    ],
                    [
                        -85.403831,
                        10.655421
                    ],
                    [
                        -85.403747,
                        10.655529
                    ],
                    [
                        -85.403749,
                        10.655662
                    ],
                    [
                        -85.403825,
                        10.655925
                    ],
                    [
                        -85.403799,
                        10.656133
                    ],
                    [
                        -85.4037,
                        10.656375
                    ],
                    [
                        -85.403461,
                        10.65677
                    ],
                    [
                        -85.403335,
                        10.656892
                    ],
                    [
                        -85.403174,
                        10.656942
                    ],
                    [
                        -85.402839,
                        10.656929
                    ],
                    [
                        -85.402697,
                        10.656944
                    ],
                    [
                        -85.402589,
                        10.657007
                    ],
                    [
                        -85.402455,
                        10.657129
                    ],
                    [
                        -85.402259,
                        10.657392
                    ],
                    [
                        -85.402074,
                        10.657601
                    ],
                    [
                        -85.40046,
                        10.658413
                    ],
                    [
                        -85.400326,
                        10.65856
                    ],
                    [
                        -85.400213,
                        10.658781
                    ],
                    [
                        -85.400181,
                        10.659006
                    ],
                    [
                        -85.40021,
                        10.659351
                    ],
                    [
                        -85.400151,
                        10.659694
                    ],
                    [
                        -85.400017,
                        10.659939
                    ],
                    [
                        -85.399711,
                        10.660247
                    ],
                    [
                        -85.399497,
                        10.660901
                    ],
                    [
                        -85.399038,
                        10.661718
                    ],
                    [
                        -85.39851,
                        10.662
                    ],
                    [
                        -85.398102,
                        10.662301
                    ],
                    [
                        -85.397641,
                        10.662414
                    ],
                    [
                        -85.397165,
                        10.66266
                    ],
                    [
                        -85.396459,
                        10.663069
                    ],
                    [
                        -85.396286,
                        10.663154
                    ],
                    [
                        -85.395819,
                        10.66374
                    ],
                    [
                        -85.395398,
                        10.664138
                    ],
                    [
                        -85.39441,
                        10.665428
                    ],
                    [
                        -85.394106,
                        10.66573
                    ],
                    [
                        -85.39388,
                        10.66587
                    ],
                    [
                        -85.393617,
                        10.665959
                    ],
                    [
                        -85.392464,
                        10.666655
                    ],
                    [
                        -85.392223,
                        10.66695
                    ],
                    [
                        -85.391968,
                        10.667396
                    ],
                    [
                        -85.391729,
                        10.667622
                    ],
                    [
                        -85.391405,
                        10.667831
                    ],
                    [
                        -85.390611,
                        10.668123
                    ],
                    [
                        -85.390195,
                        10.668176
                    ],
                    [
                        -85.389803,
                        10.668366
                    ],
                    [
                        -85.389184,
                        10.668903
                    ],
                    [
                        -85.388588,
                        10.669453
                    ],
                    [
                        -85.388286,
                        10.669663
                    ],
                    [
                        -85.387827,
                        10.669948
                    ],
                    [
                        -85.387277,
                        10.670256
                    ],
                    [
                        -85.386839,
                        10.670424
                    ],
                    [
                        -85.38615,
                        10.670841
                    ],
                    [
                        -85.385646,
                        10.67112
                    ],
                    [
                        -85.384994,
                        10.671197
                    ],
                    [
                        -85.384589,
                        10.67132
                    ],
                    [
                        -85.384173,
                        10.671637
                    ],
                    [
                        -85.383768,
                        10.671829
                    ],
                    [
                        -85.383433,
                        10.672058
                    ],
                    [
                        -85.383044,
                        10.672578
                    ],
                    [
                        -85.382457,
                        10.672802
                    ],
                    [
                        -85.38148,
                        10.673395
                    ],
                    [
                        -85.38136,
                        10.673622
                    ],
                    [
                        -85.381134,
                        10.674175
                    ],
                    [
                        -85.380536,
                        10.674755
                    ],
                    [
                        -85.380131,
                        10.675071
                    ],
                    [
                        -85.379563,
                        10.675817
                    ],
                    [
                        -85.379241,
                        10.676128
                    ],
                    [
                        -85.378691,
                        10.677122
                    ],
                    [
                        -85.378468,
                        10.677399
                    ],
                    [
                        -85.377698,
                        10.678071
                    ],
                    [
                        -85.377374,
                        10.6783
                    ],
                    [
                        -85.375931,
                        10.678985
                    ],
                    [
                        -85.375429,
                        10.679328
                    ],
                    [
                        -85.375335,
                        10.680077
                    ],
                    [
                        -85.374925,
                        10.680888
                    ],
                    [
                        -85.374646,
                        10.681139
                    ],
                    [
                        -85.374389,
                        10.681281
                    ],
                    [
                        -85.374177,
                        10.681405
                    ],
                    [
                        -85.374059,
                        10.681529
                    ],
                    [
                        -85.374024,
                        10.6817
                    ],
                    [
                        -85.373989,
                        10.682325
                    ],
                    [
                        -85.374094,
                        10.68281
                    ],
                    [
                        -85.3743,
                        10.683247
                    ],
                    [
                        -85.374343,
                        10.683529
                    ],
                    [
                        -85.374397,
                        10.683743
                    ],
                    [
                        -85.374346,
                        10.683919
                    ],
                    [
                        -85.374279,
                        10.684035
                    ],
                    [
                        -85.374113,
                        10.68425
                    ],
                    [
                        -85.374072,
                        10.684457
                    ],
                    [
                        -85.374075,
                        10.684692
                    ],
                    [
                        -85.374236,
                        10.685424
                    ],
                    [
                        -85.374201,
                        10.685685
                    ],
                    [
                        -85.374134,
                        10.68588
                    ],
                    [
                        -85.373946,
                        10.686173
                    ],
                    [
                        -85.373458,
                        10.6867
                    ],
                    [
                        -85.373243,
                        10.687043
                    ],
                    [
                        -85.373042,
                        10.687623
                    ],
                    [
                        -85.372702,
                        10.688788
                    ],
                    [
                        -85.372369,
                        10.689362
                    ],
                    [
                        -85.371985,
                        10.689839
                    ],
                    [
                        -85.371124,
                        10.690693
                    ],
                    [
                        -85.370655,
                        10.691294
                    ],
                    [
                        -85.370424,
                        10.691523
                    ],
                    [
                        -85.370038,
                        10.691721
                    ],
                    [
                        -85.369794,
                        10.691808
                    ],
                    [
                        -85.369148,
                        10.691887
                    ],
                    [
                        -85.368737,
                        10.692011
                    ],
                    [
                        -85.368688,
                        10.692038
                    ],
                    [
                        -85.368485,
                        10.692148
                    ],
                    [
                        -85.368249,
                        10.692359
                    ],
                    [
                        -85.368161,
                        10.692557
                    ],
                    [
                        -85.368029,
                        10.693041
                    ],
                    [
                        -85.367965,
                        10.693202
                    ],
                    [
                        -85.367801,
                        10.69331
                    ],
                    [
                        -85.367477,
                        10.693387
                    ],
                    [
                        -85.367324,
                        10.693463
                    ],
                    [
                        -85.366766,
                        10.693866
                    ],
                    [
                        -85.366031,
                        10.694151
                    ],
                    [
                        -85.364379,
                        10.695577
                    ],
                    [
                        -85.364177,
                        10.695693
                    ],
                    [
                        -85.363893,
                        10.695817
                    ],
                    [
                        -85.363665,
                        10.695951
                    ],
                    [
                        -85.363445,
                        10.696162
                    ],
                    [
                        -85.363102,
                        10.696283
                    ],
                    [
                        -85.362582,
                        10.696434
                    ],
                    [
                        -85.362002,
                        10.696758
                    ],
                    [
                        -85.360749,
                        10.696946
                    ],
                    [
                        -85.360479,
                        10.696866
                    ],
                    [
                        -85.360189,
                        10.69676
                    ],
                    [
                        -85.359913,
                        10.696568
                    ],
                    [
                        -85.359771,
                        10.696531
                    ],
                    [
                        -85.359647,
                        10.696555
                    ],
                    [
                        -85.359529,
                        10.696639
                    ],
                    [
                        -85.359386,
                        10.696925
                    ],
                    [
                        -85.358853,
                        10.697891
                    ],
                    [
                        -85.358797,
                        10.698307
                    ],
                    [
                        -85.358572,
                        10.698663
                    ],
                    [
                        -85.358419,
                        10.698848
                    ],
                    [
                        -85.358252,
                        10.698969
                    ],
                    [
                        -85.357756,
                        10.699077
                    ],
                    [
                        -85.357083,
                        10.699406
                    ],
                    [
                        -85.35623,
                        10.699712
                    ],
                    [
                        -85.355761,
                        10.700324
                    ],
                    [
                        -85.35553,
                        10.701114
                    ],
                    [
                        -85.354875,
                        10.701536
                    ],
                    [
                        -85.354581,
                        10.701939
                    ],
                    [
                        -85.35341,
                        10.702712
                    ],
                    [
                        -85.352976,
                        10.702832
                    ],
                    [
                        -85.352451,
                        10.702832
                    ],
                    [
                        -85.351968,
                        10.703073
                    ],
                    [
                        -85.350809,
                        10.703157
                    ],
                    [
                        -85.350487,
                        10.703349
                    ],
                    [
                        -85.350136,
                        10.703734
                    ],
                    [
                        -85.349744,
                        10.704506
                    ],
                    [
                        -85.348857,
                        10.705276
                    ],
                    [
                        -85.348468,
                        10.705711
                    ],
                    [
                        -85.348291,
                        10.705779
                    ],
                    [
                        -85.347953,
                        10.705727
                    ],
                    [
                        -85.347671,
                        10.705927
                    ],
                    [
                        -85.347349,
                        10.706188
                    ],
                    [
                        -85.347245,
                        10.706567
                    ],
                    [
                        -85.346746,
                        10.707519
                    ],
                    [
                        -85.346274,
                        10.707822
                    ],
                    [
                        -85.345866,
                        10.708019
                    ],
                    [
                        -85.345635,
                        10.708093
                    ],
                    [
                        -85.345219,
                        10.708062
                    ],
                    [
                        -85.344321,
                        10.707872
                    ],
                    [
                        -85.343897,
                        10.707803
                    ],
                    [
                        -85.343495,
                        10.707809
                    ],
                    [
                        -85.342873,
                        10.707993
                    ],
                    [
                        -85.34258,
                        10.708098
                    ],
                    [
                        -85.342411,
                        10.708201
                    ],
                    [
                        -85.342355,
                        10.708265
                    ],
                    [
                        -85.342275,
                        10.708562
                    ],
                    [
                        -85.34224,
                        10.709047
                    ],
                    [
                        -85.342012,
                        10.709703
                    ],
                    [
                        -85.341853,
                        10.709891
                    ],
                    [
                        -85.341599,
                        10.710149
                    ],
                    [
                        -85.338881,
                        10.711195
                    ],
                    [
                        -85.337884,
                        10.71172
                    ],
                    [
                        -85.337237,
                        10.712568
                    ],
                    [
                        -85.337017,
                        10.71279
                    ],
                    [
                        -85.336792,
                        10.712874
                    ],
                    [
                        -85.336612,
                        10.713008
                    ],
                    [
                        -85.336478,
                        10.713232
                    ],
                    [
                        -85.336489,
                        10.713506
                    ],
                    [
                        -85.336618,
                        10.713912
                    ],
                    [
                        -85.336824,
                        10.714281
                    ],
                    [
                        -85.336797,
                        10.714397
                    ],
                    [
                        -85.336226,
                        10.715072
                    ],
                    [
                        -85.336108,
                        10.71514
                    ],
                    [
                        -85.335861,
                        10.715225
                    ],
                    [
                        -85.335762,
                        10.715375
                    ],
                    [
                        -85.335446,
                        10.715946
                    ],
                    [
                        -85.335349,
                        10.716203
                    ],
                    [
                        -85.334609,
                        10.717106
                    ],
                    [
                        -85.334137,
                        10.717802
                    ],
                    [
                        -85.333984,
                        10.717916
                    ],
                    [
                        -85.333496,
                        10.717942
                    ],
                    [
                        -85.3333,
                        10.718016
                    ],
                    [
                        -85.332632,
                        10.718403
                    ],
                    [
                        -85.332372,
                        10.718485
                    ],
                    [
                        -85.332155,
                        10.718627
                    ],
                    [
                        -85.331878,
                        10.718938
                    ],
                    [
                        -85.331471,
                        10.71926
                    ],
                    [
                        -85.331103,
                        10.719444
                    ],
                    [
                        -85.330466,
                        10.719661
                    ],
                    [
                        -85.327962,
                        10.720314
                    ],
                    [
                        -85.327375,
                        10.720285
                    ],
                    [
                        -85.327037,
                        10.72033
                    ],
                    [
                        -85.326814,
                        10.72038
                    ],
                    [
                        -85.326586,
                        10.720475
                    ],
                    [
                        -85.326329,
                        10.720498
                    ],
                    [
                        -85.325948,
                        10.72049
                    ],
                    [
                        -85.32451,
                        10.720978
                    ],
                    [
                        -85.323491,
                        10.721434
                    ],
                    [
                        -85.323145,
                        10.721531
                    ],
                    [
                        -85.322767,
                        10.72179
                    ],
                    [
                        -85.322102,
                        10.722285
                    ],
                    [
                        -85.321909,
                        10.722509
                    ],
                    [
                        -85.321764,
                        10.722931
                    ],
                    [
                        -85.321638,
                        10.723189
                    ],
                    [
                        -85.321427,
                        10.723357
                    ],
                    [
                        -85.321149,
                        10.723653
                    ],
                    [
                        -85.320742,
                        10.724517
                    ],
                    [
                        -85.320643,
                        10.724881
                    ],
                    [
                        -85.320503,
                        10.725129
                    ],
                    [
                        -85.319895,
                        10.725741
                    ],
                    [
                        -85.31955,
                        10.725943
                    ],
                    [
                        -85.31906,
                        10.726249
                    ],
                    [
                        -85.31803,
                        10.727498
                    ],
                    [
                        -85.317844,
                        10.728174
                    ],
                    [
                        -85.317484,
                        10.728619
                    ],
                    [
                        -85.317081,
                        10.729452
                    ],
                    [
                        -85.316724,
                        10.730061
                    ],
                    [
                        -85.316574,
                        10.730405
                    ],
                    [
                        -85.316259,
                        10.730746
                    ],
                    [
                        -85.315931,
                        10.731013
                    ],
                    [
                        -85.315818,
                        10.731401
                    ],
                    [
                        -85.315493,
                        10.73274
                    ],
                    [
                        -85.315291,
                        10.734111
                    ],
                    [
                        -85.314892,
                        10.735149
                    ],
                    [
                        -85.31449,
                        10.735897
                    ],
                    [
                        -85.314184,
                        10.736724
                    ],
                    [
                        -85.314114,
                        10.737022
                    ],
                    [
                        -85.314052,
                        10.738263
                    ],
                    [
                        -85.314184,
                        10.739188
                    ],
                    [
                        -85.314319,
                        10.739556
                    ],
                    [
                        -85.314698,
                        10.740379
                    ],
                    [
                        -85.314789,
                        10.74097
                    ],
                    [
                        -85.314802,
                        10.741188
                    ],
                    [
                        -85.314783,
                        10.741633
                    ],
                    [
                        -85.31485,
                        10.74187
                    ],
                    [
                        -85.314931,
                        10.74205
                    ],
                    [
                        -85.315037,
                        10.742169
                    ],
                    [
                        -85.315193,
                        10.742424
                    ],
                    [
                        -85.315374,
                        10.742792
                    ],
                    [
                        -85.315661,
                        10.743298
                    ],
                    [
                        -85.315889,
                        10.743735
                    ],
                    [
                        -85.315976,
                        10.743948
                    ],
                    [
                        -85.316052,
                        10.744225
                    ],
                    [
                        -85.316075,
                        10.744479
                    ],
                    [
                        -85.316047,
                        10.745035
                    ],
                    [
                        -85.316059,
                        10.7453
                    ],
                    [
                        -85.31602,
                        10.745584
                    ],
                    [
                        -85.31589,
                        10.745757
                    ],
                    [
                        -85.315694,
                        10.745965
                    ],
                    [
                        -85.315351,
                        10.74626
                    ],
                    [
                        -85.315093,
                        10.746445
                    ],
                    [
                        -85.314643,
                        10.746698
                    ],
                    [
                        -85.314471,
                        10.746766
                    ],
                    [
                        -85.3138,
                        10.746814
                    ],
                    [
                        -85.313602,
                        10.746877
                    ],
                    [
                        -85.313489,
                        10.74693
                    ],
                    [
                        -85.313382,
                        10.747009
                    ],
                    [
                        -85.312794,
                        10.747586
                    ],
                    [
                        -85.312717,
                        10.747692
                    ],
                    [
                        -85.312669,
                        10.747849
                    ],
                    [
                        -85.312607,
                        10.749172
                    ],
                    [
                        -85.312765,
                        10.74934
                    ],
                    [
                        -85.313152,
                        10.749533
                    ],
                    [
                        -85.313297,
                        10.749654
                    ],
                    [
                        -85.313632,
                        10.749992
                    ],
                    [
                        -85.313778,
                        10.749982
                    ],
                    [
                        -85.314055,
                        10.750023
                    ],
                    [
                        -85.314319,
                        10.749995
                    ],
                    [
                        -85.314385,
                        10.74994
                    ],
                    [
                        -85.314437,
                        10.749936
                    ],
                    [
                        -85.314482,
                        10.749872
                    ],
                    [
                        -85.314482,
                        10.749764
                    ],
                    [
                        -85.314531,
                        10.749716
                    ],
                    [
                        -85.314653,
                        10.749648
                    ],
                    [
                        -85.314759,
                        10.749568
                    ],
                    [
                        -85.314909,
                        10.74944
                    ],
                    [
                        -85.315112,
                        10.749201
                    ],
                    [
                        -85.315255,
                        10.749081
                    ],
                    [
                        -85.315588,
                        10.749041
                    ],
                    [
                        -85.315767,
                        10.749053
                    ],
                    [
                        -85.31599,
                        10.748997
                    ],
                    [
                        -85.316059,
                        10.749021
                    ],
                    [
                        -85.316202,
                        10.749009
                    ],
                    [
                        -85.316299,
                        10.748961
                    ],
                    [
                        -85.316429,
                        10.748953
                    ],
                    [
                        -85.316576,
                        10.748893
                    ],
                    [
                        -85.316657,
                        10.748821
                    ],
                    [
                        -85.316966,
                        10.748781
                    ],
                    [
                        -85.31723,
                        10.748637
                    ],
                    [
                        -85.317324,
                        10.748633
                    ],
                    [
                        -85.317657,
                        10.748817
                    ],
                    [
                        -85.317771,
                        10.748949
                    ],
                    [
                        -85.317799,
                        10.749131
                    ],
                    [
                        -85.317954,
                        10.749141
                    ],
                    [
                        -85.318147,
                        10.749123
                    ],
                    [
                        -85.318276,
                        10.749058
                    ],
                    [
                        -85.318409,
                        10.749053
                    ],
                    [
                        -85.318865,
                        10.748917
                    ],
                    [
                        -85.319023,
                        10.748901
                    ],
                    [
                        -85.31969,
                        10.748977
                    ],
                    [
                        -85.319857,
                        10.748977
                    ],
                    [
                        -85.319942,
                        10.748917
                    ],
                    [
                        -85.320063,
                        10.748799
                    ],
                    [
                        -85.32023,
                        10.748599
                    ],
                    [
                        -85.320347,
                        10.748521
                    ],
                    [
                        -85.321197,
                        10.74849
                    ],
                    [
                        -85.321585,
                        10.748508
                    ],
                    [
                        -85.321974,
                        10.748599
                    ],
                    [
                        -85.322121,
                        10.748666
                    ],
                    [
                        -85.322645,
                        10.748666
                    ],
                    [
                        -85.322959,
                        10.748636
                    ],
                    [
                        -85.323224,
                        10.74863
                    ],
                    [
                        -85.323496,
                        10.748557
                    ],
                    [
                        -85.323785,
                        10.748436
                    ],
                    [
                        -85.324025,
                        10.748436
                    ],
                    [
                        -85.324123,
                        10.748449
                    ],
                    [
                        -85.324271,
                        10.748431
                    ],
                    [
                        -85.324372,
                        10.748458
                    ],
                    [
                        -85.324462,
                        10.748446
                    ],
                    [
                        -85.324761,
                        10.748113
                    ],
                    [
                        -85.324884,
                        10.748034
                    ],
                    [
                        -85.324973,
                        10.748019
                    ],
                    [
                        -85.325032,
                        10.748043
                    ],
                    [
                        -85.325127,
                        10.748034
                    ],
                    [
                        -85.325167,
                        10.747973
                    ],
                    [
                        -85.325207,
                        10.747828
                    ],
                    [
                        -85.325309,
                        10.747756
                    ],
                    [
                        -85.325411,
                        10.747707
                    ],
                    [
                        -85.325411,
                        10.747616
                    ],
                    [
                        -85.325383,
                        10.74755
                    ],
                    [
                        -85.325417,
                        10.747501
                    ],
                    [
                        -85.325491,
                        10.747465
                    ],
                    [
                        -85.325497,
                        10.747371
                    ],
                    [
                        -85.325414,
                        10.747214
                    ],
                    [
                        -85.325435,
                        10.747165
                    ],
                    [
                        -85.325553,
                        10.747029
                    ],
                    [
                        -85.3257,
                        10.74689
                    ],
                    [
                        -85.325781,
                        10.746869
                    ],
                    [
                        -85.325861,
                        10.746787
                    ],
                    [
                        -85.325919,
                        10.74666
                    ],
                    [
                        -85.32607,
                        10.746472
                    ],
                    [
                        -85.326206,
                        10.746363
                    ],
                    [
                        -85.326329,
                        10.746306
                    ],
                    [
                        -85.326461,
                        10.746272
                    ],
                    [
                        -85.326582,
                        10.746188
                    ],
                    [
                        -85.3266,
                        10.746066
                    ],
                    [
                        -85.326689,
                        10.745939
                    ],
                    [
                        -85.326748,
                        10.745818
                    ],
                    [
                        -85.32677,
                        10.745588
                    ],
                    [
                        -85.32685,
                        10.745491
                    ],
                    [
                        -85.326948,
                        10.745452
                    ],
                    [
                        -85.327081,
                        10.745534
                    ],
                    [
                        -85.327189,
                        10.745549
                    ],
                    [
                        -85.327364,
                        10.745497
                    ],
                    [
                        -85.327669,
                        10.745367
                    ],
                    [
                        -85.327712,
                        10.745301
                    ],
                    [
                        -85.327743,
                        10.745167
                    ],
                    [
                        -85.327752,
                        10.745052
                    ],
                    [
                        -85.327873,
                        10.744889
                    ],
                    [
                        -85.327996,
                        10.74468
                    ],
                    [
                        -85.328054,
                        10.744535
                    ],
                    [
                        -85.328159,
                        10.744159
                    ],
                    [
                        -85.328264,
                        10.743675
                    ],
                    [
                        -85.328335,
                        10.743496
                    ],
                    [
                        -85.32847,
                        10.743276
                    ],
                    [
                        -85.328692,
                        10.742982
                    ],
                    [
                        -85.328929,
                        10.742794
                    ],
                    [
                        -85.329065,
                        10.742661
                    ],
                    [
                        -85.329127,
                        10.742576
                    ],
                    [
                        -85.32937,
                        10.742425
                    ],
                    [
                        -85.329552,
                        10.742161
                    ],
                    [
                        -85.33015,
                        10.742168
                    ],
                    [
                        -85.330257,
                        10.742125
                    ],
                    [
                        -85.330346,
                        10.742066
                    ],
                    [
                        -85.330442,
                        10.741805
                    ],
                    [
                        -85.330648,
                        10.741628
                    ],
                    [
                        -85.330854,
                        10.7416
                    ],
                    [
                        -85.331028,
                        10.741641
                    ],
                    [
                        -85.331313,
                        10.741582
                    ],
                    [
                        -85.331918,
                        10.741363
                    ],
                    [
                        -85.332204,
                        10.741384
                    ],
                    [
                        -85.332504,
                        10.741387
                    ],
                    [
                        -85.332733,
                        10.741314
                    ],
                    [
                        -85.332947,
                        10.741175
                    ],
                    [
                        -85.333404,
                        10.740994
                    ],
                    [
                        -85.333859,
                        10.740918
                    ],
                    [
                        -85.33428,
                        10.740754
                    ],
                    [
                        -85.335028,
                        10.740367
                    ],
                    [
                        -85.335183,
                        10.740324
                    ],
                    [
                        -85.335554,
                        10.740288
                    ],
                    [
                        -85.335759,
                        10.740313
                    ],
                    [
                        -85.335917,
                        10.740264
                    ],
                    [
                        -85.336381,
                        10.740014
                    ],
                    [
                        -85.336708,
                        10.739964
                    ],
                    [
                        -85.337049,
                        10.739944
                    ],
                    [
                        -85.337151,
                        10.739951
                    ],
                    [
                        -85.337256,
                        10.739992
                    ],
                    [
                        -85.337404,
                        10.740144
                    ],
                    [
                        -85.337551,
                        10.740345
                    ],
                    [
                        -85.338316,
                        10.74101
                    ],
                    [
                        -85.338378,
                        10.741043
                    ],
                    [
                        -85.338713,
                        10.741089
                    ],
                    [
                        -85.339079,
                        10.7411
                    ],
                    [
                        -85.339428,
                        10.740995
                    ],
                    [
                        -85.33977,
                        10.740831
                    ],
                    [
                        -85.340442,
                        10.740362
                    ],
                    [
                        -85.340854,
                        10.739828
                    ],
                    [
                        -85.341112,
                        10.739651
                    ],
                    [
                        -85.341508,
                        10.739558
                    ],
                    [
                        -85.341877,
                        10.739645
                    ],
                    [
                        -85.342105,
                        10.739846
                    ],
                    [
                        -85.342257,
                        10.74004
                    ],
                    [
                        -85.342357,
                        10.740219
                    ],
                    [
                        -85.342398,
                        10.740331
                    ],
                    [
                        -85.342509,
                        10.740444
                    ],
                    [
                        -85.342655,
                        10.740532
                    ],
                    [
                        -85.342834,
                        10.740572
                    ],
                    [
                        -85.343009,
                        10.740556
                    ],
                    [
                        -85.343683,
                        10.74001
                    ],
                    [
                        -85.343761,
                        10.739963
                    ],
                    [
                        -85.34389,
                        10.739936
                    ],
                    [
                        -85.344517,
                        10.740151
                    ],
                    [
                        -85.344686,
                        10.740239
                    ],
                    [
                        -85.34487,
                        10.74038
                    ],
                    [
                        -85.34564,
                        10.74123
                    ],
                    [
                        -85.3458,
                        10.7416
                    ],
                    [
                        -85.34598,
                        10.742126
                    ],
                    [
                        -85.346372,
                        10.742469
                    ],
                    [
                        -85.346668,
                        10.742684
                    ],
                    [
                        -85.346889,
                        10.742769
                    ],
                    [
                        -85.347095,
                        10.742774
                    ],
                    [
                        -85.347278,
                        10.742717
                    ],
                    [
                        -85.347627,
                        10.742457
                    ],
                    [
                        -85.34792,
                        10.742263
                    ],
                    [
                        -85.34826,
                        10.742084
                    ],
                    [
                        -85.348553,
                        10.74199
                    ],
                    [
                        -85.348664,
                        10.74199
                    ],
                    [
                        -85.348779,
                        10.742014
                    ],
                    [
                        -85.34891,
                        10.74208
                    ],
                    [
                        -85.349958,
                        10.743012
                    ],
                    [
                        -85.350191,
                        10.743135
                    ],
                    [
                        -85.350432,
                        10.743198
                    ],
                    [
                        -85.35086,
                        10.743228
                    ],
                    [
                        -85.351093,
                        10.743295
                    ],
                    [
                        -85.35118,
                        10.743357
                    ],
                    [
                        -85.351253,
                        10.743471
                    ],
                    [
                        -85.355531,
                        10.751862
                    ],
                    [
                        -85.355647,
                        10.752135
                    ],
                    [
                        -85.355659,
                        10.75225
                    ],
                    [
                        -85.355639,
                        10.752361
                    ],
                    [
                        -85.355247,
                        10.752757
                    ],
                    [
                        -85.354422,
                        10.753437
                    ],
                    [
                        -85.354149,
                        10.753719
                    ],
                    [
                        -85.353089,
                        10.755159
                    ],
                    [
                        -85.352906,
                        10.755127
                    ],
                    [
                        -85.35251,
                        10.755277
                    ],
                    [
                        -85.352015,
                        10.755252
                    ],
                    [
                        -85.351703,
                        10.755713
                    ],
                    [
                        -85.351092,
                        10.757044
                    ],
                    [
                        -85.350579,
                        10.75777
                    ],
                    [
                        -85.350249,
                        10.758374
                    ],
                    [
                        -85.350104,
                        10.758976
                    ],
                    [
                        -85.350166,
                        10.759177
                    ],
                    [
                        -85.350033,
                        10.759664
                    ],
                    [
                        -85.349926,
                        10.76051
                    ],
                    [
                        -85.350301,
                        10.761012
                    ],
                    [
                        -85.350379,
                        10.761262
                    ],
                    [
                        -85.350393,
                        10.761328
                    ],
                    [
                        -85.350484,
                        10.761641
                    ],
                    [
                        -85.350548,
                        10.761717
                    ],
                    [
                        -85.350644,
                        10.761737
                    ],
                    [
                        -85.351656,
                        10.761355
                    ],
                    [
                        -85.353255,
                        10.762822
                    ],
                    [
                        -85.354431,
                        10.763282
                    ],
                    [
                        -85.353044,
                        10.764213
                    ],
                    [
                        -85.352408,
                        10.765938
                    ],
                    [
                        -85.352218,
                        10.766605
                    ],
                    [
                        -85.351316,
                        10.768809
                    ],
                    [
                        -85.350747,
                        10.7702
                    ],
                    [
                        -85.350106,
                        10.771766
                    ],
                    [
                        -85.34984,
                        10.772415
                    ],
                    [
                        -85.349692,
                        10.772855
                    ],
                    [
                        -85.349717,
                        10.772909
                    ],
                    [
                        -85.349763,
                        10.772914
                    ]
                ],
                "type": "LineString"
            }
        }
    ],
    "metadata": {
        "attribution": "openrouteservice.org | OpenStreetMap contributors",
        "service": "routing",
        "timestamp": 1756806486521,
        "query": {
            "coordinates": [
                [
                    -85.43772,
                    10.63504
                ],
                [
                    -85.349777,
                    10.773067
                ]
            ],
            "profile": "driving-car",
            "profileName": "driving-car",
            "format": "geojson"
        },
        "engine": {
            "version": "9.3.0",
            "build_date": "2025-06-06T15:39:25Z",
            "graph_date": "2025-08-31T11:45:10Z",
            "osm_date": "2025-08-24T23:59:58Z"
        }
    }
}