{
    "type": "FeatureCollection",
    "bbox": [
        -124.050934,
        41.373243,
        -124.014401,
        41.540416
    ],
    "features": [
        {
            "bbox": [
                -124.050934,
                41.373243,
                -124.014401,
                41.540416
            ],
            "type": "Feature",
            "properties": {
                "segments": [
                    {
                        "distance": 21172.4,
                        "duration": 1309.0,
                        "steps": [
                            {
                                "distance": 1993.3,
                                "duration": 101.0,
                                "type": 11,
                                "instruction": "Head south on Redwood Highway, US 101",
                                "name": "Redwood Highway, US 101",
                                "way_points": [
                                    0,
                                    9
                                ]
                            },
                            {
                                "distance": 564.4,
                                "duration": 49.4,
                                "type": 13,
                                "instruction": "Keep right",
                                "name": "-",
                                "way_points": [
                                    9,
                                    23
                                ]
                            },
                            {
                                "distance": 6706.4,
                                "duration": 301.3,
                                "type": 5,
                                "instruction": "Turn slight right onto Redwood Highway, US 101",
                                "name": "Redwood Highway, US 101",
                                "way_points": [
                                    23,
                                    90
                                ]
                            },
                            {
                                "distance": 378.9,
                                "duration": 27.3,
                                "type": 13,
                                "instruction": "Keep right",
                                "name": "-",
                                "way_points": [
                                    90,
                                    94
                                ]
                            },
                            {
                                "distance": 11529.4,
                                "duration": 830.1,
                                "type": 1,
                                "instruction": "Turn right onto Newton B Drury Scenic Parkway",
                                "name": "Newton B Drury Scenic Parkway",
                                "way_points": [
                                    94,
                                    257
                                ]
                            },
                            {
                                "distance": 0.0,
                                "duration": 0.0,
                                "type": 10,
                                "instruction": "Arrive at Newton B Drury Scenic Parkway, straight ahead",
                                "name": "-",
                                "way_points": [
                                    257,
                                    257
                                ]
                            }
                        ]
                    }
                ],
                "way_points": [
                    0,
                    257
                ],
                "summary": {
                    "distance": 21172.4,
                    "duration": 1309.0
                }
            },
            "geometry": {
                "coordinates": [
                    [
                        -124.04974,
                        41.540416
                    ],
                    [
                        -124.049698,
                        41.540329
                    ],
                    [
                        -124.049583,
                        41.540083
                    ],
                    [
                        -124.049099,
                        41.53902
                    ],
                    [
                        -124.048755,
                        41.538416
                    ],
                    [
                        -124.048549,
                        41.538133
                    ],
                    [
                        -124.048266,
                        41.537805
                    ],
                    [
                        -124.047322,
                        41.536822
                    ],
                    [
                        -124.041751,
                        41.53129
                    ],
                    [
                        -124.036138,
                        41.525765
                    ],
                    [
                        -124.035848,
                        41.525312
                    ],
                    [
                        -124.035532,
                        41.524899
                    ],
                    [
                        -124.035372,
                        41.524618
                    ],
                    [
                        -124.035237,
                        41.524358
                    ],
                    [
                        -124.035131,
                        41.524089
                    ],
                    [
                        -124.034999,
                        41.52356
                    ],
                    [
                        -124.034925,
                        41.523287
                    ],
                    [
                        -124.034869,
                        41.523123
                    ],
                    [
                        -124.034713,
                        41.523014
                    ],
                    [
                        -124.034602,
                        41.522892
                    ],
                    [
                        -124.033829,
                        41.522205
                    ],
                    [
                        -124.033572,
                        41.521922
                    ],
                    [
                        -124.033192,
                        41.521378
                    ],
                    [
                        -124.033093,
                        41.521335
                    ],
                    [
                        -124.032683,
                        41.520716
                    ],
                    [
                        -124.03237,
                        41.520187
                    ],
                    [
                        -124.029301,
                        41.515086
                    ],
                    [
                        -124.02898,
                        41.514544
                    ],
                    [
                        -124.028607,
                        41.513828
                    ],
                    [
                        -124.028437,
                        41.513092
                    ],
                    [
                        -124.028402,
                        41.512692
                    ],
                    [
                        -124.02841,
                        41.512417
                    ],
                    [
                        -124.028466,
                        41.511979
                    ],
                    [
                        -124.028587,
                        41.511548
                    ],
                    [
                        -124.028689,
                        41.511294
                    ],
                    [
                        -124.028787,
                        41.511089
                    ],
                    [
                        -124.029156,
                        41.510537
                    ],
                    [
                        -124.029265,
                        41.510403
                    ],
                    [
                        -124.029716,
                        41.509878
                    ],
                    [
                        -124.030309,
                        41.509209
                    ],
                    [
                        -124.031315,
                        41.508025
                    ],
                    [
                        -124.031484,
                        41.507856
                    ],
                    [
                        -124.031537,
                        41.507795
                    ],
                    [
                        -124.031875,
                        41.507203
                    ],
                    [
                        -124.031991,
                        41.506959
                    ],
                    [
                        -124.03206,
                        41.506696
                    ],
                    [
                        -124.032549,
                        41.504105
                    ],
                    [
                        -124.032661,
                        41.503733
                    ],
                    [
                        -124.032996,
                        41.502987
                    ],
                    [
                        -124.033373,
                        41.502383
                    ],
                    [
                        -124.033562,
                        41.502138
                    ],
                    [
                        -124.033863,
                        41.501817
                    ],
                    [
                        -124.034523,
                        41.501309
                    ],
                    [
                        -124.035262,
                        41.500866
                    ],
                    [
                        -124.039596,
                        41.498384
                    ],
                    [
                        -124.042437,
                        41.496629
                    ],
                    [
                        -124.04278,
                        41.496385
                    ],
                    [
                        -124.043089,
                        41.496128
                    ],
                    [
                        -124.043313,
                        41.495896
                    ],
                    [
                        -124.043484,
                        41.495633
                    ],
                    [
                        -124.043716,
                        41.495093
                    ],
                    [
                        -124.043819,
                        41.494759
                    ],
                    [
                        -124.044136,
                        41.493948
                    ],
                    [
                        -124.044445,
                        41.493402
                    ],
                    [
                        -124.044617,
                        41.493177
                    ],
                    [
                        -124.044823,
                        41.492952
                    ],
                    [
                        -124.045441,
                        41.492418
                    ],
                    [
                        -124.047218,
                        41.491062
                    ],
                    [
                        -124.047561,
                        41.49067
                    ],
                    [
                        -124.049844,
                        41.487828
                    ],
                    [
                        -124.050402,
                        41.487101
                    ],
                    [
                        -124.050634,
                        41.486767
                    ],
                    [
                        -124.050788,
                        41.48642
                    ],
                    [
                        -124.050891,
                        41.486034
                    ],
                    [
                        -124.050934,
                        41.485751
                    ],
                    [
                        -124.050917,
                        41.485442
                    ],
                    [
                        -124.050909,
                        41.484163
                    ],
                    [
                        -124.050857,
                        41.483841
                    ],
                    [
                        -124.050745,
                        41.483526
                    ],
                    [
                        -124.050582,
                        41.483218
                    ],
                    [
                        -124.048547,
                        41.47986
                    ],
                    [
                        -124.047492,
                        41.478119
                    ],
                    [
                        -124.046892,
                        41.477212
                    ],
                    [
                        -124.046591,
                        41.476813
                    ],
                    [
                        -124.046274,
                        41.476466
                    ],
                    [
                        -124.044643,
                        41.474903
                    ],
                    [
                        -124.04436,
                        41.474588
                    ],
                    [
                        -124.044162,
                        41.474331
                    ],
                    [
                        -124.043982,
                        41.474074
                    ],
                    [
                        -124.042265,
                        41.471347
                    ],
                    [
                        -124.041098,
                        41.469533
                    ],
                    [
                        -124.040154,
                        41.467623
                    ],
                    [
                        -124.04005,
                        41.46725
                    ],
                    [
                        -124.039991,
                        41.466655
                    ],
                    [
                        -124.039823,
                        41.466283
                    ],
                    [
                        -124.040976,
                        41.465475
                    ],
                    [
                        -124.04243,
                        41.464356
                    ],
                    [
                        -124.043286,
                        41.463759
                    ],
                    [
                        -124.046131,
                        41.461831
                    ],
                    [
                        -124.046351,
                        41.461659
                    ],
                    [
                        -124.046657,
                        41.461374
                    ],
                    [
                        -124.046888,
                        41.461088
                    ],
                    [
                        -124.047228,
                        41.460552
                    ],
                    [
                        -124.047414,
                        41.460086
                    ],
                    [
                        -124.047468,
                        41.45962
                    ],
                    [
                        -124.047425,
                        41.459274
                    ],
                    [
                        -124.047305,
                        41.458921
                    ],
                    [
                        -124.047222,
                        41.458772
                    ],
                    [
                        -124.046863,
                        41.458321
                    ],
                    [
                        -124.04654,
                        41.458045
                    ],
                    [
                        -124.046098,
                        41.45776
                    ],
                    [
                        -124.045469,
                        41.457417
                    ],
                    [
                        -124.04521,
                        41.457309
                    ],
                    [
                        -124.044522,
                        41.456902
                    ],
                    [
                        -124.044373,
                        41.456778
                    ],
                    [
                        -124.044048,
                        41.456409
                    ],
                    [
                        -124.04399,
                        41.456303
                    ],
                    [
                        -124.043918,
                        41.45601
                    ],
                    [
                        -124.043885,
                        41.45541
                    ],
                    [
                        -124.04383,
                        41.454963
                    ],
                    [
                        -124.04378,
                        41.454792
                    ],
                    [
                        -124.043565,
                        41.45443
                    ],
                    [
                        -124.043133,
                        41.453865
                    ],
                    [
                        -124.042868,
                        41.453331
                    ],
                    [
                        -124.042751,
                        41.453132
                    ],
                    [
                        -124.042591,
                        41.452912
                    ],
                    [
                        -124.042422,
                        41.452767
                    ],
                    [
                        -124.042259,
                        41.452658
                    ],
                    [
                        -124.042072,
                        41.452563
                    ],
                    [
                        -124.04191,
                        41.452521
                    ],
                    [
                        -124.041766,
                        41.452462
                    ],
                    [
                        -124.041285,
                        41.452066
                    ],
                    [
                        -124.040839,
                        41.451805
                    ],
                    [
                        -124.040667,
                        41.451753
                    ],
                    [
                        -124.040462,
                        41.451716
                    ],
                    [
                        -124.040253,
                        41.451714
                    ],
                    [
                        -124.039774,
                        41.451811
                    ],
                    [
                        -124.039286,
                        41.451859
                    ],
                    [
                        -124.039152,
                        41.451842
                    ],
                    [
                        -124.039014,
                        41.451804
                    ],
                    [
                        -124.03888,
                        41.451741
                    ],
                    [
                        -124.038755,
                        41.451638
                    ],
                    [
                        -124.038575,
                        41.451418
                    ],
                    [
                        -124.038467,
                        41.451173
                    ],
                    [
                        -124.038426,
                        41.450879
                    ],
                    [
                        -124.03866,
                        41.450438
                    ],
                    [
                        -124.038805,
                        41.449917
                    ],
                    [
                        -124.038798,
                        41.44982
                    ],
                    [
                        -124.038636,
                        41.449243
                    ],
                    [
                        -124.038596,
                        41.448979
                    ],
                    [
                        -124.038594,
                        41.448683
                    ],
                    [
                        -124.038623,
                        41.448534
                    ],
                    [
                        -124.03869,
                        41.44841
                    ],
                    [
                        -124.038798,
                        41.448293
                    ],
                    [
                        -124.039517,
                        41.447721
                    ],
                    [
                        -124.039654,
                        41.447546
                    ],
                    [
                        -124.039701,
                        41.447392
                    ],
                    [
                        -124.039786,
                        41.446676
                    ],
                    [
                        -124.039829,
                        41.446538
                    ],
                    [
                        -124.039898,
                        41.446436
                    ],
                    [
                        -124.040129,
                        41.446178
                    ],
                    [
                        -124.040348,
                        41.445977
                    ],
                    [
                        -124.041133,
                        41.44532
                    ],
                    [
                        -124.041212,
                        41.445241
                    ],
                    [
                        -124.041271,
                        41.445138
                    ],
                    [
                        -124.041273,
                        41.44488
                    ],
                    [
                        -124.041191,
                        41.444427
                    ],
                    [
                        -124.041155,
                        41.444099
                    ],
                    [
                        -124.041131,
                        41.443806
                    ],
                    [
                        -124.04114,
                        41.443547
                    ],
                    [
                        -124.040998,
                        41.442263
                    ],
                    [
                        -124.041041,
                        41.441572
                    ],
                    [
                        -124.041128,
                        41.441042
                    ],
                    [
                        -124.041149,
                        41.440747
                    ],
                    [
                        -124.04112,
                        41.440384
                    ],
                    [
                        -124.041012,
                        41.439965
                    ],
                    [
                        -124.040637,
                        41.439213
                    ],
                    [
                        -124.040459,
                        41.438705
                    ],
                    [
                        -124.040247,
                        41.437325
                    ],
                    [
                        -124.039783,
                        41.435812
                    ],
                    [
                        -124.039358,
                        41.434992
                    ],
                    [
                        -124.03923,
                        41.434798
                    ],
                    [
                        -124.039132,
                        41.434685
                    ],
                    [
                        -124.038821,
                        41.434155
                    ],
                    [
                        -124.038719,
                        41.433948
                    ],
                    [
                        -124.038568,
                        41.433475
                    ],
                    [
                        -124.038375,
                        41.4314
                    ],
                    [
                        -124.038242,
                        41.430808
                    ],
                    [
                        -124.038058,
                        41.430331
                    ],
                    [
                        -124.038025,
                        41.430164
                    ],
                    [
                        -124.037962,
                        41.42999
                    ],
                    [
                        -124.037776,
                        41.429018
                    ],
                    [
                        -124.037723,
                        41.428844
                    ],
                    [
                        -124.037566,
                        41.428481
                    ],
                    [
                        -124.037117,
                        41.427672
                    ],
                    [
                        -124.036981,
                        41.42733
                    ],
                    [
                        -124.036871,
                        41.427107
                    ],
                    [
                        -124.036787,
                        41.426863
                    ],
                    [
                        -124.036673,
                        41.426233
                    ],
                    [
                        -124.036537,
                        41.42564
                    ],
                    [
                        -124.036245,
                        41.424551
                    ],
                    [
                        -124.035956,
                        41.423706
                    ],
                    [
                        -124.035854,
                        41.423479
                    ],
                    [
                        -124.035587,
                        41.423012
                    ],
                    [
                        -124.035319,
                        41.422589
                    ],
                    [
                        -124.034897,
                        41.421983
                    ],
                    [
                        -124.034561,
                        41.421397
                    ],
                    [
                        -124.034352,
                        41.420885
                    ],
                    [
                        -124.034277,
                        41.420439
                    ],
                    [
                        -124.034157,
                        41.419988
                    ],
                    [
                        -124.034092,
                        41.419595
                    ],
                    [
                        -124.034023,
                        41.419326
                    ],
                    [
                        -124.033941,
                        41.419104
                    ],
                    [
                        -124.033507,
                        41.418244
                    ],
                    [
                        -124.033113,
                        41.417656
                    ],
                    [
                        -124.032712,
                        41.417126
                    ],
                    [
                        -124.032257,
                        41.41641
                    ],
                    [
                        -124.031877,
                        41.415748
                    ],
                    [
                        -124.031685,
                        41.415276
                    ],
                    [
                        -124.031472,
                        41.414625
                    ],
                    [
                        -124.031401,
                        41.413757
                    ],
                    [
                        -124.03128,
                        41.412734
                    ],
                    [
                        -124.031087,
                        41.411752
                    ],
                    [
                        -124.031087,
                        41.411635
                    ],
                    [
                        -124.03101,
                        41.4113
                    ],
                    [
                        -124.03028,
                        41.408853
                    ],
                    [
                        -124.030147,
                        41.407747
                    ],
                    [
                        -124.029968,
                        41.407064
                    ],
                    [
                        -124.029848,
                        41.406705
                    ],
                    [
                        -124.029681,
                        41.406334
                    ],
                    [
                        -124.029556,
                        41.405997
                    ],
                    [
                        -124.029258,
                        41.405053
                    ],
                    [
                        -124.028823,
                        41.403582
                    ],
                    [
                        -124.028564,
                        41.402529
                    ],
                    [
                        -124.02792,
                        41.400919
                    ],
                    [
                        -124.026675,
                        41.399326
                    ],
                    [
                        -124.026206,
                        41.398685
                    ],
                    [
                        -124.025087,
                        41.397378
                    ],
                    [
                        -124.024137,
                        41.396328
                    ],
                    [
                        -124.02307,
                        41.394996
                    ],
                    [
                        -124.021743,
                        41.393444
                    ],
                    [
                        -124.020281,
                        41.391615
                    ],
                    [
                        -124.018757,
                        41.389861
                    ],
                    [
                        -124.018049,
                        41.388943
                    ],
                    [
                        -124.017577,
                        41.388138
                    ],
                    [
                        -124.016891,
                        41.386609
                    ],
                    [
                        -124.016461,
                        41.38574
                    ],
                    [
                        -124.015797,
                        41.384291
                    ],
                    [
                        -124.015208,
                        41.382368
                    ],
                    [
                        -124.015131,
                        41.381956
                    ],
                    [
                        -124.014666,
                        41.380416
                    ],
                    [
                        -124.014418,
                        41.379226
                    ],
                    [
                        -124.014401,
                        41.378735
                    ],
                    [
                        -124.014443,
                        41.377535
                    ],
                    [
                        -124.014552,
                        41.37616
                    ],
                    [
                        -124.014544,
                        41.375837
                    ],
                    [
                        -124.014566,
                        41.375204
                    ],
                    [
                        -124.014669,
                        41.373243
                    ]
                ],
                "type": "LineString"
            }
        }
    ],
    "metadata": {
        "attribution": "openrouteservice.org | OpenStreetMap contributors",
        "service": "routing",
        "timestamp": 1756795553017,
        "query": {
            "coordinates": [
                [
                    -124.0498,
                    41.5404
                ],
                [
                    -124.014675,
                    41.373243
                ]
            ],
            "profile": "driving-car",
            "profileName": "driving-car",
            "format": "geojson"
        },
        "engine": {
            "version": "9.3.0",
            "build_date": "2025-06-06T15:39:25Z",
            "graph_date": "2025-08-31T11:45:10Z",
            "osm_date": "2025-08-24T23:59:58Z"
        }
    }
}