{
    "type": "FeatureCollection",
    "bbox": [
        75.820402,
        26.915888,
        76.046851,
        27.431501
    ],
    "features": [
        {
            "bbox": [
                75.820402,
                26.915888,
                76.046851,
                27.431501
            ],
            "type": "Feature",
            "properties": {
                "segments": [
                    {
                        "distance": 71334.9,
                        "duration": 3276.2,
                        "steps": [
                            {
                                "distance": 7.0,
                                "duration": 2.5,
                                "type": 11,
                                "instruction": "Head south",
                                "name": "-",
                                "way_points": [
                                    0,
                                    1
                                ]
                            },
                            {
                                "distance": 14.0,
                                "duration": 0.6,
                                "type": 1,
                                "instruction": "Turn right onto Mirza Ismail Road",
                                "name": "Mirza Ismail Road",
                                "way_points": [
                                    1,
                                    2
                                ]
                            },
                            {
                                "distance": 912.6,
                                "duration": 72.3,
                                "type": 1,
                                "instruction": "Turn right",
                                "name": "-",
                                "way_points": [
                                    2,
                                    14
                                ]
                            },
                            {
                                "distance": 409.3,
                                "duration": 24.6,
                                "type": 1,
                                "instruction": "Turn right onto Tripolia Bazaar",
                                "name": "Tripolia Bazaar",
                                "way_points": [
                                    14,
                                    19
                                ]
                            },
                            {
                                "distance": 34.6,
                                "duration": 8.3,
                                "type": 0,
                                "instruction": "Turn left",
                                "name": "-",
                                "way_points": [
                                    19,
                                    23
                                ]
                            },
                            {
                                "distance": 959.7,
                                "duration": 62.8,
                                "type": 0,
                                "instruction": "Turn left onto Amer Road",
                                "name": "Amer Road",
                                "way_points": [
                                    23,
                                    36
                                ]
                            },
                            {
                                "distance": 538.2,
                                "duration": 35.2,
                                "type": 0,
                                "instruction": "Turn left",
                                "name": "-",
                                "way_points": [
                                    36,
                                    49
                                ]
                            },
                            {
                                "distance": 1574.0,
                                "duration": 106.1,
                                "type": 4,
                                "instruction": "Turn slight left onto Amer Road",
                                "name": "Amer Road",
                                "way_points": [
                                    49,
                                    84
                                ]
                            },
                            {
                                "distance": 1021.9,
                                "duration": 82.7,
                                "type": 1,
                                "instruction": "Turn right onto New Ramgarh Road",
                                "name": "New Ramgarh Road",
                                "way_points": [
                                    84,
                                    96
                                ]
                            },
                            {
                                "distance": 43084.0,
                                "duration": 1830.8,
                                "type": 7,
                                "instruction": "Enter the roundabout and take the 1st exit onto New Rambah Road, NH248",
                                "name": "New Rambah Road, NH248",
                                "exit_number": 1,
                                "way_points": [
                                    96,
                                    437
                                ]
                            },
                            {
                                "distance": 14934.8,
                                "duration": 632.5,
                                "type": 6,
                                "instruction": "Continue straight onto Amer Road, NH48",
                                "name": "Amer Road, NH48",
                                "way_points": [
                                    437,
                                    560
                                ]
                            },
                            {
                                "distance": 556.9,
                                "duration": 44.8,
                                "type": 12,
                                "instruction": "Keep left",
                                "name": "-",
                                "way_points": [
                                    560,
                                    568
                                ]
                            },
                            {
                                "distance": 47.2,
                                "duration": 8.5,
                                "type": 1,
                                "instruction": "Turn right",
                                "name": "-",
                                "way_points": [
                                    568,
                                    569
                                ]
                            },
                            {
                                "distance": 611.7,
                                "duration": 48.8,
                                "type": 0,
                                "instruction": "Turn left",
                                "name": "-",
                                "way_points": [
                                    569,
                                    576
                                ]
                            },
                            {
                                "distance": 5450.6,
                                "duration": 230.8,
                                "type": 1,
                                "instruction": "Turn right onto NH8, SH13",
                                "name": "NH8, SH13",
                                "way_points": [
                                    576,
                                    607
                                ]
                            },
                            {
                                "distance": 1178.5,
                                "duration": 84.9,
                                "type": 0,
                                "instruction": "Turn left",
                                "name": "-",
                                "way_points": [
                                    607,
                                    623
                                ]
                            },
                            {
                                "distance": 0.0,
                                "duration": 0.0,
                                "type": 10,
                                "instruction": "Arrive at your destination, on the right",
                                "name": "-",
                                "way_points": [
                                    623,
                                    623
                                ]
                            }
                        ]
                    }
                ],
                "way_points": [
                    0,
                    623
                ],
                "summary": {
                    "distance": 71334.9,
                    "duration": 3276.2
                }
            },
            "geometry": {
                "coordinates": [
                    [
                        75.82055,
                        26.91595
                    ],
                    [
                        75.82054,
                        26.915888
                    ],
                    [
                        75.820402,
                        26.915917
                    ],
                    [
                        75.820431,
                        26.916031
                    ],
                    [
                        75.82048,
                        26.916216
                    ],
                    [
                        75.820641,
                        26.916895
                    ],
                    [
                        75.820779,
                        26.917436
                    ],
                    [
                        75.820913,
                        26.917914
                    ],
                    [
                        75.821183,
                        26.918828
                    ],
                    [
                        75.82148,
                        26.919849
                    ],
                    [
                        75.821734,
                        26.920821
                    ],
                    [
                        75.822042,
                        26.921984
                    ],
                    [
                        75.822314,
                        26.922957
                    ],
                    [
                        75.822522,
                        26.923809
                    ],
                    [
                        75.822544,
                        26.923897
                    ],
                    [
                        75.822661,
                        26.923874
                    ],
                    [
                        75.823958,
                        26.923617
                    ],
                    [
                        75.825967,
                        26.92319
                    ],
                    [
                        75.826371,
                        26.923113
                    ],
                    [
                        75.826572,
                        26.92311
                    ],
                    [
                        75.82662,
                        26.923176
                    ],
                    [
                        75.826684,
                        26.923223
                    ],
                    [
                        75.826761,
                        26.923252
                    ],
                    [
                        75.826854,
                        26.923259
                    ],
                    [
                        75.827639,
                        26.926055
                    ],
                    [
                        75.82784,
                        26.926762
                    ],
                    [
                        75.828227,
                        26.92818
                    ],
                    [
                        75.828488,
                        26.929154
                    ],
                    [
                        75.828629,
                        26.929651
                    ],
                    [
                        75.828704,
                        26.929732
                    ],
                    [
                        75.828757,
                        26.929758
                    ],
                    [
                        75.828782,
                        26.92977
                    ],
                    [
                        75.82886,
                        26.92978
                    ],
                    [
                        75.828978,
                        26.929766
                    ],
                    [
                        75.829737,
                        26.929598
                    ],
                    [
                        75.830078,
                        26.929548
                    ],
                    [
                        75.830824,
                        26.929406
                    ],
                    [
                        75.830998,
                        26.929759
                    ],
                    [
                        75.831496,
                        26.930535
                    ],
                    [
                        75.831566,
                        26.930605
                    ],
                    [
                        75.831774,
                        26.930897
                    ],
                    [
                        75.83185,
                        26.93104
                    ],
                    [
                        75.831963,
                        26.931223
                    ],
                    [
                        75.832168,
                        26.931752
                    ],
                    [
                        75.832416,
                        26.932389
                    ],
                    [
                        75.832552,
                        26.932751
                    ],
                    [
                        75.832589,
                        26.932863
                    ],
                    [
                        75.832758,
                        26.933374
                    ],
                    [
                        75.83291,
                        26.933648
                    ],
                    [
                        75.83302,
                        26.933803
                    ],
                    [
                        75.833089,
                        26.934078
                    ],
                    [
                        75.833134,
                        26.934215
                    ],
                    [
                        75.833252,
                        26.934585
                    ],
                    [
                        75.833459,
                        26.935263
                    ],
                    [
                        75.833588,
                        26.935673
                    ],
                    [
                        75.833586,
                        26.935747
                    ],
                    [
                        75.833623,
                        26.935868
                    ],
                    [
                        75.83372,
                        26.936034
                    ],
                    [
                        75.834079,
                        26.936483
                    ],
                    [
                        75.834528,
                        26.936997
                    ],
                    [
                        75.835138,
                        26.937623
                    ],
                    [
                        75.835252,
                        26.937742
                    ],
                    [
                        75.835809,
                        26.938272
                    ],
                    [
                        75.836046,
                        26.938493
                    ],
                    [
                        75.836498,
                        26.938913
                    ],
                    [
                        75.836616,
                        26.939049
                    ],
                    [
                        75.836835,
                        26.939301
                    ],
                    [
                        75.837243,
                        26.939784
                    ],
                    [
                        75.837536,
                        26.940163
                    ],
                    [
                        75.837783,
                        26.940507
                    ],
                    [
                        75.837845,
                        26.940601
                    ],
                    [
                        75.838021,
                        26.94087
                    ],
                    [
                        75.838335,
                        26.941331
                    ],
                    [
                        75.838578,
                        26.941683
                    ],
                    [
                        75.838684,
                        26.941844
                    ],
                    [
                        75.838734,
                        26.941921
                    ],
                    [
                        75.839051,
                        26.942415
                    ],
                    [
                        75.839198,
                        26.942679
                    ],
                    [
                        75.839284,
                        26.942919
                    ],
                    [
                        75.839377,
                        26.943494
                    ],
                    [
                        75.839423,
                        26.943739
                    ],
                    [
                        75.839474,
                        26.943963
                    ],
                    [
                        75.839669,
                        26.944711
                    ],
                    [
                        75.839983,
                        26.946079
                    ],
                    [
                        75.840001,
                        26.946154
                    ],
                    [
                        75.840093,
                        26.946148
                    ],
                    [
                        75.840612,
                        26.946125
                    ],
                    [
                        75.841958,
                        26.946118
                    ],
                    [
                        75.84252,
                        26.946119
                    ],
                    [
                        75.843224,
                        26.946122
                    ],
                    [
                        75.844556,
                        26.946126
                    ],
                    [
                        75.845483,
                        26.946126
                    ],
                    [
                        75.847144,
                        26.946136
                    ],
                    [
                        75.847799,
                        26.946136
                    ],
                    [
                        75.849762,
                        26.946129
                    ],
                    [
                        75.849984,
                        26.946126
                    ],
                    [
                        75.850309,
                        26.94611
                    ],
                    [
                        75.85033,
                        26.946123
                    ],
                    [
                        75.85054,
                        26.946256
                    ],
                    [
                        75.850978,
                        26.946571
                    ],
                    [
                        75.851418,
                        26.946886
                    ],
                    [
                        75.852649,
                        26.947715
                    ],
                    [
                        75.85497,
                        26.949327
                    ],
                    [
                        75.855428,
                        26.94964
                    ],
                    [
                        75.855754,
                        26.949811
                    ],
                    [
                        75.856078,
                        26.949917
                    ],
                    [
                        75.856666,
                        26.950017
                    ],
                    [
                        75.856798,
                        26.950032
                    ],
                    [
                        75.858801,
                        26.950245
                    ],
                    [
                        75.859771,
                        26.950328
                    ],
                    [
                        75.860263,
                        26.950392
                    ],
                    [
                        75.860714,
                        26.950464
                    ],
                    [
                        75.860896,
                        26.950512
                    ],
                    [
                        75.861058,
                        26.950567
                    ],
                    [
                        75.861382,
                        26.950717
                    ],
                    [
                        75.861547,
                        26.950821
                    ],
                    [
                        75.861681,
                        26.950927
                    ],
                    [
                        75.862024,
                        26.951184
                    ],
                    [
                        75.862303,
                        26.95139
                    ],
                    [
                        75.86277,
                        26.951752
                    ],
                    [
                        75.863629,
                        26.952432
                    ],
                    [
                        75.864096,
                        26.952848
                    ],
                    [
                        75.864274,
                        26.953043
                    ],
                    [
                        75.864418,
                        26.953234
                    ],
                    [
                        75.864651,
                        26.953549
                    ],
                    [
                        75.864988,
                        26.954113
                    ],
                    [
                        75.865133,
                        26.954423
                    ],
                    [
                        75.865319,
                        26.954926
                    ],
                    [
                        75.865646,
                        26.956209
                    ],
                    [
                        75.866342,
                        26.959103
                    ],
                    [
                        75.866514,
                        26.959725
                    ],
                    [
                        75.866687,
                        26.960103
                    ],
                    [
                        75.866821,
                        26.960334
                    ],
                    [
                        75.86702,
                        26.960622
                    ],
                    [
                        75.867788,
                        26.961739
                    ],
                    [
                        75.868217,
                        26.962352
                    ],
                    [
                        75.869106,
                        26.963573
                    ],
                    [
                        75.869978,
                        26.964816
                    ],
                    [
                        75.870146,
                        26.965103
                    ],
                    [
                        75.870329,
                        26.965463
                    ],
                    [
                        75.870543,
                        26.965921
                    ],
                    [
                        75.870694,
                        26.966316
                    ],
                    [
                        75.870865,
                        26.96697
                    ],
                    [
                        75.870936,
                        26.967373
                    ],
                    [
                        75.871208,
                        26.969913
                    ],
                    [
                        75.871341,
                        26.971329
                    ],
                    [
                        75.871625,
                        26.974072
                    ],
                    [
                        75.871736,
                        26.975088
                    ],
                    [
                        75.871781,
                        26.975474
                    ],
                    [
                        75.871905,
                        26.976145
                    ],
                    [
                        75.87197,
                        26.976371
                    ],
                    [
                        75.872182,
                        26.976843
                    ],
                    [
                        75.873092,
                        26.978665
                    ],
                    [
                        75.873651,
                        26.979765
                    ],
                    [
                        75.874042,
                        26.98051
                    ],
                    [
                        75.875077,
                        26.982697
                    ],
                    [
                        75.875239,
                        26.983095
                    ],
                    [
                        75.875381,
                        26.983594
                    ],
                    [
                        75.875491,
                        26.984245
                    ],
                    [
                        75.875546,
                        26.984752
                    ],
                    [
                        75.875623,
                        26.986249
                    ],
                    [
                        75.875586,
                        26.986696
                    ],
                    [
                        75.875407,
                        26.987952
                    ],
                    [
                        75.875072,
                        26.990282
                    ],
                    [
                        75.875061,
                        26.990565
                    ],
                    [
                        75.875078,
                        26.990851
                    ],
                    [
                        75.875192,
                        26.991528
                    ],
                    [
                        75.875771,
                        26.993924
                    ],
                    [
                        75.875865,
                        26.994389
                    ],
                    [
                        75.875893,
                        26.994515
                    ],
                    [
                        75.876242,
                        26.995773
                    ],
                    [
                        75.87631,
                        26.996065
                    ],
                    [
                        75.876342,
                        26.996486
                    ],
                    [
                        75.876283,
                        26.99822
                    ],
                    [
                        75.876276,
                        26.998391
                    ],
                    [
                        75.876253,
                        26.998946
                    ],
                    [
                        75.876228,
                        26.999555
                    ],
                    [
                        75.876191,
                        27.00045
                    ],
                    [
                        75.876189,
                        27.000874
                    ],
                    [
                        75.876201,
                        27.001222
                    ],
                    [
                        75.876227,
                        27.001376
                    ],
                    [
                        75.876305,
                        27.001828
                    ],
                    [
                        75.876888,
                        27.004737
                    ],
                    [
                        75.877132,
                        27.005424
                    ],
                    [
                        75.877713,
                        27.006545
                    ],
                    [
                        75.877821,
                        27.006789
                    ],
                    [
                        75.877877,
                        27.007025
                    ],
                    [
                        75.877954,
                        27.007597
                    ],
                    [
                        75.878093,
                        27.009508
                    ],
                    [
                        75.878108,
                        27.009745
                    ],
                    [
                        75.878143,
                        27.010314
                    ],
                    [
                        75.878207,
                        27.010737
                    ],
                    [
                        75.878289,
                        27.011078
                    ],
                    [
                        75.87854,
                        27.011837
                    ],
                    [
                        75.878745,
                        27.012381
                    ],
                    [
                        75.878928,
                        27.012988
                    ],
                    [
                        75.879181,
                        27.013719
                    ],
                    [
                        75.879541,
                        27.014882
                    ],
                    [
                        75.879807,
                        27.015929
                    ],
                    [
                        75.880143,
                        27.017182
                    ],
                    [
                        75.880555,
                        27.018618
                    ],
                    [
                        75.881647,
                        27.02268
                    ],
                    [
                        75.882924,
                        27.027215
                    ],
                    [
                        75.883166,
                        27.028025
                    ],
                    [
                        75.883325,
                        27.028396
                    ],
                    [
                        75.883619,
                        27.028911
                    ],
                    [
                        75.883773,
                        27.029142
                    ],
                    [
                        75.884102,
                        27.029581
                    ],
                    [
                        75.886127,
                        27.03203
                    ],
                    [
                        75.888064,
                        27.034423
                    ],
                    [
                        75.889178,
                        27.03579
                    ],
                    [
                        75.890644,
                        27.037546
                    ],
                    [
                        75.891318,
                        27.038301
                    ],
                    [
                        75.891811,
                        27.038721
                    ],
                    [
                        75.894464,
                        27.040704
                    ],
                    [
                        75.894863,
                        27.041001
                    ],
                    [
                        75.8954,
                        27.041404
                    ],
                    [
                        75.896354,
                        27.042121
                    ],
                    [
                        75.897476,
                        27.042963
                    ],
                    [
                        75.897512,
                        27.042989
                    ],
                    [
                        75.902274,
                        27.046551
                    ],
                    [
                        75.903242,
                        27.047207
                    ],
                    [
                        75.9043,
                        27.047915
                    ],
                    [
                        75.906275,
                        27.049227
                    ],
                    [
                        75.907219,
                        27.049961
                    ],
                    [
                        75.907558,
                        27.050193
                    ],
                    [
                        75.907973,
                        27.050445
                    ],
                    [
                        75.913167,
                        27.053505
                    ],
                    [
                        75.913729,
                        27.053866
                    ],
                    [
                        75.915181,
                        27.05494
                    ],
                    [
                        75.917439,
                        27.056769
                    ],
                    [
                        75.919772,
                        27.058602
                    ],
                    [
                        75.920846,
                        27.059466
                    ],
                    [
                        75.921848,
                        27.060341
                    ],
                    [
                        75.928818,
                        27.066539
                    ],
                    [
                        75.929309,
                        27.066987
                    ],
                    [
                        75.931514,
                        27.068972
                    ],
                    [
                        75.932687,
                        27.069974
                    ],
                    [
                        75.934898,
                        27.071696
                    ],
                    [
                        75.935426,
                        27.072048
                    ],
                    [
                        75.936232,
                        27.072571
                    ],
                    [
                        75.936558,
                        27.07285
                    ],
                    [
                        75.936782,
                        27.073087
                    ],
                    [
                        75.937002,
                        27.073359
                    ],
                    [
                        75.937146,
                        27.073631
                    ],
                    [
                        75.937467,
                        27.074422
                    ],
                    [
                        75.937865,
                        27.075287
                    ],
                    [
                        75.938295,
                        27.076201
                    ],
                    [
                        75.938758,
                        27.077269
                    ],
                    [
                        75.939819,
                        27.079563
                    ],
                    [
                        75.942446,
                        27.084986
                    ],
                    [
                        75.942822,
                        27.085699
                    ],
                    [
                        75.943065,
                        27.0861
                    ],
                    [
                        75.943296,
                        27.086409
                    ],
                    [
                        75.943519,
                        27.086674
                    ],
                    [
                        75.943795,
                        27.086926
                    ],
                    [
                        75.944072,
                        27.087126
                    ],
                    [
                        75.94437,
                        27.087299
                    ],
                    [
                        75.947203,
                        27.088739
                    ],
                    [
                        75.948119,
                        27.089186
                    ],
                    [
                        75.948295,
                        27.089272
                    ],
                    [
                        75.949211,
                        27.089749
                    ],
                    [
                        75.949823,
                        27.0901
                    ],
                    [
                        75.950118,
                        27.090312
                    ],
                    [
                        75.950387,
                        27.090527
                    ],
                    [
                        75.950588,
                        27.090737
                    ],
                    [
                        75.950791,
                        27.090985
                    ],
                    [
                        75.951016,
                        27.091338
                    ],
                    [
                        75.951543,
                        27.092561
                    ],
                    [
                        75.95239,
                        27.094635
                    ],
                    [
                        75.955071,
                        27.100099
                    ],
                    [
                        75.95722,
                        27.104432
                    ],
                    [
                        75.957451,
                        27.104966
                    ],
                    [
                        75.957557,
                        27.105244
                    ],
                    [
                        75.95767,
                        27.105696
                    ],
                    [
                        75.957825,
                        27.106438
                    ],
                    [
                        75.958531,
                        27.11014
                    ],
                    [
                        75.958728,
                        27.111091
                    ],
                    [
                        75.959013,
                        27.112362
                    ],
                    [
                        75.95916,
                        27.112803
                    ],
                    [
                        75.959524,
                        27.113769
                    ],
                    [
                        75.960009,
                        27.115063
                    ],
                    [
                        75.96022,
                        27.115668
                    ],
                    [
                        75.960431,
                        27.1166
                    ],
                    [
                        75.960618,
                        27.117872
                    ],
                    [
                        75.960646,
                        27.118344
                    ],
                    [
                        75.960644,
                        27.118779
                    ],
                    [
                        75.960584,
                        27.120158
                    ],
                    [
                        75.960604,
                        27.122811
                    ],
                    [
                        75.960644,
                        27.123666
                    ],
                    [
                        75.960694,
                        27.1247
                    ],
                    [
                        75.960853,
                        27.126998
                    ],
                    [
                        75.960839,
                        27.127479
                    ],
                    [
                        75.96078,
                        27.127946
                    ],
                    [
                        75.960585,
                        27.129129
                    ],
                    [
                        75.960549,
                        27.129468
                    ],
                    [
                        75.960552,
                        27.129596
                    ],
                    [
                        75.960557,
                        27.129835
                    ],
                    [
                        75.96062,
                        27.13032
                    ],
                    [
                        75.960712,
                        27.130743
                    ],
                    [
                        75.96099,
                        27.13168
                    ],
                    [
                        75.961174,
                        27.13223
                    ],
                    [
                        75.961324,
                        27.132658
                    ],
                    [
                        75.961544,
                        27.13331
                    ],
                    [
                        75.961645,
                        27.133639
                    ],
                    [
                        75.961708,
                        27.133909
                    ],
                    [
                        75.961763,
                        27.134144
                    ],
                    [
                        75.961847,
                        27.134881
                    ],
                    [
                        75.961983,
                        27.136715
                    ],
                    [
                        75.962042,
                        27.137385
                    ],
                    [
                        75.962112,
                        27.138114
                    ],
                    [
                        75.962159,
                        27.138729
                    ],
                    [
                        75.962311,
                        27.140671
                    ],
                    [
                        75.962288,
                        27.141233
                    ],
                    [
                        75.962223,
                        27.141731
                    ],
                    [
                        75.961659,
                        27.144437
                    ],
                    [
                        75.961466,
                        27.145689
                    ],
                    [
                        75.96141,
                        27.146063
                    ],
                    [
                        75.960751,
                        27.15042
                    ],
                    [
                        75.96069,
                        27.151262
                    ],
                    [
                        75.960278,
                        27.154205
                    ],
                    [
                        75.960098,
                        27.155945
                    ],
                    [
                        75.960057,
                        27.156602
                    ],
                    [
                        75.960037,
                        27.157471
                    ],
                    [
                        75.960135,
                        27.158521
                    ],
                    [
                        75.960334,
                        27.161131
                    ],
                    [
                        75.960401,
                        27.163044
                    ],
                    [
                        75.9604,
                        27.163321
                    ],
                    [
                        75.96039,
                        27.163894
                    ],
                    [
                        75.960428,
                        27.165716
                    ],
                    [
                        75.960345,
                        27.168111
                    ],
                    [
                        75.960279,
                        27.169197
                    ],
                    [
                        75.960288,
                        27.170292
                    ],
                    [
                        75.960392,
                        27.170801
                    ],
                    [
                        75.960536,
                        27.171336
                    ],
                    [
                        75.961142,
                        27.17381
                    ],
                    [
                        75.961256,
                        27.174312
                    ],
                    [
                        75.961293,
                        27.174634
                    ],
                    [
                        75.961275,
                        27.174928
                    ],
                    [
                        75.961167,
                        27.175297
                    ],
                    [
                        75.96091,
                        27.175766
                    ],
                    [
                        75.960668,
                        27.176097
                    ],
                    [
                        75.959828,
                        27.177073
                    ],
                    [
                        75.959734,
                        27.177185
                    ],
                    [
                        75.959487,
                        27.177732
                    ],
                    [
                        75.959321,
                        27.178239
                    ],
                    [
                        75.957627,
                        27.184478
                    ],
                    [
                        75.957193,
                        27.186378
                    ],
                    [
                        75.956185,
                        27.190952
                    ],
                    [
                        75.955603,
                        27.193544
                    ],
                    [
                        75.955587,
                        27.193613
                    ],
                    [
                        75.955563,
                        27.19372
                    ],
                    [
                        75.955253,
                        27.195098
                    ],
                    [
                        75.955017,
                        27.195989
                    ],
                    [
                        75.954805,
                        27.196639
                    ],
                    [
                        75.954332,
                        27.197725
                    ],
                    [
                        75.952353,
                        27.20106
                    ],
                    [
                        75.951914,
                        27.201871
                    ],
                    [
                        75.951587,
                        27.20258
                    ],
                    [
                        75.951338,
                        27.203325
                    ],
                    [
                        75.950652,
                        27.205752
                    ],
                    [
                        75.949819,
                        27.209284
                    ],
                    [
                        75.949646,
                        27.210217
                    ],
                    [
                        75.949253,
                        27.213242
                    ],
                    [
                        75.949147,
                        27.214166
                    ],
                    [
                        75.94894,
                        27.214857
                    ],
                    [
                        75.948649,
                        27.215448
                    ],
                    [
                        75.94803,
                        27.216509
                    ],
                    [
                        75.946905,
                        27.218541
                    ],
                    [
                        75.946758,
                        27.218835
                    ],
                    [
                        75.946612,
                        27.219188
                    ],
                    [
                        75.946514,
                        27.219784
                    ],
                    [
                        75.946517,
                        27.220435
                    ],
                    [
                        75.946561,
                        27.220817
                    ],
                    [
                        75.946583,
                        27.220916
                    ],
                    [
                        75.947635,
                        27.223852
                    ],
                    [
                        75.947742,
                        27.224294
                    ],
                    [
                        75.947846,
                        27.22479
                    ],
                    [
                        75.94791,
                        27.225711
                    ],
                    [
                        75.947953,
                        27.22675
                    ],
                    [
                        75.948033,
                        27.228039
                    ],
                    [
                        75.948059,
                        27.228655
                    ],
                    [
                        75.948034,
                        27.229419
                    ],
                    [
                        75.948183,
                        27.231062
                    ],
                    [
                        75.948338,
                        27.232521
                    ],
                    [
                        75.948775,
                        27.235607
                    ],
                    [
                        75.949405,
                        27.23946
                    ],
                    [
                        75.949568,
                        27.240753
                    ],
                    [
                        75.949653,
                        27.24129
                    ],
                    [
                        75.949993,
                        27.242303
                    ],
                    [
                        75.950349,
                        27.243089
                    ],
                    [
                        75.950542,
                        27.243853
                    ],
                    [
                        75.950704,
                        27.244633
                    ],
                    [
                        75.950812,
                        27.245151
                    ],
                    [
                        75.95093,
                        27.245936
                    ],
                    [
                        75.950977,
                        27.246533
                    ],
                    [
                        75.950945,
                        27.24791
                    ],
                    [
                        75.95083,
                        27.249864
                    ],
                    [
                        75.950796,
                        27.250872
                    ],
                    [
                        75.950818,
                        27.251873
                    ],
                    [
                        75.950849,
                        27.252268
                    ],
                    [
                        75.951056,
                        27.254944
                    ],
                    [
                        75.951083,
                        27.255632
                    ],
                    [
                        75.951038,
                        27.257296
                    ],
                    [
                        75.951056,
                        27.259236
                    ],
                    [
                        75.95106,
                        27.259706
                    ],
                    [
                        75.951154,
                        27.261921
                    ],
                    [
                        75.951155,
                        27.262852
                    ],
                    [
                        75.951039,
                        27.263641
                    ],
                    [
                        75.950815,
                        27.264375
                    ],
                    [
                        75.950126,
                        27.266579
                    ],
                    [
                        75.949687,
                        27.267887
                    ],
                    [
                        75.948648,
                        27.271027
                    ],
                    [
                        75.947693,
                        27.273889
                    ],
                    [
                        75.947393,
                        27.274796
                    ],
                    [
                        75.947347,
                        27.275039
                    ],
                    [
                        75.947301,
                        27.27574
                    ],
                    [
                        75.947329,
                        27.275971
                    ],
                    [
                        75.94736,
                        27.276226
                    ],
                    [
                        75.947446,
                        27.276626
                    ],
                    [
                        75.94773,
                        27.277208
                    ],
                    [
                        75.947943,
                        27.277575
                    ],
                    [
                        75.948111,
                        27.277733
                    ],
                    [
                        75.948629,
                        27.278213
                    ],
                    [
                        75.948933,
                        27.278449
                    ],
                    [
                        75.949401,
                        27.278704
                    ],
                    [
                        75.95108,
                        27.279336
                    ],
                    [
                        75.951614,
                        27.279573
                    ],
                    [
                        75.952233,
                        27.27997
                    ],
                    [
                        75.952834,
                        27.280438
                    ],
                    [
                        75.953659,
                        27.281244
                    ],
                    [
                        75.954054,
                        27.281815
                    ],
                    [
                        75.955212,
                        27.283514
                    ],
                    [
                        75.955702,
                        27.283971
                    ],
                    [
                        75.956334,
                        27.284438
                    ],
                    [
                        75.957628,
                        27.285126
                    ],
                    [
                        75.958434,
                        27.28551
                    ],
                    [
                        75.959948,
                        27.28628
                    ],
                    [
                        75.960209,
                        27.28643
                    ],
                    [
                        75.960549,
                        27.286667
                    ],
                    [
                        75.960834,
                        27.286901
                    ],
                    [
                        75.961136,
                        27.28721
                    ],
                    [
                        75.961408,
                        27.287554
                    ],
                    [
                        75.961645,
                        27.287901
                    ],
                    [
                        75.961808,
                        27.288257
                    ],
                    [
                        75.961943,
                        27.288672
                    ],
                    [
                        75.962057,
                        27.28913
                    ],
                    [
                        75.962132,
                        27.289545
                    ],
                    [
                        75.96217,
                        27.290034
                    ],
                    [
                        75.962155,
                        27.290437
                    ],
                    [
                        75.962095,
                        27.290879
                    ],
                    [
                        75.961976,
                        27.291294
                    ],
                    [
                        75.961822,
                        27.291705
                    ],
                    [
                        75.961604,
                        27.29211
                    ],
                    [
                        75.958234,
                        27.297516
                    ],
                    [
                        75.957045,
                        27.299376
                    ],
                    [
                        75.95687,
                        27.299651
                    ],
                    [
                        75.955749,
                        27.301411
                    ],
                    [
                        75.954567,
                        27.303316
                    ],
                    [
                        75.954164,
                        27.304045
                    ],
                    [
                        75.95334,
                        27.305777
                    ],
                    [
                        75.952344,
                        27.307756
                    ],
                    [
                        75.951868,
                        27.308762
                    ],
                    [
                        75.951721,
                        27.309271
                    ],
                    [
                        75.951603,
                        27.309837
                    ],
                    [
                        75.951554,
                        27.310272
                    ],
                    [
                        75.951611,
                        27.311045
                    ],
                    [
                        75.951876,
                        27.313224
                    ],
                    [
                        75.951896,
                        27.313375
                    ],
                    [
                        75.952166,
                        27.315464
                    ],
                    [
                        75.952074,
                        27.316581
                    ],
                    [
                        75.951924,
                        27.317987
                    ],
                    [
                        75.951565,
                        27.320133
                    ],
                    [
                        75.951488,
                        27.320661
                    ],
                    [
                        75.951422,
                        27.321117
                    ],
                    [
                        75.951384,
                        27.321375
                    ],
                    [
                        75.951349,
                        27.322114
                    ],
                    [
                        75.951352,
                        27.322699
                    ],
                    [
                        75.951414,
                        27.323585
                    ],
                    [
                        75.951439,
                        27.324025
                    ],
                    [
                        75.951543,
                        27.3253
                    ],
                    [
                        75.951633,
                        27.326496
                    ],
                    [
                        75.951791,
                        27.328212
                    ],
                    [
                        75.951963,
                        27.329506
                    ],
                    [
                        75.952063,
                        27.33024
                    ],
                    [
                        75.952104,
                        27.330541
                    ],
                    [
                        75.952164,
                        27.33098
                    ],
                    [
                        75.952239,
                        27.331532
                    ],
                    [
                        75.952426,
                        27.332878
                    ],
                    [
                        75.952523,
                        27.333498
                    ],
                    [
                        75.952708,
                        27.334688
                    ],
                    [
                        75.952785,
                        27.33518
                    ],
                    [
                        75.953201,
                        27.337842
                    ],
                    [
                        75.953384,
                        27.338451
                    ],
                    [
                        75.953472,
                        27.338653
                    ],
                    [
                        75.953749,
                        27.339293
                    ],
                    [
                        75.953891,
                        27.33957
                    ],
                    [
                        75.954021,
                        27.339825
                    ],
                    [
                        75.954375,
                        27.340518
                    ],
                    [
                        75.95593,
                        27.343563
                    ],
                    [
                        75.956147,
                        27.344128
                    ],
                    [
                        75.956266,
                        27.344658
                    ],
                    [
                        75.956275,
                        27.345358
                    ],
                    [
                        75.956189,
                        27.345895
                    ],
                    [
                        75.95599,
                        27.346542
                    ],
                    [
                        75.95592,
                        27.346771
                    ],
                    [
                        75.955633,
                        27.347729
                    ],
                    [
                        75.955114,
                        27.34953
                    ],
                    [
                        75.954912,
                        27.350332
                    ],
                    [
                        75.954897,
                        27.350502
                    ],
                    [
                        75.954869,
                        27.350835
                    ],
                    [
                        75.954872,
                        27.352708
                    ],
                    [
                        75.95485,
                        27.354085
                    ],
                    [
                        75.954742,
                        27.354562
                    ],
                    [
                        75.954581,
                        27.355024
                    ],
                    [
                        75.954536,
                        27.355195
                    ],
                    [
                        75.954393,
                        27.35555
                    ],
                    [
                        75.954122,
                        27.356641
                    ],
                    [
                        75.954092,
                        27.357227
                    ],
                    [
                        75.954126,
                        27.357843
                    ],
                    [
                        75.954241,
                        27.358613
                    ],
                    [
                        75.954263,
                        27.358756
                    ],
                    [
                        75.954526,
                        27.36051
                    ],
                    [
                        75.954846,
                        27.362243
                    ],
                    [
                        75.955017,
                        27.363086
                    ],
                    [
                        75.955463,
                        27.36503
                    ],
                    [
                        75.956307,
                        27.368957
                    ],
                    [
                        75.956646,
                        27.369812
                    ],
                    [
                        75.957112,
                        27.370754
                    ],
                    [
                        75.960099,
                        27.376496
                    ],
                    [
                        75.960961,
                        27.378081
                    ],
                    [
                        75.961437,
                        27.379109
                    ],
                    [
                        75.962988,
                        27.382175
                    ],
                    [
                        75.965255,
                        27.386561
                    ],
                    [
                        75.965696,
                        27.387424
                    ],
                    [
                        75.9663,
                        27.38852
                    ],
                    [
                        75.967046,
                        27.390001
                    ],
                    [
                        75.967781,
                        27.391385
                    ],
                    [
                        75.968351,
                        27.392315
                    ],
                    [
                        75.968582,
                        27.392656
                    ],
                    [
                        75.969457,
                        27.393953
                    ],
                    [
                        75.970566,
                        27.395525
                    ],
                    [
                        75.970904,
                        27.395901
                    ],
                    [
                        75.971061,
                        27.396048
                    ],
                    [
                        75.971264,
                        27.396205
                    ],
                    [
                        75.971485,
                        27.396348
                    ],
                    [
                        75.974544,
                        27.397853
                    ],
                    [
                        75.974683,
                        27.397912
                    ],
                    [
                        75.975227,
                        27.398073
                    ],
                    [
                        75.975915,
                        27.398237
                    ],
                    [
                        75.979986,
                        27.399202
                    ],
                    [
                        75.980773,
                        27.399388
                    ],
                    [
                        75.981503,
                        27.399608
                    ],
                    [
                        75.981986,
                        27.399765
                    ],
                    [
                        75.982601,
                        27.399971
                    ],
                    [
                        75.983408,
                        27.400256
                    ],
                    [
                        75.984087,
                        27.400511
                    ],
                    [
                        75.984431,
                        27.400651
                    ],
                    [
                        75.984889,
                        27.400909
                    ],
                    [
                        75.986437,
                        27.401993
                    ],
                    [
                        75.988514,
                        27.403523
                    ],
                    [
                        75.988724,
                        27.403863
                    ],
                    [
                        75.988808,
                        27.403894
                    ],
                    [
                        75.989103,
                        27.404082
                    ],
                    [
                        75.990298,
                        27.404953
                    ],
                    [
                        75.990863,
                        27.405396
                    ],
                    [
                        75.991361,
                        27.405833
                    ],
                    [
                        75.991938,
                        27.406412
                    ],
                    [
                        75.992442,
                        27.407052
                    ],
                    [
                        75.992855,
                        27.406838
                    ],
                    [
                        75.993516,
                        27.407805
                    ],
                    [
                        75.994092,
                        27.408718
                    ],
                    [
                        75.994754,
                        27.409707
                    ],
                    [
                        75.995305,
                        27.410584
                    ],
                    [
                        75.995905,
                        27.411462
                    ],
                    [
                        75.995944,
                        27.411522
                    ],
                    [
                        75.995985,
                        27.411585
                    ],
                    [
                        75.996142,
                        27.411495
                    ],
                    [
                        75.99693,
                        27.41147
                    ],
                    [
                        75.997618,
                        27.411362
                    ],
                    [
                        75.998238,
                        27.411128
                    ],
                    [
                        76.003407,
                        27.409036
                    ],
                    [
                        76.004208,
                        27.408753
                    ],
                    [
                        76.004835,
                        27.408612
                    ],
                    [
                        76.006713,
                        27.408311
                    ],
                    [
                        76.007281,
                        27.408179
                    ],
                    [
                        76.007949,
                        27.407937
                    ],
                    [
                        76.009114,
                        27.407401
                    ],
                    [
                        76.011331,
                        27.406483
                    ],
                    [
                        76.011732,
                        27.406424
                    ],
                    [
                        76.012042,
                        27.406443
                    ],
                    [
                        76.012416,
                        27.406495
                    ],
                    [
                        76.01271,
                        27.406628
                    ],
                    [
                        76.013116,
                        27.406879
                    ],
                    [
                        76.016707,
                        27.409421
                    ],
                    [
                        76.022719,
                        27.413644
                    ],
                    [
                        76.023179,
                        27.413933
                    ],
                    [
                        76.023367,
                        27.414014
                    ],
                    [
                        76.023788,
                        27.414195
                    ],
                    [
                        76.024515,
                        27.41446
                    ],
                    [
                        76.026539,
                        27.415267
                    ],
                    [
                        76.029659,
                        27.416481
                    ],
                    [
                        76.039941,
                        27.420516
                    ],
                    [
                        76.040476,
                        27.420692
                    ],
                    [
                        76.041214,
                        27.42081
                    ],
                    [
                        76.042425,
                        27.420916
                    ],
                    [
                        76.04491,
                        27.421206
                    ],
                    [
                        76.045493,
                        27.421276
                    ],
                    [
                        76.045537,
                        27.424308
                    ],
                    [
                        76.045532,
                        27.425272
                    ],
                    [
                        76.04542,
                        27.426287
                    ],
                    [
                        76.045397,
                        27.427141
                    ],
                    [
                        76.045435,
                        27.428415
                    ],
                    [
                        76.045351,
                        27.428752
                    ],
                    [
                        76.045366,
                        27.428892
                    ],
                    [
                        76.045497,
                        27.429049
                    ],
                    [
                        76.045688,
                        27.429236
                    ],
                    [
                        76.045814,
                        27.429484
                    ],
                    [
                        76.046134,
                        27.430227
                    ],
                    [
                        76.046189,
                        27.430353
                    ],
                    [
                        76.046579,
                        27.430802
                    ],
                    [
                        76.04672,
                        27.431018
                    ],
                    [
                        76.046829,
                        27.431276
                    ],
                    [
                        76.046851,
                        27.431501
                    ]
                ],
                "type": "LineString"
            }
        }
    ],
    "metadata": {
        "attribution": "openrouteservice.org | OpenStreetMap contributors",
        "service": "routing",
        "timestamp": 1756632297631,
        "query": {
            "coordinates": [
                [
                    75.820505,
                    26.915956
                ],
                [
                    76.046901,
                    27.431497
                ]
            ],
            "profile": "driving-car",
            "profileName": "driving-car",
            "format": "geojson"
        },
        "engine": {
            "version": "9.3.0",
            "build_date": "2025-06-06T15:39:25Z",
            "graph_date": "2025-08-24T11:22:16Z",
            "osm_date": "2025-08-18T00:00:00Z"
        }
    }
}