{
    "type": "FeatureCollection",
    "bbox": [
        77.125307,
        28.547743,
        77.219049,
        28.642634
    ],
    "features": [
        {
            "bbox": [
                77.125307,
                28.547743,
                77.219049,
                28.642634
            ],
            "type": "Feature",
            "properties": {
                "segments": [
                    {
                        "distance": 16239.7,
                        "duration": 1290.9,
                        "steps": [
                            {
                                "distance": 20.5,
                                "duration": 4.9,
                                "type": 11,
                                "instruction": "Head northwest on Road No.5",
                                "name": "Road No.5",
                                "way_points": [
                                    0,
                                    1
                                ]
                            },
                            {
                                "distance": 482.0,
                                "duration": 32.0,
                                "type": 0,
                                "instruction": "Turn left",
                                "name": "-",
                                "way_points": [
                                    1,
                                    7
                                ]
                            },
                            {
                                "distance": 53.9,
                                "duration": 12.9,
                                "type": 1,
                                "instruction": "Turn right",
                                "name": "-",
                                "way_points": [
                                    7,
                                    8
                                ]
                            },
                            {
                                "distance": 7036.8,
                                "duration": 556.9,
                                "type": 1,
                                "instruction": "Turn right",
                                "name": "-",
                                "way_points": [
                                    8,
                                    67
                                ]
                            },
                            {
                                "distance": 3111.8,
                                "duration": 244.2,
                                "type": 13,
                                "instruction": "Keep right onto Dhaula Kuan Flyover",
                                "name": "Dhaula Kuan Flyover",
                                "way_points": [
                                    67,
                                    88
                                ]
                            },
                            {
                                "distance": 2095.5,
                                "duration": 141.4,
                                "type": 12,
                                "instruction": "Keep left",
                                "name": "-",
                                "way_points": [
                                    88,
                                    124
                                ]
                            },
                            {
                                "distance": 219.7,
                                "duration": 17.6,
                                "type": 3,
                                "instruction": "Turn sharp right onto Shankar Road",
                                "name": "Shankar Road",
                                "way_points": [
                                    124,
                                    127
                                ]
                            },
                            {
                                "distance": 666.5,
                                "duration": 51.2,
                                "type": 7,
                                "instruction": "Enter the roundabout and take the 1st exit onto Baba Kharak Singh Marg",
                                "name": "Baba Kharak Singh Marg",
                                "exit_number": 1,
                                "way_points": [
                                    127,
                                    139
                                ]
                            },
                            {
                                "distance": 1231.8,
                                "duration": 103.9,
                                "type": 7,
                                "instruction": "Enter the roundabout and take the 3rd exit onto Baba Kharak Singh Marg",
                                "name": "Baba Kharak Singh Marg",
                                "exit_number": 3,
                                "way_points": [
                                    139,
                                    168
                                ]
                            },
                            {
                                "distance": 1216.3,
                                "duration": 100.5,
                                "type": 7,
                                "instruction": "Enter the roundabout and take the 5th exit onto Chelmsford Road",
                                "name": "Chelmsford Road",
                                "exit_number": 5,
                                "way_points": [
                                    168,
                                    190
                                ]
                            },
                            {
                                "distance": 104.9,
                                "duration": 25.2,
                                "type": 1,
                                "instruction": "Turn right",
                                "name": "-",
                                "way_points": [
                                    190,
                                    197
                                ]
                            },
                            {
                                "distance": 0.0,
                                "duration": 0.0,
                                "type": 10,
                                "instruction": "Arrive at your destination, on the right",
                                "name": "-",
                                "way_points": [
                                    197,
                                    197
                                ]
                            }
                        ]
                    }
                ],
                "way_points": [
                    0,
                    197
                ],
                "summary": {
                    "distance": 16239.7,
                    "duration": 1290.9
                }
            },
            "geometry": {
                "coordinates": [
                    [
                        77.129522,
                        28.550501
                    ],
                    [
                        77.129397,
                        28.550649
                    ],
                    [
                        77.129298,
                        28.550573
                    ],
                    [
                        77.128178,
                        28.549696
                    ],
                    [
                        77.128016,
                        28.549564
                    ],
                    [
                        77.126767,
                        28.548544
                    ],
                    [
                        77.126528,
                        28.548372
                    ],
                    [
                        77.125736,
                        28.547743
                    ],
                    [
                        77.125307,
                        28.548047
                    ],
                    [
                        77.126431,
                        28.548908
                    ],
                    [
                        77.130459,
                        28.552078
                    ],
                    [
                        77.130867,
                        28.552577
                    ],
                    [
                        77.131134,
                        28.552998
                    ],
                    [
                        77.131348,
                        28.553459
                    ],
                    [
                        77.131805,
                        28.554594
                    ],
                    [
                        77.132004,
                        28.555229
                    ],
                    [
                        77.132558,
                        28.556779
                    ],
                    [
                        77.133244,
                        28.559077
                    ],
                    [
                        77.1334,
                        28.559714
                    ],
                    [
                        77.13346,
                        28.56007
                    ],
                    [
                        77.133798,
                        28.56539
                    ],
                    [
                        77.133925,
                        28.5656
                    ],
                    [
                        77.134073,
                        28.567835
                    ],
                    [
                        77.134099,
                        28.568253
                    ],
                    [
                        77.134156,
                        28.569098
                    ],
                    [
                        77.134183,
                        28.569298
                    ],
                    [
                        77.134291,
                        28.569742
                    ],
                    [
                        77.13443,
                        28.570097
                    ],
                    [
                        77.134518,
                        28.570268
                    ],
                    [
                        77.134833,
                        28.570753
                    ],
                    [
                        77.134981,
                        28.570922
                    ],
                    [
                        77.135268,
                        28.571205
                    ],
                    [
                        77.13559,
                        28.571449
                    ],
                    [
                        77.136823,
                        28.57227
                    ],
                    [
                        77.138385,
                        28.573204
                    ],
                    [
                        77.139191,
                        28.57368
                    ],
                    [
                        77.140345,
                        28.57421
                    ],
                    [
                        77.141962,
                        28.57483
                    ],
                    [
                        77.142676,
                        28.575253
                    ],
                    [
                        77.143074,
                        28.575568
                    ],
                    [
                        77.143432,
                        28.575931
                    ],
                    [
                        77.143745,
                        28.576417
                    ],
                    [
                        77.14407,
                        28.577255
                    ],
                    [
                        77.144458,
                        28.578236
                    ],
                    [
                        77.144761,
                        28.579389
                    ],
                    [
                        77.144862,
                        28.579764
                    ],
                    [
                        77.146232,
                        28.584862
                    ],
                    [
                        77.146488,
                        28.585618
                    ],
                    [
                        77.146567,
                        28.585826
                    ],
                    [
                        77.146874,
                        28.586247
                    ],
                    [
                        77.147089,
                        28.586441
                    ],
                    [
                        77.147238,
                        28.586544
                    ],
                    [
                        77.147591,
                        28.58674
                    ],
                    [
                        77.147824,
                        28.586855
                    ],
                    [
                        77.148126,
                        28.58698
                    ],
                    [
                        77.149093,
                        28.587332
                    ],
                    [
                        77.151045,
                        28.588063
                    ],
                    [
                        77.153729,
                        28.589206
                    ],
                    [
                        77.156482,
                        28.590337
                    ],
                    [
                        77.157488,
                        28.590714
                    ],
                    [
                        77.158625,
                        28.591218
                    ],
                    [
                        77.159757,
                        28.59181
                    ],
                    [
                        77.160595,
                        28.592158
                    ],
                    [
                        77.161108,
                        28.592356
                    ],
                    [
                        77.16216,
                        28.592698
                    ],
                    [
                        77.162327,
                        28.592752
                    ],
                    [
                        77.163776,
                        28.593265
                    ],
                    [
                        77.165211,
                        28.593912
                    ],
                    [
                        77.16553,
                        28.594056
                    ],
                    [
                        77.16708,
                        28.594839
                    ],
                    [
                        77.167484,
                        28.595051
                    ],
                    [
                        77.167978,
                        28.595308
                    ],
                    [
                        77.168318,
                        28.595486
                    ],
                    [
                        77.168507,
                        28.595586
                    ],
                    [
                        77.180325,
                        28.601837
                    ],
                    [
                        77.180556,
                        28.601959
                    ],
                    [
                        77.180619,
                        28.601992
                    ],
                    [
                        77.180701,
                        28.60204
                    ],
                    [
                        77.180763,
                        28.602073
                    ],
                    [
                        77.180929,
                        28.60216
                    ],
                    [
                        77.183553,
                        28.603535
                    ],
                    [
                        77.184798,
                        28.604182
                    ],
                    [
                        77.186035,
                        28.605005
                    ],
                    [
                        77.187352,
                        28.606086
                    ],
                    [
                        77.187388,
                        28.60612
                    ],
                    [
                        77.187394,
                        28.606127
                    ],
                    [
                        77.189884,
                        28.608806
                    ],
                    [
                        77.190496,
                        28.609335
                    ],
                    [
                        77.191183,
                        28.609767
                    ],
                    [
                        77.191264,
                        28.60995
                    ],
                    [
                        77.191242,
                        28.610118
                    ],
                    [
                        77.190873,
                        28.610762
                    ],
                    [
                        77.19055,
                        28.61146
                    ],
                    [
                        77.190298,
                        28.612155
                    ],
                    [
                        77.190137,
                        28.612753
                    ],
                    [
                        77.190033,
                        28.613366
                    ],
                    [
                        77.189976,
                        28.613827
                    ],
                    [
                        77.189951,
                        28.614341
                    ],
                    [
                        77.189972,
                        28.614845
                    ],
                    [
                        77.190006,
                        28.615249
                    ],
                    [
                        77.190143,
                        28.616007
                    ],
                    [
                        77.190331,
                        28.616687
                    ],
                    [
                        77.190422,
                        28.616963
                    ],
                    [
                        77.190529,
                        28.617234
                    ],
                    [
                        77.190712,
                        28.617618
                    ],
                    [
                        77.191025,
                        28.618223
                    ],
                    [
                        77.191591,
                        28.619067
                    ],
                    [
                        77.191977,
                        28.619549
                    ],
                    [
                        77.192458,
                        28.620046
                    ],
                    [
                        77.192646,
                        28.620217
                    ],
                    [
                        77.193007,
                        28.620543
                    ],
                    [
                        77.193404,
                        28.620847
                    ],
                    [
                        77.193428,
                        28.620863
                    ],
                    [
                        77.193822,
                        28.621135
                    ],
                    [
                        77.194395,
                        28.621494
                    ],
                    [
                        77.194677,
                        28.621651
                    ],
                    [
                        77.195056,
                        28.621836
                    ],
                    [
                        77.195187,
                        28.621897
                    ],
                    [
                        77.195572,
                        28.622073
                    ],
                    [
                        77.197229,
                        28.622819
                    ],
                    [
                        77.197837,
                        28.623093
                    ],
                    [
                        77.197909,
                        28.623153
                    ],
                    [
                        77.197941,
                        28.623402
                    ],
                    [
                        77.198056,
                        28.624955
                    ],
                    [
                        77.198075,
                        28.625213
                    ],
                    [
                        77.198334,
                        28.625054
                    ],
                    [
                        77.199836,
                        28.624131
                    ],
                    [
                        77.199922,
                        28.624178
                    ],
                    [
                        77.20005,
                        28.624212
                    ],
                    [
                        77.200161,
                        28.62422
                    ],
                    [
                        77.200269,
                        28.6242
                    ],
                    [
                        77.200506,
                        28.624275
                    ],
                    [
                        77.201314,
                        28.624604
                    ],
                    [
                        77.201706,
                        28.624784
                    ],
                    [
                        77.202897,
                        28.625316
                    ],
                    [
                        77.203119,
                        28.625416
                    ],
                    [
                        77.20486,
                        28.626198
                    ],
                    [
                        77.205722,
                        28.626589
                    ],
                    [
                        77.205824,
                        28.626663
                    ],
                    [
                        77.205941,
                        28.626851
                    ],
                    [
                        77.205929,
                        28.626978
                    ],
                    [
                        77.205946,
                        28.627104
                    ],
                    [
                        77.205992,
                        28.627225
                    ],
                    [
                        77.206105,
                        28.62738
                    ],
                    [
                        77.206266,
                        28.627499
                    ],
                    [
                        77.206459,
                        28.627572
                    ],
                    [
                        77.206617,
                        28.627595
                    ],
                    [
                        77.206772,
                        28.627582
                    ],
                    [
                        77.20697,
                        28.627521
                    ],
                    [
                        77.20706,
                        28.627473
                    ],
                    [
                        77.207209,
                        28.627343
                    ],
                    [
                        77.207383,
                        28.627365
                    ],
                    [
                        77.207663,
                        28.627448
                    ],
                    [
                        77.208662,
                        28.627901
                    ],
                    [
                        77.208748,
                        28.62794
                    ],
                    [
                        77.208934,
                        28.628024
                    ],
                    [
                        77.20949,
                        28.628278
                    ],
                    [
                        77.210234,
                        28.628616
                    ],
                    [
                        77.210283,
                        28.628639
                    ],
                    [
                        77.210428,
                        28.628705
                    ],
                    [
                        77.210561,
                        28.628765
                    ],
                    [
                        77.211808,
                        28.62931
                    ],
                    [
                        77.214592,
                        28.630542
                    ],
                    [
                        77.21593,
                        28.63118
                    ],
                    [
                        77.216125,
                        28.631273
                    ],
                    [
                        77.216475,
                        28.631448
                    ],
                    [
                        77.216548,
                        28.6315
                    ],
                    [
                        77.2166,
                        28.631559
                    ],
                    [
                        77.21666,
                        28.631673
                    ],
                    [
                        77.216582,
                        28.631961
                    ],
                    [
                        77.216472,
                        28.632501
                    ],
                    [
                        77.216416,
                        28.632823
                    ],
                    [
                        77.216438,
                        28.633047
                    ],
                    [
                        77.216514,
                        28.633289
                    ],
                    [
                        77.217041,
                        28.634303
                    ],
                    [
                        77.217131,
                        28.634429
                    ],
                    [
                        77.218006,
                        28.635257
                    ],
                    [
                        77.218061,
                        28.635387
                    ],
                    [
                        77.21814,
                        28.635502
                    ],
                    [
                        77.218224,
                        28.635627
                    ],
                    [
                        77.218268,
                        28.635747
                    ],
                    [
                        77.21829,
                        28.635868
                    ],
                    [
                        77.218324,
                        28.636525
                    ],
                    [
                        77.218387,
                        28.637138
                    ],
                    [
                        77.218406,
                        28.637646
                    ],
                    [
                        77.218564,
                        28.639903
                    ],
                    [
                        77.218599,
                        28.640893
                    ],
                    [
                        77.218519,
                        28.641412
                    ],
                    [
                        77.218455,
                        28.641875
                    ],
                    [
                        77.218432,
                        28.64201
                    ],
                    [
                        77.218412,
                        28.642081
                    ],
                    [
                        77.218484,
                        28.6421
                    ],
                    [
                        77.218692,
                        28.642157
                    ],
                    [
                        77.218977,
                        28.642242
                    ],
                    [
                        77.21902,
                        28.642266
                    ],
                    [
                        77.219045,
                        28.642302
                    ],
                    [
                        77.219049,
                        28.64242
                    ],
                    [
                        77.219006,
                        28.642634
                    ]
                ],
                "type": "LineString"
            }
        }
    ],
    "metadata": {
        "attribution": "openrouteservice.org | OpenStreetMap contributors",
        "service": "routing",
        "timestamp": 1756633802690,
        "query": {
            "coordinates": [
                [
                    77.12949,
                    28.55048
                ],
                [
                    77.219048,
                    28.64264
                ]
            ],
            "profile": "driving-car",
            "profileName": "driving-car",
            "format": "geojson"
        },
        "engine": {
            "version": "9.3.0",
            "build_date": "2025-06-06T15:39:25Z",
            "graph_date": "2025-08-24T11:22:16Z",
            "osm_date": "2025-08-18T00:00:00Z"
        }
    }
}