{
    "type": "FeatureCollection",
    "bbox": [
        74.576347,
        31.603875,
        74.867131,
        31.634432
    ],
    "features": [
        {
            "bbox": [
                74.576347,
                31.603875,
                74.867131,
                31.634432
            ],
            "type": "Feature",
            "properties": {
                "segments": [
                    {
                        "distance": 28745.9,
                        "duration": 1541.0,
                        "steps": [
                            {
                                "distance": 85.3,
                                "duration": 15.3,
                                "type": 11,
                                "instruction": "Head west",
                                "name": "-",
                                "way_points": [
                                    0,
                                    3
                                ]
                            },
                            {
                                "distance": 138.3,
                                "duration": 24.9,
                                "type": 1,
                                "instruction": "Turn right",
                                "name": "-",
                                "way_points": [
                                    3,
                                    6
                                ]
                            },
                            {
                                "distance": 8609.8,
                                "duration": 478.6,
                                "type": 0,
                                "instruction": "Turn left onto GT Road, Sher Shah Suri Marg",
                                "name": "GT Road, Sher Shah Suri Marg",
                                "way_points": [
                                    6,
                                    73
                                ]
                            },
                            {
                                "distance": 18248.3,
                                "duration": 772.8,
                                "type": 0,
                                "instruction": "Turn left onto GT Road, Sher Shah Suri Marg, NH3",
                                "name": "GT Road, Sher Shah Suri Marg, NH3",
                                "way_points": [
                                    73,
                                    192
                                ]
                            },
                            {
                                "distance": 73.6,
                                "duration": 17.7,
                                "type": 0,
                                "instruction": "Turn left",
                                "name": "-",
                                "way_points": [
                                    192,
                                    193
                                ]
                            },
                            {
                                "distance": 292.6,
                                "duration": 52.7,
                                "type": 3,
                                "instruction": "Turn sharp right",
                                "name": "-",
                                "way_points": [
                                    193,
                                    200
                                ]
                            },
                            {
                                "distance": 430.8,
                                "duration": 77.5,
                                "type": 1,
                                "instruction": "Turn right",
                                "name": "-",
                                "way_points": [
                                    200,
                                    202
                                ]
                            },
                            {
                                "distance": 139.6,
                                "duration": 25.1,
                                "type": 1,
                                "instruction": "Turn right",
                                "name": "-",
                                "way_points": [
                                    202,
                                    204
                                ]
                            },
                            {
                                "distance": 64.1,
                                "duration": 2.7,
                                "type": 0,
                                "instruction": "Turn left onto Grand Trunk Road \u06af\u0631\u06cc\u0646\u0688 \u0679\u0631\u0646\u06a9 \u0631\u0648\u0688, N-5",
                                "name": "Grand Trunk Road \u06af\u0631\u06cc\u0646\u0688 \u0679\u0631\u0646\u06a9 \u0631\u0648\u0688, N-5",
                                "way_points": [
                                    204,
                                    213
                                ]
                            },
                            {
                                "distance": 333.1,
                                "duration": 14.1,
                                "type": 12,
                                "instruction": "Keep left onto Grand Trunk Road \u06af\u0631\u06cc\u0646\u0688 \u0679\u0631\u0646\u06a9 \u0631\u0648\u0688, N-5",
                                "name": "Grand Trunk Road \u06af\u0631\u06cc\u0646\u0688 \u0679\u0631\u0646\u06a9 \u0631\u0648\u0688, N-5",
                                "way_points": [
                                    213,
                                    216
                                ]
                            },
                            {
                                "distance": 80.0,
                                "duration": 14.4,
                                "type": 0,
                                "instruction": "Turn left",
                                "name": "-",
                                "way_points": [
                                    216,
                                    218
                                ]
                            },
                            {
                                "distance": 250.4,
                                "duration": 45.1,
                                "type": 12,
                                "instruction": "Keep left",
                                "name": "-",
                                "way_points": [
                                    218,
                                    224
                                ]
                            },
                            {
                                "distance": 0.0,
                                "duration": 0.0,
                                "type": 10,
                                "instruction": "Arrive at your destination, on the left",
                                "name": "-",
                                "way_points": [
                                    224,
                                    224
                                ]
                            }
                        ]
                    }
                ],
                "way_points": [
                    0,
                    224
                ],
                "summary": {
                    "distance": 28745.9,
                    "duration": 1541.0
                }
            },
            "geometry": {
                "coordinates": [
                    [
                        74.867131,
                        31.633535
                    ],
                    [
                        74.866604,
                        31.633466
                    ],
                    [
                        74.866484,
                        31.633472
                    ],
                    [
                        74.866253,
                        31.633545
                    ],
                    [
                        74.866229,
                        31.633606
                    ],
                    [
                        74.86619,
                        31.633653
                    ],
                    [
                        74.865241,
                        31.634432
                    ],
                    [
                        74.864799,
                        31.634375
                    ],
                    [
                        74.864714,
                        31.634369
                    ],
                    [
                        74.86252,
                        31.634226
                    ],
                    [
                        74.858746,
                        31.633977
                    ],
                    [
                        74.85851,
                        31.633957
                    ],
                    [
                        74.858366,
                        31.633949
                    ],
                    [
                        74.858148,
                        31.633936
                    ],
                    [
                        74.855336,
                        31.633759
                    ],
                    [
                        74.851181,
                        31.633503
                    ],
                    [
                        74.848113,
                        31.633197
                    ],
                    [
                        74.845604,
                        31.632936
                    ],
                    [
                        74.842195,
                        31.632579
                    ],
                    [
                        74.838715,
                        31.632221
                    ],
                    [
                        74.836829,
                        31.63203
                    ],
                    [
                        74.836057,
                        31.631971
                    ],
                    [
                        74.835099,
                        31.631852
                    ],
                    [
                        74.834459,
                        31.631786
                    ],
                    [
                        74.833827,
                        31.63172
                    ],
                    [
                        74.832477,
                        31.63158
                    ],
                    [
                        74.83187,
                        31.631517
                    ],
                    [
                        74.829407,
                        31.631267
                    ],
                    [
                        74.829268,
                        31.631252
                    ],
                    [
                        74.826371,
                        31.630951
                    ],
                    [
                        74.826246,
                        31.630938
                    ],
                    [
                        74.826035,
                        31.630917
                    ],
                    [
                        74.824141,
                        31.630722
                    ],
                    [
                        74.822693,
                        31.630581
                    ],
                    [
                        74.821862,
                        31.630489
                    ],
                    [
                        74.82099,
                        31.630402
                    ],
                    [
                        74.815758,
                        31.629863
                    ],
                    [
                        74.814769,
                        31.629759
                    ],
                    [
                        74.813124,
                        31.629585
                    ],
                    [
                        74.812895,
                        31.629566
                    ],
                    [
                        74.809689,
                        31.629213
                    ],
                    [
                        74.808317,
                        31.629073
                    ],
                    [
                        74.806635,
                        31.628896
                    ],
                    [
                        74.805121,
                        31.628726
                    ],
                    [
                        74.804036,
                        31.628619
                    ],
                    [
                        74.801516,
                        31.628369
                    ],
                    [
                        74.799701,
                        31.628191
                    ],
                    [
                        74.799515,
                        31.628172
                    ],
                    [
                        74.79938,
                        31.628159
                    ],
                    [
                        74.799214,
                        31.628142
                    ],
                    [
                        74.798539,
                        31.628073
                    ],
                    [
                        74.798008,
                        31.628018
                    ],
                    [
                        74.797272,
                        31.627943
                    ],
                    [
                        74.796469,
                        31.62786
                    ],
                    [
                        74.79422,
                        31.627629
                    ],
                    [
                        74.792177,
                        31.627419
                    ],
                    [
                        74.789982,
                        31.627194
                    ],
                    [
                        74.786514,
                        31.626831
                    ],
                    [
                        74.785002,
                        31.626673
                    ],
                    [
                        74.784206,
                        31.62659
                    ],
                    [
                        74.783331,
                        31.626499
                    ],
                    [
                        74.781639,
                        31.626322
                    ],
                    [
                        74.779851,
                        31.626135
                    ],
                    [
                        74.778807,
                        31.626026
                    ],
                    [
                        74.777708,
                        31.625901
                    ],
                    [
                        74.777533,
                        31.625868
                    ],
                    [
                        74.777352,
                        31.625804
                    ],
                    [
                        74.777093,
                        31.625691
                    ],
                    [
                        74.776803,
                        31.62563
                    ],
                    [
                        74.776189,
                        31.62556
                    ],
                    [
                        74.775751,
                        31.625571
                    ],
                    [
                        74.77542,
                        31.625624
                    ],
                    [
                        74.775089,
                        31.625736
                    ],
                    [
                        74.775015,
                        31.625799
                    ],
                    [
                        74.77476,
                        31.625674
                    ],
                    [
                        74.77451,
                        31.6256
                    ],
                    [
                        74.774293,
                        31.625562
                    ],
                    [
                        74.773356,
                        31.625493
                    ],
                    [
                        74.772226,
                        31.62538
                    ],
                    [
                        74.77015,
                        31.625097
                    ],
                    [
                        74.770022,
                        31.625083
                    ],
                    [
                        74.768932,
                        31.624952
                    ],
                    [
                        74.767344,
                        31.624778
                    ],
                    [
                        74.765729,
                        31.624602
                    ],
                    [
                        74.764991,
                        31.624522
                    ],
                    [
                        74.762244,
                        31.624234
                    ],
                    [
                        74.759793,
                        31.623965
                    ],
                    [
                        74.757938,
                        31.623762
                    ],
                    [
                        74.756554,
                        31.623634
                    ],
                    [
                        74.754956,
                        31.623471
                    ],
                    [
                        74.754161,
                        31.623374
                    ],
                    [
                        74.752829,
                        31.62324
                    ],
                    [
                        74.751519,
                        31.623107
                    ],
                    [
                        74.750183,
                        31.62298
                    ],
                    [
                        74.74851,
                        31.622821
                    ],
                    [
                        74.747802,
                        31.622743
                    ],
                    [
                        74.747751,
                        31.622739
                    ],
                    [
                        74.746474,
                        31.622597
                    ],
                    [
                        74.745759,
                        31.622528
                    ],
                    [
                        74.741343,
                        31.622103
                    ],
                    [
                        74.736578,
                        31.621625
                    ],
                    [
                        74.734798,
                        31.621466
                    ],
                    [
                        74.732278,
                        31.621212
                    ],
                    [
                        74.728843,
                        31.620864
                    ],
                    [
                        74.724227,
                        31.620351
                    ],
                    [
                        74.723157,
                        31.620258
                    ],
                    [
                        74.721417,
                        31.620052
                    ],
                    [
                        74.720716,
                        31.619988
                    ],
                    [
                        74.720218,
                        31.619963
                    ],
                    [
                        74.719695,
                        31.619939
                    ],
                    [
                        74.719061,
                        31.619883
                    ],
                    [
                        74.716905,
                        31.619629
                    ],
                    [
                        74.714444,
                        31.619373
                    ],
                    [
                        74.713806,
                        31.619311
                    ],
                    [
                        74.711047,
                        31.619045
                    ],
                    [
                        74.710589,
                        31.618991
                    ],
                    [
                        74.709852,
                        31.618905
                    ],
                    [
                        74.709528,
                        31.618867
                    ],
                    [
                        74.708667,
                        31.618778
                    ],
                    [
                        74.708054,
                        31.618729
                    ],
                    [
                        74.70762,
                        31.618695
                    ],
                    [
                        74.706983,
                        31.618632
                    ],
                    [
                        74.706795,
                        31.618613
                    ],
                    [
                        74.705886,
                        31.618517
                    ],
                    [
                        74.704617,
                        31.618384
                    ],
                    [
                        74.698016,
                        31.617677
                    ],
                    [
                        74.696541,
                        31.617554
                    ],
                    [
                        74.695929,
                        31.617481
                    ],
                    [
                        74.694114,
                        31.617273
                    ],
                    [
                        74.692408,
                        31.61706
                    ],
                    [
                        74.69161,
                        31.616983
                    ],
                    [
                        74.690731,
                        31.616898
                    ],
                    [
                        74.690355,
                        31.616885
                    ],
                    [
                        74.688299,
                        31.616676
                    ],
                    [
                        74.687744,
                        31.616623
                    ],
                    [
                        74.68526,
                        31.616374
                    ],
                    [
                        74.684884,
                        31.616348
                    ],
                    [
                        74.684338,
                        31.616296
                    ],
                    [
                        74.684151,
                        31.616277
                    ],
                    [
                        74.678927,
                        31.615733
                    ],
                    [
                        74.675513,
                        31.615365
                    ],
                    [
                        74.671177,
                        31.614913
                    ],
                    [
                        74.670682,
                        31.614854
                    ],
                    [
                        74.669928,
                        31.614765
                    ],
                    [
                        74.669001,
                        31.614673
                    ],
                    [
                        74.668113,
                        31.614585
                    ],
                    [
                        74.668034,
                        31.614577
                    ],
                    [
                        74.666918,
                        31.614454
                    ],
                    [
                        74.665992,
                        31.614362
                    ],
                    [
                        74.661314,
                        31.613865
                    ],
                    [
                        74.658372,
                        31.613572
                    ],
                    [
                        74.655441,
                        31.613236
                    ],
                    [
                        74.650899,
                        31.612772
                    ],
                    [
                        74.645619,
                        31.612216
                    ],
                    [
                        74.642758,
                        31.611911
                    ],
                    [
                        74.641506,
                        31.611778
                    ],
                    [
                        74.639625,
                        31.611581
                    ],
                    [
                        74.637925,
                        31.61143
                    ],
                    [
                        74.63765,
                        31.611399
                    ],
                    [
                        74.636377,
                        31.611266
                    ],
                    [
                        74.634941,
                        31.611115
                    ],
                    [
                        74.633354,
                        31.610949
                    ],
                    [
                        74.632461,
                        31.610856
                    ],
                    [
                        74.630122,
                        31.610567
                    ],
                    [
                        74.62752,
                        31.610272
                    ],
                    [
                        74.626342,
                        31.610163
                    ],
                    [
                        74.624922,
                        31.610031
                    ],
                    [
                        74.623597,
                        31.609908
                    ],
                    [
                        74.622613,
                        31.609806
                    ],
                    [
                        74.618255,
                        31.609353
                    ],
                    [
                        74.616728,
                        31.609178
                    ],
                    [
                        74.616525,
                        31.609153
                    ],
                    [
                        74.614964,
                        31.608963
                    ],
                    [
                        74.608234,
                        31.608247
                    ],
                    [
                        74.607983,
                        31.608221
                    ],
                    [
                        74.606697,
                        31.608095
                    ],
                    [
                        74.604539,
                        31.607852
                    ],
                    [
                        74.602824,
                        31.607709
                    ],
                    [
                        74.602419,
                        31.607675
                    ],
                    [
                        74.601918,
                        31.607638
                    ],
                    [
                        74.598469,
                        31.607294
                    ],
                    [
                        74.595148,
                        31.606943
                    ],
                    [
                        74.594606,
                        31.606882
                    ],
                    [
                        74.594275,
                        31.606845
                    ],
                    [
                        74.593819,
                        31.606794
                    ],
                    [
                        74.593681,
                        31.606778
                    ],
                    [
                        74.592285,
                        31.606622
                    ],
                    [
                        74.588451,
                        31.606206
                    ],
                    [
                        74.587589,
                        31.606113
                    ],
                    [
                        74.5853,
                        31.605818
                    ],
                    [
                        74.585049,
                        31.605786
                    ],
                    [
                        74.584809,
                        31.605756
                    ],
                    [
                        74.583803,
                        31.605663
                    ],
                    [
                        74.583879,
                        31.605004
                    ],
                    [
                        74.583823,
                        31.605033
                    ],
                    [
                        74.583284,
                        31.605359
                    ],
                    [
                        74.582026,
                        31.605219
                    ],
                    [
                        74.581915,
                        31.605193
                    ],
                    [
                        74.581847,
                        31.605123
                    ],
                    [
                        74.581862,
                        31.604975
                    ],
                    [
                        74.581922,
                        31.604382
                    ],
                    [
                        74.580049,
                        31.604135
                    ],
                    [
                        74.577413,
                        31.603875
                    ],
                    [
                        74.576883,
                        31.604612
                    ],
                    [
                        74.576583,
                        31.604907
                    ],
                    [
                        74.576502,
                        31.604871
                    ],
                    [
                        74.576396,
                        31.6049
                    ],
                    [
                        74.576366,
                        31.604927
                    ],
                    [
                        74.576347,
                        31.604968
                    ],
                    [
                        74.576349,
                        31.605018
                    ],
                    [
                        74.576374,
                        31.605062
                    ],
                    [
                        74.576421,
                        31.605097
                    ],
                    [
                        74.576524,
                        31.605104
                    ],
                    [
                        74.5766,
                        31.605052
                    ],
                    [
                        74.577404,
                        31.605137
                    ],
                    [
                        74.579755,
                        31.605338
                    ],
                    [
                        74.580097,
                        31.60537
                    ],
                    [
                        74.580003,
                        31.605971
                    ],
                    [
                        74.579949,
                        31.606075
                    ],
                    [
                        74.57988,
                        31.606113
                    ],
                    [
                        74.579794,
                        31.606117
                    ],
                    [
                        74.577713,
                        31.6059
                    ],
                    [
                        74.577536,
                        31.605906
                    ],
                    [
                        74.577423,
                        31.605946
                    ],
                    [
                        74.577372,
                        31.605997
                    ]
                ],
                "type": "LineString"
            }
        }
    ],
    "metadata": {
        "attribution": "openrouteservice.org | OpenStreetMap contributors",
        "service": "routing",
        "timestamp": 1756634226624,
        "query": {
            "coordinates": [
                [
                    74.86714,
                    31.633485
                ],
                [
                    74.576918,
                    31.605736
                ]
            ],
            "profile": "driving-car",
            "profileName": "driving-car",
            "format": "geojson"
        },
        "engine": {
            "version": "9.3.0",
            "build_date": "2025-06-06T15:39:25Z",
            "graph_date": "2025-08-24T11:22:16Z",
            "osm_date": "2025-08-18T00:00:00Z"
        }
    }
}