{
    "type": "FeatureCollection",
    "bbox": [
        -156.679767,
        20.763781,
        -156.45053,
        20.877477
    ],
    "features": [
        {
            "bbox": [
                -156.679767,
                20.763781,
                -156.45053,
                20.877477
            ],
            "type": "Feature",
            "properties": {
                "segments": [
                    {
                        "distance": 34435.2,
                        "duration": 2533.9,
                        "steps": [
                            {
                                "distance": 2806.0,
                                "duration": 285.0,
                                "type": 11,
                                "instruction": "Head north on Piilani Highway, HI 31",
                                "name": "Piilani Highway, HI 31",
                                "way_points": [
                                    0,
                                    32
                                ]
                            },
                            {
                                "distance": 5820.3,
                                "duration": 448.3,
                                "type": 0,
                                "instruction": "Turn left onto Piilani Highway",
                                "name": "Piilani Highway",
                                "way_points": [
                                    32,
                                    95
                                ]
                            },
                            {
                                "distance": 20368.0,
                                "duration": 1311.9,
                                "type": 0,
                                "instruction": "Turn left onto Honoapiilani Highway, HI-30",
                                "name": "Honoapiilani Highway, HI-30",
                                "way_points": [
                                    95,
                                    365
                                ]
                            },
                            {
                                "distance": 428.6,
                                "duration": 51.6,
                                "type": 0,
                                "instruction": "Turn left onto Kai Hele Ku Street",
                                "name": "Kai Hele Ku Street",
                                "way_points": [
                                    365,
                                    382
                                ]
                            },
                            {
                                "distance": 4634.1,
                                "duration": 406.9,
                                "type": 1,
                                "instruction": "Turn right onto Honoapiilani Highway, HI-30",
                                "name": "Honoapiilani Highway, HI-30",
                                "way_points": [
                                    382,
                                    423
                                ]
                            },
                            {
                                "distance": 378.3,
                                "duration": 30.3,
                                "type": 0,
                                "instruction": "Turn left onto Lahainaluna Road",
                                "name": "Lahainaluna Road",
                                "way_points": [
                                    423,
                                    433
                                ]
                            },
                            {
                                "distance": 0.0,
                                "duration": 0.0,
                                "type": 10,
                                "instruction": "Arrive at Lahainaluna Road, on the left",
                                "name": "-",
                                "way_points": [
                                    433,
                                    433
                                ]
                            }
                        ]
                    }
                ],
                "way_points": [
                    0,
                    433
                ],
                "summary": {
                    "distance": 34435.2,
                    "duration": 2533.9
                }
            },
            "geometry": {
                "coordinates": [
                    [
                        -156.45053,
                        20.763781
                    ],
                    [
                        -156.450664,
                        20.764338
                    ],
                    [
                        -156.450768,
                        20.764745
                    ],
                    [
                        -156.45113,
                        20.766166
                    ],
                    [
                        -156.451483,
                        20.767552
                    ],
                    [
                        -156.451654,
                        20.76824
                    ],
                    [
                        -156.451808,
                        20.76886
                    ],
                    [
                        -156.452356,
                        20.771033
                    ],
                    [
                        -156.452509,
                        20.771636
                    ],
                    [
                        -156.452567,
                        20.771878
                    ],
                    [
                        -156.45311,
                        20.774155
                    ],
                    [
                        -156.453418,
                        20.775422
                    ],
                    [
                        -156.453469,
                        20.775677
                    ],
                    [
                        -156.453695,
                        20.776385
                    ],
                    [
                        -156.453862,
                        20.776769
                    ],
                    [
                        -156.454406,
                        20.777872
                    ],
                    [
                        -156.45474,
                        20.778545
                    ],
                    [
                        -156.454819,
                        20.778705
                    ],
                    [
                        -156.454981,
                        20.779005
                    ],
                    [
                        -156.455082,
                        20.779192
                    ],
                    [
                        -156.455281,
                        20.779499
                    ],
                    [
                        -156.455486,
                        20.779815
                    ],
                    [
                        -156.45596,
                        20.780394
                    ],
                    [
                        -156.456431,
                        20.780876
                    ],
                    [
                        -156.456927,
                        20.781348
                    ],
                    [
                        -156.457527,
                        20.781793
                    ],
                    [
                        -156.458176,
                        20.782336
                    ],
                    [
                        -156.458661,
                        20.782906
                    ],
                    [
                        -156.459801,
                        20.784059
                    ],
                    [
                        -156.460193,
                        20.78441
                    ],
                    [
                        -156.461219,
                        20.785274
                    ],
                    [
                        -156.461746,
                        20.785755
                    ],
                    [
                        -156.46181,
                        20.785841
                    ],
                    [
                        -156.462004,
                        20.785784
                    ],
                    [
                        -156.462204,
                        20.785627
                    ],
                    [
                        -156.462347,
                        20.785522
                    ],
                    [
                        -156.462674,
                        20.785358
                    ],
                    [
                        -156.462861,
                        20.785308
                    ],
                    [
                        -156.463947,
                        20.785087
                    ],
                    [
                        -156.46405,
                        20.785073
                    ],
                    [
                        -156.464621,
                        20.785041
                    ],
                    [
                        -156.465014,
                        20.785066
                    ],
                    [
                        -156.465401,
                        20.78513
                    ],
                    [
                        -156.465779,
                        20.785231
                    ],
                    [
                        -156.465884,
                        20.78523
                    ],
                    [
                        -156.466062,
                        20.785299
                    ],
                    [
                        -156.466179,
                        20.785352
                    ],
                    [
                        -156.466472,
                        20.785495
                    ],
                    [
                        -156.466676,
                        20.785613
                    ],
                    [
                        -156.467274,
                        20.785975
                    ],
                    [
                        -156.467818,
                        20.786305
                    ],
                    [
                        -156.46811,
                        20.786482
                    ],
                    [
                        -156.468172,
                        20.78652
                    ],
                    [
                        -156.468742,
                        20.786864
                    ],
                    [
                        -156.46929,
                        20.787243
                    ],
                    [
                        -156.469979,
                        20.787689
                    ],
                    [
                        -156.470803,
                        20.788199
                    ],
                    [
                        -156.471809,
                        20.788951
                    ],
                    [
                        -156.472288,
                        20.789269
                    ],
                    [
                        -156.47281,
                        20.789541
                    ],
                    [
                        -156.473366,
                        20.789797
                    ],
                    [
                        -156.475131,
                        20.790527
                    ],
                    [
                        -156.476586,
                        20.791167
                    ],
                    [
                        -156.479617,
                        20.792576
                    ],
                    [
                        -156.481897,
                        20.793695
                    ],
                    [
                        -156.484232,
                        20.794908
                    ],
                    [
                        -156.4847,
                        20.795226
                    ],
                    [
                        -156.484843,
                        20.795359
                    ],
                    [
                        -156.485356,
                        20.795843
                    ],
                    [
                        -156.485762,
                        20.796249
                    ],
                    [
                        -156.486229,
                        20.796701
                    ],
                    [
                        -156.486412,
                        20.796852
                    ],
                    [
                        -156.48667,
                        20.79703
                    ],
                    [
                        -156.486842,
                        20.797139
                    ],
                    [
                        -156.487181,
                        20.797314
                    ],
                    [
                        -156.487518,
                        20.797454
                    ],
                    [
                        -156.487832,
                        20.797562
                    ],
                    [
                        -156.494816,
                        20.79951
                    ],
                    [
                        -156.495066,
                        20.799592
                    ],
                    [
                        -156.49526,
                        20.799671
                    ],
                    [
                        -156.495572,
                        20.799826
                    ],
                    [
                        -156.496051,
                        20.800101
                    ],
                    [
                        -156.496453,
                        20.800396
                    ],
                    [
                        -156.496788,
                        20.800724
                    ],
                    [
                        -156.496926,
                        20.800859
                    ],
                    [
                        -156.497572,
                        20.80158
                    ],
                    [
                        -156.501145,
                        20.805758
                    ],
                    [
                        -156.50563,
                        20.810965
                    ],
                    [
                        -156.505757,
                        20.811087
                    ],
                    [
                        -156.505899,
                        20.811194
                    ],
                    [
                        -156.506052,
                        20.811286
                    ],
                    [
                        -156.506228,
                        20.811368
                    ],
                    [
                        -156.506387,
                        20.811418
                    ],
                    [
                        -156.506619,
                        20.811464
                    ],
                    [
                        -156.507455,
                        20.811579
                    ],
                    [
                        -156.507647,
                        20.811602
                    ],
                    [
                        -156.508656,
                        20.804945
                    ],
                    [
                        -156.509142,
                        20.802319
                    ],
                    [
                        -156.509393,
                        20.801069
                    ],
                    [
                        -156.509434,
                        20.800569
                    ],
                    [
                        -156.50958,
                        20.800015
                    ],
                    [
                        -156.509736,
                        20.79953
                    ],
                    [
                        -156.509848,
                        20.799205
                    ],
                    [
                        -156.509956,
                        20.798878
                    ],
                    [
                        -156.510086,
                        20.798524
                    ],
                    [
                        -156.510487,
                        20.797565
                    ],
                    [
                        -156.510924,
                        20.796619
                    ],
                    [
                        -156.511551,
                        20.795493
                    ],
                    [
                        -156.512115,
                        20.794617
                    ],
                    [
                        -156.512948,
                        20.7933
                    ],
                    [
                        -156.513204,
                        20.792886
                    ],
                    [
                        -156.513849,
                        20.791754
                    ],
                    [
                        -156.513969,
                        20.791548
                    ],
                    [
                        -156.514158,
                        20.791206
                    ],
                    [
                        -156.514357,
                        20.790856
                    ],
                    [
                        -156.514957,
                        20.789622
                    ],
                    [
                        -156.51553,
                        20.788409
                    ],
                    [
                        -156.515999,
                        20.787333
                    ],
                    [
                        -156.516761,
                        20.78556
                    ],
                    [
                        -156.516995,
                        20.785
                    ],
                    [
                        -156.517305,
                        20.784316
                    ],
                    [
                        -156.517471,
                        20.784013
                    ],
                    [
                        -156.517661,
                        20.783704
                    ],
                    [
                        -156.51787,
                        20.783411
                    ],
                    [
                        -156.518053,
                        20.783178
                    ],
                    [
                        -156.518339,
                        20.782862
                    ],
                    [
                        -156.518669,
                        20.782539
                    ],
                    [
                        -156.519122,
                        20.782178
                    ],
                    [
                        -156.519436,
                        20.781955
                    ],
                    [
                        -156.520693,
                        20.781222
                    ],
                    [
                        -156.520912,
                        20.781077
                    ],
                    [
                        -156.521421,
                        20.780666
                    ],
                    [
                        -156.52162,
                        20.780465
                    ],
                    [
                        -156.521891,
                        20.780103
                    ],
                    [
                        -156.522525,
                        20.779231
                    ],
                    [
                        -156.522671,
                        20.779091
                    ],
                    [
                        -156.522832,
                        20.778967
                    ],
                    [
                        -156.523008,
                        20.778861
                    ],
                    [
                        -156.523195,
                        20.778774
                    ],
                    [
                        -156.523392,
                        20.778707
                    ],
                    [
                        -156.523595,
                        20.778662
                    ],
                    [
                        -156.523803,
                        20.778639
                    ],
                    [
                        -156.524012,
                        20.778637
                    ],
                    [
                        -156.52422,
                        20.778658
                    ],
                    [
                        -156.524578,
                        20.77872
                    ],
                    [
                        -156.52475,
                        20.778737
                    ],
                    [
                        -156.524922,
                        20.778736
                    ],
                    [
                        -156.525093,
                        20.778717
                    ],
                    [
                        -156.525261,
                        20.77868
                    ],
                    [
                        -156.525423,
                        20.778626
                    ],
                    [
                        -156.525578,
                        20.778556
                    ],
                    [
                        -156.525724,
                        20.778469
                    ],
                    [
                        -156.525858,
                        20.778368
                    ],
                    [
                        -156.526277,
                        20.777968
                    ],
                    [
                        -156.526513,
                        20.777786
                    ],
                    [
                        -156.526771,
                        20.77763
                    ],
                    [
                        -156.527047,
                        20.777504
                    ],
                    [
                        -156.527336,
                        20.77741
                    ],
                    [
                        -156.527636,
                        20.777348
                    ],
                    [
                        -156.528433,
                        20.777287
                    ],
                    [
                        -156.528783,
                        20.777202
                    ],
                    [
                        -156.528949,
                        20.777135
                    ],
                    [
                        -156.529108,
                        20.777053
                    ],
                    [
                        -156.529284,
                        20.77692
                    ],
                    [
                        -156.529936,
                        20.776377
                    ],
                    [
                        -156.530081,
                        20.776278
                    ],
                    [
                        -156.530237,
                        20.776196
                    ],
                    [
                        -156.530401,
                        20.776131
                    ],
                    [
                        -156.530573,
                        20.776083
                    ],
                    [
                        -156.530749,
                        20.776054
                    ],
                    [
                        -156.530928,
                        20.776044
                    ],
                    [
                        -156.531106,
                        20.776052
                    ],
                    [
                        -156.532379,
                        20.776313
                    ],
                    [
                        -156.532622,
                        20.776335
                    ],
                    [
                        -156.532867,
                        20.776335
                    ],
                    [
                        -156.53311,
                        20.776313
                    ],
                    [
                        -156.534903,
                        20.775989
                    ],
                    [
                        -156.535302,
                        20.775874
                    ],
                    [
                        -156.535815,
                        20.775683
                    ],
                    [
                        -156.536098,
                        20.775587
                    ],
                    [
                        -156.536368,
                        20.775516
                    ],
                    [
                        -156.536692,
                        20.775484
                    ],
                    [
                        -156.536896,
                        20.775497
                    ],
                    [
                        -156.537095,
                        20.775533
                    ],
                    [
                        -156.537283,
                        20.775593
                    ],
                    [
                        -156.537468,
                        20.775667
                    ],
                    [
                        -156.537643,
                        20.77576
                    ],
                    [
                        -156.538654,
                        20.776513
                    ],
                    [
                        -156.539122,
                        20.776832
                    ],
                    [
                        -156.539366,
                        20.777028
                    ],
                    [
                        -156.539587,
                        20.777247
                    ],
                    [
                        -156.540524,
                        20.778299
                    ],
                    [
                        -156.541347,
                        20.779304
                    ],
                    [
                        -156.541546,
                        20.779458
                    ],
                    [
                        -156.541658,
                        20.779517
                    ],
                    [
                        -156.542418,
                        20.779825
                    ],
                    [
                        -156.542603,
                        20.779923
                    ],
                    [
                        -156.542774,
                        20.780041
                    ],
                    [
                        -156.542929,
                        20.780177
                    ],
                    [
                        -156.543066,
                        20.780329
                    ],
                    [
                        -156.543396,
                        20.780805
                    ],
                    [
                        -156.543569,
                        20.780963
                    ],
                    [
                        -156.543775,
                        20.78108
                    ],
                    [
                        -156.544003,
                        20.78115
                    ],
                    [
                        -156.544243,
                        20.781171
                    ],
                    [
                        -156.544971,
                        20.78109
                    ],
                    [
                        -156.545138,
                        20.781093
                    ],
                    [
                        -156.545303,
                        20.781116
                    ],
                    [
                        -156.545463,
                        20.781156
                    ],
                    [
                        -156.545617,
                        20.781215
                    ],
                    [
                        -156.545763,
                        20.781291
                    ],
                    [
                        -156.545897,
                        20.781383
                    ],
                    [
                        -156.546018,
                        20.781489
                    ],
                    [
                        -156.546125,
                        20.781609
                    ],
                    [
                        -156.54664,
                        20.782325
                    ],
                    [
                        -156.546733,
                        20.78242
                    ],
                    [
                        -156.546905,
                        20.78253
                    ],
                    [
                        -156.547086,
                        20.782601
                    ],
                    [
                        -156.547307,
                        20.782647
                    ],
                    [
                        -156.547713,
                        20.782697
                    ],
                    [
                        -156.547969,
                        20.78277
                    ],
                    [
                        -156.548185,
                        20.782864
                    ],
                    [
                        -156.548418,
                        20.783024
                    ],
                    [
                        -156.548565,
                        20.78318
                    ],
                    [
                        -156.548685,
                        20.783428
                    ],
                    [
                        -156.54885,
                        20.784011
                    ],
                    [
                        -156.548891,
                        20.784107
                    ],
                    [
                        -156.549044,
                        20.784324
                    ],
                    [
                        -156.549246,
                        20.784499
                    ],
                    [
                        -156.549564,
                        20.784664
                    ],
                    [
                        -156.549855,
                        20.784764
                    ],
                    [
                        -156.550534,
                        20.784919
                    ],
                    [
                        -156.551333,
                        20.785146
                    ],
                    [
                        -156.551787,
                        20.785301
                    ],
                    [
                        -156.553493,
                        20.785837
                    ],
                    [
                        -156.554353,
                        20.786145
                    ],
                    [
                        -156.554552,
                        20.786268
                    ],
                    [
                        -156.554639,
                        20.786343
                    ],
                    [
                        -156.554711,
                        20.786436
                    ],
                    [
                        -156.55482,
                        20.78662
                    ],
                    [
                        -156.55507,
                        20.787212
                    ],
                    [
                        -156.555214,
                        20.787431
                    ],
                    [
                        -156.555433,
                        20.787623
                    ],
                    [
                        -156.555548,
                        20.787697
                    ],
                    [
                        -156.556357,
                        20.788122
                    ],
                    [
                        -156.557128,
                        20.788551
                    ],
                    [
                        -156.557536,
                        20.78876
                    ],
                    [
                        -156.557928,
                        20.788918
                    ],
                    [
                        -156.558708,
                        20.789112
                    ],
                    [
                        -156.559505,
                        20.789261
                    ],
                    [
                        -156.55974,
                        20.789328
                    ],
                    [
                        -156.559923,
                        20.789413
                    ],
                    [
                        -156.560215,
                        20.789619
                    ],
                    [
                        -156.560718,
                        20.79015
                    ],
                    [
                        -156.560903,
                        20.790289
                    ],
                    [
                        -156.561161,
                        20.790406
                    ],
                    [
                        -156.561404,
                        20.79047
                    ],
                    [
                        -156.562369,
                        20.790622
                    ],
                    [
                        -156.562628,
                        20.790709
                    ],
                    [
                        -156.563029,
                        20.790909
                    ],
                    [
                        -156.563887,
                        20.791531
                    ],
                    [
                        -156.564213,
                        20.791747
                    ],
                    [
                        -156.565262,
                        20.792334
                    ],
                    [
                        -156.565962,
                        20.792641
                    ],
                    [
                        -156.566253,
                        20.792746
                    ],
                    [
                        -156.566757,
                        20.792895
                    ],
                    [
                        -156.567472,
                        20.793069
                    ],
                    [
                        -156.567891,
                        20.793153
                    ],
                    [
                        -156.569514,
                        20.793342
                    ],
                    [
                        -156.573671,
                        20.793882
                    ],
                    [
                        -156.576209,
                        20.794181
                    ],
                    [
                        -156.580065,
                        20.794675
                    ],
                    [
                        -156.580621,
                        20.794761
                    ],
                    [
                        -156.581235,
                        20.794883
                    ],
                    [
                        -156.581946,
                        20.795048
                    ],
                    [
                        -156.582937,
                        20.79533
                    ],
                    [
                        -156.584252,
                        20.79579
                    ],
                    [
                        -156.584582,
                        20.795925
                    ],
                    [
                        -156.585861,
                        20.796513
                    ],
                    [
                        -156.58727,
                        20.797208
                    ],
                    [
                        -156.587805,
                        20.797495
                    ],
                    [
                        -156.588961,
                        20.798055
                    ],
                    [
                        -156.589776,
                        20.798517
                    ],
                    [
                        -156.591875,
                        20.800009
                    ],
                    [
                        -156.59206,
                        20.800141
                    ],
                    [
                        -156.593406,
                        20.801135
                    ],
                    [
                        -156.594092,
                        20.801721
                    ],
                    [
                        -156.596083,
                        20.803484
                    ],
                    [
                        -156.598375,
                        20.805436
                    ],
                    [
                        -156.598666,
                        20.805659
                    ],
                    [
                        -156.599388,
                        20.806148
                    ],
                    [
                        -156.600037,
                        20.806526
                    ],
                    [
                        -156.604144,
                        20.808562
                    ],
                    [
                        -156.605493,
                        20.809204
                    ],
                    [
                        -156.606113,
                        20.809481
                    ],
                    [
                        -156.607023,
                        20.809824
                    ],
                    [
                        -156.608174,
                        20.810137
                    ],
                    [
                        -156.609355,
                        20.81033
                    ],
                    [
                        -156.610551,
                        20.810402
                    ],
                    [
                        -156.611218,
                        20.810399
                    ],
                    [
                        -156.612696,
                        20.810385
                    ],
                    [
                        -156.614911,
                        20.810364
                    ],
                    [
                        -156.617779,
                        20.810328
                    ],
                    [
                        -156.618426,
                        20.810326
                    ],
                    [
                        -156.618915,
                        20.810351
                    ],
                    [
                        -156.619525,
                        20.810438
                    ],
                    [
                        -156.620285,
                        20.810581
                    ],
                    [
                        -156.621055,
                        20.810757
                    ],
                    [
                        -156.621527,
                        20.810906
                    ],
                    [
                        -156.621805,
                        20.811016
                    ],
                    [
                        -156.622329,
                        20.811245
                    ],
                    [
                        -156.622605,
                        20.811404
                    ],
                    [
                        -156.623069,
                        20.811712
                    ],
                    [
                        -156.623679,
                        20.81225
                    ],
                    [
                        -156.62386,
                        20.812451
                    ],
                    [
                        -156.625484,
                        20.814254
                    ],
                    [
                        -156.625633,
                        20.814448
                    ],
                    [
                        -156.626155,
                        20.815139
                    ],
                    [
                        -156.628667,
                        20.818801
                    ],
                    [
                        -156.629012,
                        20.819441
                    ],
                    [
                        -156.629324,
                        20.820259
                    ],
                    [
                        -156.629579,
                        20.821054
                    ],
                    [
                        -156.629824,
                        20.821707
                    ],
                    [
                        -156.630033,
                        20.822182
                    ],
                    [
                        -156.630322,
                        20.822804
                    ],
                    [
                        -156.63058,
                        20.823299
                    ],
                    [
                        -156.630912,
                        20.823859
                    ],
                    [
                        -156.631278,
                        20.824401
                    ],
                    [
                        -156.631724,
                        20.825015
                    ],
                    [
                        -156.632506,
                        20.825935
                    ],
                    [
                        -156.632704,
                        20.826143
                    ],
                    [
                        -156.633209,
                        20.826647
                    ],
                    [
                        -156.633421,
                        20.826854
                    ],
                    [
                        -156.634904,
                        20.828178
                    ],
                    [
                        -156.636806,
                        20.829726
                    ],
                    [
                        -156.636877,
                        20.829793
                    ],
                    [
                        -156.637952,
                        20.830745
                    ],
                    [
                        -156.638181,
                        20.830974
                    ],
                    [
                        -156.638387,
                        20.83121
                    ],
                    [
                        -156.638699,
                        20.831641
                    ],
                    [
                        -156.639133,
                        20.832441
                    ],
                    [
                        -156.639741,
                        20.833602
                    ],
                    [
                        -156.639912,
                        20.833902
                    ],
                    [
                        -156.640119,
                        20.834201
                    ],
                    [
                        -156.640286,
                        20.83441
                    ],
                    [
                        -156.640556,
                        20.834705
                    ],
                    [
                        -156.640875,
                        20.835002
                    ],
                    [
                        -156.641091,
                        20.835172
                    ],
                    [
                        -156.641321,
                        20.835333
                    ],
                    [
                        -156.64166,
                        20.83554
                    ],
                    [
                        -156.64203,
                        20.835731
                    ],
                    [
                        -156.643222,
                        20.836278
                    ],
                    [
                        -156.64365,
                        20.836474
                    ],
                    [
                        -156.644217,
                        20.836752
                    ],
                    [
                        -156.644748,
                        20.837059
                    ],
                    [
                        -156.645324,
                        20.837453
                    ],
                    [
                        -156.645798,
                        20.837834
                    ],
                    [
                        -156.646246,
                        20.83825
                    ],
                    [
                        -156.646654,
                        20.838692
                    ],
                    [
                        -156.647136,
                        20.839306
                    ],
                    [
                        -156.647446,
                        20.839776
                    ],
                    [
                        -156.647748,
                        20.840304
                    ],
                    [
                        -156.647907,
                        20.840621
                    ],
                    [
                        -156.648052,
                        20.840954
                    ],
                    [
                        -156.648225,
                        20.841432
                    ],
                    [
                        -156.64876,
                        20.84296
                    ],
                    [
                        -156.649018,
                        20.842893
                    ],
                    [
                        -156.649285,
                        20.842869
                    ],
                    [
                        -156.649508,
                        20.842889
                    ],
                    [
                        -156.64974,
                        20.84295
                    ],
                    [
                        -156.649898,
                        20.843014
                    ],
                    [
                        -156.650129,
                        20.843154
                    ],
                    [
                        -156.650473,
                        20.843398
                    ],
                    [
                        -156.650695,
                        20.843532
                    ],
                    [
                        -156.650832,
                        20.843587
                    ],
                    [
                        -156.651063,
                        20.843649
                    ],
                    [
                        -156.651359,
                        20.843677
                    ],
                    [
                        -156.651554,
                        20.843661
                    ],
                    [
                        -156.651767,
                        20.843607
                    ],
                    [
                        -156.652007,
                        20.84351
                    ],
                    [
                        -156.65206,
                        20.843485
                    ],
                    [
                        -156.652391,
                        20.843311
                    ],
                    [
                        -156.652544,
                        20.84323
                    ],
                    [
                        -156.652898,
                        20.843801
                    ],
                    [
                        -156.653669,
                        20.844979
                    ],
                    [
                        -156.654679,
                        20.846328
                    ],
                    [
                        -156.655449,
                        20.847248
                    ],
                    [
                        -156.657076,
                        20.849043
                    ],
                    [
                        -156.65763,
                        20.849603
                    ],
                    [
                        -156.65813,
                        20.850058
                    ],
                    [
                        -156.658659,
                        20.850505
                    ],
                    [
                        -156.660448,
                        20.851924
                    ],
                    [
                        -156.660957,
                        20.852383
                    ],
                    [
                        -156.661461,
                        20.852866
                    ],
                    [
                        -156.661942,
                        20.853377
                    ],
                    [
                        -156.662529,
                        20.854072
                    ],
                    [
                        -156.663632,
                        20.85554
                    ],
                    [
                        -156.665223,
                        20.857711
                    ],
                    [
                        -156.665721,
                        20.858395
                    ],
                    [
                        -156.66597,
                        20.858734
                    ],
                    [
                        -156.666161,
                        20.85899
                    ],
                    [
                        -156.667246,
                        20.860427
                    ],
                    [
                        -156.667349,
                        20.860571
                    ],
                    [
                        -156.668122,
                        20.861628
                    ],
                    [
                        -156.66871,
                        20.862486
                    ],
                    [
                        -156.669276,
                        20.863425
                    ],
                    [
                        -156.669492,
                        20.863789
                    ],
                    [
                        -156.6695,
                        20.863913
                    ],
                    [
                        -156.670008,
                        20.864899
                    ],
                    [
                        -156.670403,
                        20.865773
                    ],
                    [
                        -156.671724,
                        20.869005
                    ],
                    [
                        -156.67291,
                        20.871901
                    ],
                    [
                        -156.673118,
                        20.872406
                    ],
                    [
                        -156.673534,
                        20.873412
                    ],
                    [
                        -156.673749,
                        20.873871
                    ],
                    [
                        -156.673919,
                        20.874171
                    ],
                    [
                        -156.67413,
                        20.874509
                    ],
                    [
                        -156.674341,
                        20.874799
                    ],
                    [
                        -156.674689,
                        20.875209
                    ],
                    [
                        -156.675026,
                        20.875555
                    ],
                    [
                        -156.675312,
                        20.875842
                    ],
                    [
                        -156.676421,
                        20.87696
                    ],
                    [
                        -156.67663,
                        20.877102
                    ],
                    [
                        -156.677005,
                        20.877477
                    ],
                    [
                        -156.678084,
                        20.876542
                    ],
                    [
                        -156.67822,
                        20.876419
                    ],
                    [
                        -156.678491,
                        20.876179
                    ],
                    [
                        -156.678612,
                        20.876068
                    ],
                    [
                        -156.678706,
                        20.875986
                    ],
                    [
                        -156.678735,
                        20.875961
                    ],
                    [
                        -156.678885,
                        20.875828
                    ],
                    [
                        -156.678947,
                        20.875781
                    ],
                    [
                        -156.679013,
                        20.875724
                    ],
                    [
                        -156.679767,
                        20.875276
                    ]
                ],
                "type": "LineString"
            }
        }
    ],
    "metadata": {
        "attribution": "openrouteservice.org | OpenStreetMap contributors",
        "service": "routing",
        "timestamp": 1756792935912,
        "query": {
            "coordinates": [
                [
                    -156.449613,
                    20.763973
                ],
                [
                    -156.679755,
                    20.875259
                ]
            ],
            "profile": "driving-car",
            "profileName": "driving-car",
            "format": "geojson"
        },
        "engine": {
            "version": "9.3.0",
            "build_date": "2025-06-06T15:39:25Z",
            "graph_date": "2025-08-31T11:45:10Z",
            "osm_date": "2025-08-24T23:59:58Z"
        }
    }
}