{
    "type": "FeatureCollection",
    "bbox": [
        74.864714,
        31.621325,
        74.878331,
        31.634966
    ],
    "features": [
        {
            "bbox": [
                74.864714,
                31.621325,
                74.878331,
                31.634966
            ],
            "type": "Feature",
            "properties": {
                "segments": [
                    {
                        "distance": 3138.1,
                        "duration": 353.0,
                        "steps": [
                            {
                                "distance": 85.3,
                                "duration": 15.3,
                                "type": 11,
                                "instruction": "Head west",
                                "name": "-",
                                "way_points": [
                                    0,
                                    3
                                ]
                            },
                            {
                                "distance": 138.3,
                                "duration": 24.9,
                                "type": 1,
                                "instruction": "Turn right",
                                "name": "-",
                                "way_points": [
                                    3,
                                    6
                                ]
                            },
                            {
                                "distance": 50.3,
                                "duration": 2.8,
                                "type": 0,
                                "instruction": "Turn left onto GT Road, Sher Shah Suri Marg",
                                "name": "GT Road, Sher Shah Suri Marg",
                                "way_points": [
                                    6,
                                    8
                                ]
                            },
                            {
                                "distance": 615.0,
                                "duration": 39.6,
                                "type": 6,
                                "instruction": "Continue straight onto GT Road, Sher Shah Suri Marg",
                                "name": "GT Road, Sher Shah Suri Marg",
                                "way_points": [
                                    8,
                                    19
                                ]
                            },
                            {
                                "distance": 393.9,
                                "duration": 16.7,
                                "type": 1,
                                "instruction": "Turn right onto Court Rd, NH354",
                                "name": "Court Rd, NH354",
                                "way_points": [
                                    19,
                                    35
                                ]
                            },
                            {
                                "distance": 272.2,
                                "duration": 11.5,
                                "type": 7,
                                "instruction": "Enter the roundabout and take the 2nd exit onto Hall Bazaar Rd., NH354",
                                "name": "Hall Bazaar Rd., NH354",
                                "exit_number": 2,
                                "way_points": [
                                    35,
                                    48
                                ]
                            },
                            {
                                "distance": 717.6,
                                "duration": 67.2,
                                "type": 7,
                                "instruction": "Enter the roundabout and take the 2nd exit onto Hall Bazaar Rd.",
                                "name": "Hall Bazaar Rd.",
                                "exit_number": 2,
                                "way_points": [
                                    48,
                                    70
                                ]
                            },
                            {
                                "distance": 140.3,
                                "duration": 16.8,
                                "type": 1,
                                "instruction": "Turn right",
                                "name": "-",
                                "way_points": [
                                    70,
                                    74
                                ]
                            },
                            {
                                "distance": 201.0,
                                "duration": 48.2,
                                "type": 0,
                                "instruction": "Turn left",
                                "name": "-",
                                "way_points": [
                                    74,
                                    81
                                ]
                            },
                            {
                                "distance": 85.3,
                                "duration": 20.5,
                                "type": 1,
                                "instruction": "Turn right",
                                "name": "-",
                                "way_points": [
                                    81,
                                    87
                                ]
                            },
                            {
                                "distance": 219.4,
                                "duration": 36.7,
                                "type": 0,
                                "instruction": "Turn left",
                                "name": "-",
                                "way_points": [
                                    87,
                                    89
                                ]
                            },
                            {
                                "distance": 87.6,
                                "duration": 21.0,
                                "type": 0,
                                "instruction": "Turn left",
                                "name": "-",
                                "way_points": [
                                    89,
                                    92
                                ]
                            },
                            {
                                "distance": 132.0,
                                "duration": 31.7,
                                "type": 12,
                                "instruction": "Keep left",
                                "name": "-",
                                "way_points": [
                                    92,
                                    95
                                ]
                            },
                            {
                                "distance": 0.0,
                                "duration": 0.0,
                                "type": 10,
                                "instruction": "Arrive at your destination, straight ahead",
                                "name": "-",
                                "way_points": [
                                    95,
                                    95
                                ]
                            }
                        ]
                    }
                ],
                "way_points": [
                    0,
                    95
                ],
                "summary": {
                    "distance": 3138.1,
                    "duration": 353.0
                }
            },
            "geometry": {
                "coordinates": [
                    [
                        74.867131,
                        31.633535
                    ],
                    [
                        74.866604,
                        31.633466
                    ],
                    [
                        74.866484,
                        31.633472
                    ],
                    [
                        74.866253,
                        31.633545
                    ],
                    [
                        74.866229,
                        31.633606
                    ],
                    [
                        74.86619,
                        31.633653
                    ],
                    [
                        74.865241,
                        31.634432
                    ],
                    [
                        74.864799,
                        31.634375
                    ],
                    [
                        74.864714,
                        31.634369
                    ],
                    [
                        74.864738,
                        31.634541
                    ],
                    [
                        74.864822,
                        31.634548
                    ],
                    [
                        74.865559,
                        31.634619
                    ],
                    [
                        74.86642,
                        31.634628
                    ],
                    [
                        74.86681,
                        31.634588
                    ],
                    [
                        74.867612,
                        31.634526
                    ],
                    [
                        74.868098,
                        31.634536
                    ],
                    [
                        74.868273,
                        31.63455
                    ],
                    [
                        74.868634,
                        31.634636
                    ],
                    [
                        74.870862,
                        31.634944
                    ],
                    [
                        74.870973,
                        31.634966
                    ],
                    [
                        74.871351,
                        31.63469
                    ],
                    [
                        74.871413,
                        31.634626
                    ],
                    [
                        74.872133,
                        31.634116
                    ],
                    [
                        74.872306,
                        31.634013
                    ],
                    [
                        74.872318,
                        31.634006
                    ],
                    [
                        74.8724,
                        31.633992
                    ],
                    [
                        74.872638,
                        31.633998
                    ],
                    [
                        74.873434,
                        31.634152
                    ],
                    [
                        74.873621,
                        31.634191
                    ],
                    [
                        74.873741,
                        31.634217
                    ],
                    [
                        74.873879,
                        31.63423
                    ],
                    [
                        74.873965,
                        31.634214
                    ],
                    [
                        74.87401,
                        31.634175
                    ],
                    [
                        74.874048,
                        31.634099
                    ],
                    [
                        74.874089,
                        31.633868
                    ],
                    [
                        74.874144,
                        31.633629
                    ],
                    [
                        74.874217,
                        31.63359
                    ],
                    [
                        74.874255,
                        31.633547
                    ],
                    [
                        74.874279,
                        31.633464
                    ],
                    [
                        74.874238,
                        31.633358
                    ],
                    [
                        74.874187,
                        31.633318
                    ],
                    [
                        74.874121,
                        31.633293
                    ],
                    [
                        74.874053,
                        31.633289
                    ],
                    [
                        74.873987,
                        31.633144
                    ],
                    [
                        74.873648,
                        31.632481
                    ],
                    [
                        74.87368,
                        31.632274
                    ],
                    [
                        74.87377,
                        31.632125
                    ],
                    [
                        74.87389,
                        31.631951
                    ],
                    [
                        74.874232,
                        31.631559
                    ],
                    [
                        74.874266,
                        31.631543
                    ],
                    [
                        74.874319,
                        31.631466
                    ],
                    [
                        74.874316,
                        31.63142
                    ],
                    [
                        74.874276,
                        31.63136
                    ],
                    [
                        74.874203,
                        31.631329
                    ],
                    [
                        74.874304,
                        31.631216
                    ],
                    [
                        74.874336,
                        31.631179
                    ],
                    [
                        74.874414,
                        31.631092
                    ],
                    [
                        74.874884,
                        31.630652
                    ],
                    [
                        74.875306,
                        31.630219
                    ],
                    [
                        74.875654,
                        31.629882
                    ],
                    [
                        74.876027,
                        31.629522
                    ],
                    [
                        74.87626,
                        31.629296
                    ],
                    [
                        74.87631,
                        31.62924
                    ],
                    [
                        74.876525,
                        31.628979
                    ],
                    [
                        74.876635,
                        31.628845
                    ],
                    [
                        74.876821,
                        31.628538
                    ],
                    [
                        74.876923,
                        31.6283
                    ],
                    [
                        74.876986,
                        31.628205
                    ],
                    [
                        74.877307,
                        31.62772
                    ],
                    [
                        74.877747,
                        31.627118
                    ],
                    [
                        74.878331,
                        31.626325
                    ],
                    [
                        74.877789,
                        31.625938
                    ],
                    [
                        74.87754,
                        31.625753
                    ],
                    [
                        74.87721,
                        31.625554
                    ],
                    [
                        74.877171,
                        31.625548
                    ],
                    [
                        74.877078,
                        31.625414
                    ],
                    [
                        74.876884,
                        31.625206
                    ],
                    [
                        74.876563,
                        31.625013
                    ],
                    [
                        74.876247,
                        31.624875
                    ],
                    [
                        74.875789,
                        31.624661
                    ],
                    [
                        74.875664,
                        31.624585
                    ],
                    [
                        74.875525,
                        31.624458
                    ],
                    [
                        74.875408,
                        31.6245
                    ],
                    [
                        74.875345,
                        31.624496
                    ],
                    [
                        74.875242,
                        31.624444
                    ],
                    [
                        74.875149,
                        31.624355
                    ],
                    [
                        74.875062,
                        31.624271
                    ],
                    [
                        74.874887,
                        31.624043
                    ],
                    [
                        74.875567,
                        31.623521
                    ],
                    [
                        74.874599,
                        31.622659
                    ],
                    [
                        74.874941,
                        31.622316
                    ],
                    [
                        74.875138,
                        31.622118
                    ],
                    [
                        74.875191,
                        31.622054
                    ],
                    [
                        74.875707,
                        31.621609
                    ],
                    [
                        74.876265,
                        31.621329
                    ],
                    [
                        74.876276,
                        31.621325
                    ]
                ],
                "type": "LineString"
            }
        }
    ],
    "metadata": {
        "attribution": "openrouteservice.org | OpenStreetMap contributors",
        "service": "routing",
        "timestamp": 1756634226771,
        "query": {
            "coordinates": [
                [
                    74.86714,
                    31.633485
                ],
                [
                    74.876279,
                    31.621333
                ]
            ],
            "profile": "driving-car",
            "profileName": "driving-car",
            "format": "geojson"
        },
        "engine": {
            "version": "9.3.0",
            "build_date": "2025-06-06T15:39:25Z",
            "graph_date": "2025-08-24T11:22:16Z",
            "osm_date": "2025-08-18T00:00:00Z"
        }
    }
}