{
    "type": "FeatureCollection",
    "bbox": [
        -156.507647,
        20.803876,
        -156.462242,
        20.874658
    ],
    "features": [
        {
            "bbox": [
                -156.507647,
                20.803876,
                -156.462242,
                20.874658
            ],
            "type": "Feature",
            "properties": {
                "segments": [
                    {
                        "distance": 10303.1,
                        "duration": 590.4,
                        "steps": [
                            {
                                "distance": 341.5,
                                "duration": 16.4,
                                "type": 11,
                                "instruction": "Head northeast on Kuihelani Highway, HI 380",
                                "name": "Kuihelani Highway, HI 380",
                                "way_points": [
                                    0,
                                    1
                                ]
                            },
                            {
                                "distance": 8722.6,
                                "duration": 481.2,
                                "type": 6,
                                "instruction": "Continue straight onto Kuihelani Highway, HI 380",
                                "name": "Kuihelani Highway, HI 380",
                                "way_points": [
                                    1,
                                    49
                                ]
                            },
                            {
                                "distance": 1239.0,
                                "duration": 92.8,
                                "type": 0,
                                "instruction": "Turn left onto North Kihei Road, HI 310",
                                "name": "North Kihei Road, HI 310",
                                "way_points": [
                                    49,
                                    59
                                ]
                            },
                            {
                                "distance": 0.0,
                                "duration": 0.0,
                                "type": 10,
                                "instruction": "Arrive at North Kihei Road, HI 310, on the left",
                                "name": "-",
                                "way_points": [
                                    59,
                                    59
                                ]
                            }
                        ]
                    }
                ],
                "way_points": [
                    0,
                    59
                ],
                "summary": {
                    "distance": 10303.1,
                    "duration": 590.4
                }
            },
            "geometry": {
                "coordinates": [
                    [
                        -156.464547,
                        20.872349
                    ],
                    [
                        -156.462242,
                        20.874538
                    ],
                    [
                        -156.46236,
                        20.874658
                    ],
                    [
                        -156.464914,
                        20.872237
                    ],
                    [
                        -156.475876,
                        20.861976
                    ],
                    [
                        -156.475993,
                        20.861849
                    ],
                    [
                        -156.476816,
                        20.861062
                    ],
                    [
                        -156.478076,
                        20.859708
                    ],
                    [
                        -156.479187,
                        20.85831
                    ],
                    [
                        -156.480245,
                        20.856858
                    ],
                    [
                        -156.481221,
                        20.855332
                    ],
                    [
                        -156.481812,
                        20.854298
                    ],
                    [
                        -156.482073,
                        20.853912
                    ],
                    [
                        -156.4824,
                        20.853325
                    ],
                    [
                        -156.482514,
                        20.853125
                    ],
                    [
                        -156.482689,
                        20.852818
                    ],
                    [
                        -156.484798,
                        20.849013
                    ],
                    [
                        -156.484954,
                        20.84874
                    ],
                    [
                        -156.489728,
                        20.840246
                    ],
                    [
                        -156.489892,
                        20.83998
                    ],
                    [
                        -156.490329,
                        20.839197
                    ],
                    [
                        -156.490733,
                        20.838416
                    ],
                    [
                        -156.491174,
                        20.837464
                    ],
                    [
                        -156.491447,
                        20.83677
                    ],
                    [
                        -156.491708,
                        20.835905
                    ],
                    [
                        -156.493123,
                        20.830229
                    ],
                    [
                        -156.493573,
                        20.828935
                    ],
                    [
                        -156.494173,
                        20.827686
                    ],
                    [
                        -156.494932,
                        20.826515
                    ],
                    [
                        -156.495817,
                        20.825429
                    ],
                    [
                        -156.496836,
                        20.824412
                    ],
                    [
                        -156.498881,
                        20.822677
                    ],
                    [
                        -156.499459,
                        20.822163
                    ],
                    [
                        -156.499649,
                        20.821996
                    ],
                    [
                        -156.499972,
                        20.821713
                    ],
                    [
                        -156.501027,
                        20.820693
                    ],
                    [
                        -156.502004,
                        20.819688
                    ],
                    [
                        -156.50299,
                        20.818603
                    ],
                    [
                        -156.503433,
                        20.818218
                    ],
                    [
                        -156.503889,
                        20.817871
                    ],
                    [
                        -156.504391,
                        20.817594
                    ],
                    [
                        -156.50494,
                        20.81733
                    ],
                    [
                        -156.505422,
                        20.817165
                    ],
                    [
                        -156.506088,
                        20.816981
                    ],
                    [
                        -156.506807,
                        20.816809
                    ],
                    [
                        -156.507012,
                        20.816637
                    ],
                    [
                        -156.507142,
                        20.815296
                    ],
                    [
                        -156.507169,
                        20.81504
                    ],
                    [
                        -156.50745,
                        20.813013
                    ],
                    [
                        -156.507647,
                        20.811602
                    ],
                    [
                        -156.507455,
                        20.811579
                    ],
                    [
                        -156.506619,
                        20.811464
                    ],
                    [
                        -156.506387,
                        20.811418
                    ],
                    [
                        -156.506228,
                        20.811368
                    ],
                    [
                        -156.506052,
                        20.811286
                    ],
                    [
                        -156.505899,
                        20.811194
                    ],
                    [
                        -156.505757,
                        20.811087
                    ],
                    [
                        -156.50563,
                        20.810965
                    ],
                    [
                        -156.501145,
                        20.805758
                    ],
                    [
                        -156.499536,
                        20.803876
                    ]
                ],
                "type": "LineString"
            }
        }
    ],
    "metadata": {
        "attribution": "openrouteservice.org | OpenStreetMap contributors",
        "service": "routing",
        "timestamp": 1756792562840,
        "query": {
            "coordinates": [
                [
                    -156.464227,
                    20.872055
                ],
                [
                    -156.498883,
                    20.804364
                ]
            ],
            "profile": "driving-car",
            "profileName": "driving-car",
            "format": "geojson"
        },
        "engine": {
            "version": "9.3.0",
            "build_date": "2025-06-06T15:39:25Z",
            "graph_date": "2025-08-31T11:45:10Z",
            "osm_date": "2025-08-24T23:59:58Z"
        }
    }
}