{
    "type": "FeatureCollection",
    "bbox": [
        72.894704,
        26.260937,
        73.041224,
        26.309278
    ],
    "features": [
        {
            "bbox": [
                72.894704,
                26.260937,
                73.041224,
                26.309278
            ],
            "type": "Feature",
            "properties": {
                "segments": [
                    {
                        "distance": 20678.5,
                        "duration": 1248.9,
                        "steps": [
                            {
                                "distance": 23.8,
                                "duration": 5.7,
                                "type": 11,
                                "instruction": "Head south",
                                "name": "-",
                                "way_points": [
                                    0,
                                    1
                                ]
                            },
                            {
                                "distance": 231.4,
                                "duration": 55.5,
                                "type": 1,
                                "instruction": "Turn right",
                                "name": "-",
                                "way_points": [
                                    1,
                                    10
                                ]
                            },
                            {
                                "distance": 37.9,
                                "duration": 9.1,
                                "type": 6,
                                "instruction": "Continue straight",
                                "name": "-",
                                "way_points": [
                                    10,
                                    11
                                ]
                            },
                            {
                                "distance": 381.4,
                                "duration": 16.2,
                                "type": 0,
                                "instruction": "Turn left onto Mandore Road, NH62",
                                "name": "Mandore Road, NH62",
                                "way_points": [
                                    11,
                                    17
                                ]
                            },
                            {
                                "distance": 2788.0,
                                "duration": 153.8,
                                "type": 7,
                                "instruction": "Enter the roundabout and take the 3rd exit onto NH25",
                                "name": "NH25",
                                "exit_number": 3,
                                "way_points": [
                                    17,
                                    67
                                ]
                            },
                            {
                                "distance": 1210.8,
                                "duration": 72.4,
                                "type": 7,
                                "instruction": "Enter the roundabout and take the 3rd exit onto NH25",
                                "name": "NH25",
                                "exit_number": 3,
                                "way_points": [
                                    67,
                                    97
                                ]
                            },
                            {
                                "distance": 672.9,
                                "duration": 43.8,
                                "type": 7,
                                "instruction": "Enter the roundabout and take the 3rd exit",
                                "name": "-",
                                "exit_number": 3,
                                "way_points": [
                                    97,
                                    111
                                ]
                            },
                            {
                                "distance": 792.0,
                                "duration": 51.6,
                                "type": 7,
                                "instruction": "Enter the roundabout and take the 2nd exit",
                                "name": "-",
                                "exit_number": 2,
                                "way_points": [
                                    111,
                                    129
                                ]
                            },
                            {
                                "distance": 1340.6,
                                "duration": 98.0,
                                "type": 7,
                                "instruction": "Enter the roundabout and take the 1st exit",
                                "name": "-",
                                "exit_number": 1,
                                "way_points": [
                                    129,
                                    149
                                ]
                            },
                            {
                                "distance": 3289.5,
                                "duration": 205.7,
                                "type": 7,
                                "instruction": "Enter the roundabout and take the 2nd exit",
                                "name": "-",
                                "exit_number": 2,
                                "way_points": [
                                    149,
                                    205
                                ]
                            },
                            {
                                "distance": 300.2,
                                "duration": 21.6,
                                "type": 0,
                                "instruction": "Turn left",
                                "name": "-",
                                "way_points": [
                                    205,
                                    214
                                ]
                            },
                            {
                                "distance": 6504.3,
                                "duration": 275.5,
                                "type": 3,
                                "instruction": "Turn sharp right onto Jodhpur Bypass, NH25",
                                "name": "Jodhpur Bypass, NH25",
                                "way_points": [
                                    214,
                                    309
                                ]
                            },
                            {
                                "distance": 743.7,
                                "duration": 53.5,
                                "type": 12,
                                "instruction": "Keep left",
                                "name": "-",
                                "way_points": [
                                    309,
                                    315
                                ]
                            },
                            {
                                "distance": 1522.7,
                                "duration": 112.4,
                                "type": 0,
                                "instruction": "Turn left",
                                "name": "-",
                                "way_points": [
                                    315,
                                    333
                                ]
                            },
                            {
                                "distance": 757.8,
                                "duration": 54.6,
                                "type": 4,
                                "instruction": "Turn slight left",
                                "name": "-",
                                "way_points": [
                                    333,
                                    347
                                ]
                            },
                            {
                                "distance": 81.6,
                                "duration": 19.6,
                                "type": 12,
                                "instruction": "Keep left",
                                "name": "-",
                                "way_points": [
                                    347,
                                    350
                                ]
                            },
                            {
                                "distance": 0.0,
                                "duration": 0.0,
                                "type": 10,
                                "instruction": "Arrive at your destination, on the right",
                                "name": "-",
                                "way_points": [
                                    350,
                                    350
                                ]
                            }
                        ]
                    }
                ],
                "way_points": [
                    0,
                    350
                ],
                "summary": {
                    "distance": 20678.5,
                    "duration": 1248.9
                }
            },
            "geometry": {
                "coordinates": [
                    [
                        73.041157,
                        26.298088
                    ],
                    [
                        73.041224,
                        26.297883
                    ],
                    [
                        73.041012,
                        26.297815
                    ],
                    [
                        73.040853,
                        26.297763
                    ],
                    [
                        73.040707,
                        26.297724
                    ],
                    [
                        73.040363,
                        26.297627
                    ],
                    [
                        73.039883,
                        26.297497
                    ],
                    [
                        73.039764,
                        26.297466
                    ],
                    [
                        73.039615,
                        26.297469
                    ],
                    [
                        73.039548,
                        26.297498
                    ],
                    [
                        73.038984,
                        26.297517
                    ],
                    [
                        73.038605,
                        26.297491
                    ],
                    [
                        73.038637,
                        26.297043
                    ],
                    [
                        73.038656,
                        26.296752
                    ],
                    [
                        73.038721,
                        26.295855
                    ],
                    [
                        73.038785,
                        26.294931
                    ],
                    [
                        73.038826,
                        26.294279
                    ],
                    [
                        73.038883,
                        26.294073
                    ],
                    [
                        73.038901,
                        26.294041
                    ],
                    [
                        73.038905,
                        26.293939
                    ],
                    [
                        73.038881,
                        26.293892
                    ],
                    [
                        73.038824,
                        26.293844
                    ],
                    [
                        73.038733,
                        26.29382
                    ],
                    [
                        73.038683,
                        26.293826
                    ],
                    [
                        73.03842,
                        26.293363
                    ],
                    [
                        73.038361,
                        26.293208
                    ],
                    [
                        73.038323,
                        26.293021
                    ],
                    [
                        73.038298,
                        26.291892
                    ],
                    [
                        73.038283,
                        26.290999
                    ],
                    [
                        73.038251,
                        26.290852
                    ],
                    [
                        73.038194,
                        26.290702
                    ],
                    [
                        73.038117,
                        26.290568
                    ],
                    [
                        73.037999,
                        26.290442
                    ],
                    [
                        73.037878,
                        26.290357
                    ],
                    [
                        73.037661,
                        26.290258
                    ],
                    [
                        73.03738,
                        26.290153
                    ],
                    [
                        73.036954,
                        26.290015
                    ],
                    [
                        73.036631,
                        26.289937
                    ],
                    [
                        73.036231,
                        26.289874
                    ],
                    [
                        73.035645,
                        26.289819
                    ],
                    [
                        73.034958,
                        26.289726
                    ],
                    [
                        73.030742,
                        26.289251
                    ],
                    [
                        73.030649,
                        26.28924
                    ],
                    [
                        73.029327,
                        26.289105
                    ],
                    [
                        73.029175,
                        26.289081
                    ],
                    [
                        73.028172,
                        26.288844
                    ],
                    [
                        73.02713,
                        26.288567
                    ],
                    [
                        73.026749,
                        26.288502
                    ],
                    [
                        73.025933,
                        26.288428
                    ],
                    [
                        73.025791,
                        26.288417
                    ],
                    [
                        73.024168,
                        26.288266
                    ],
                    [
                        73.024011,
                        26.288206
                    ],
                    [
                        73.023744,
                        26.288052
                    ],
                    [
                        73.023466,
                        26.287841
                    ],
                    [
                        73.02336,
                        26.287719
                    ],
                    [
                        73.023257,
                        26.287629
                    ],
                    [
                        73.023139,
                        26.287553
                    ],
                    [
                        73.022556,
                        26.287128
                    ],
                    [
                        73.021726,
                        26.286482
                    ],
                    [
                        73.020424,
                        26.28543
                    ],
                    [
                        73.020304,
                        26.285339
                    ],
                    [
                        73.019668,
                        26.284947
                    ],
                    [
                        73.018255,
                        26.284198
                    ],
                    [
                        73.017778,
                        26.283935
                    ],
                    [
                        73.017658,
                        26.283903
                    ],
                    [
                        73.017551,
                        26.283899
                    ],
                    [
                        73.017422,
                        26.28392
                    ],
                    [
                        73.016408,
                        26.284258
                    ],
                    [
                        73.016387,
                        26.284214
                    ],
                    [
                        73.016309,
                        26.28415
                    ],
                    [
                        73.016202,
                        26.284137
                    ],
                    [
                        73.016106,
                        26.28418
                    ],
                    [
                        73.016058,
                        26.284253
                    ],
                    [
                        73.016056,
                        26.284337
                    ],
                    [
                        73.015866,
                        26.284403
                    ],
                    [
                        73.015766,
                        26.28441
                    ],
                    [
                        73.015657,
                        26.284391
                    ],
                    [
                        73.014741,
                        26.284052
                    ],
                    [
                        73.014167,
                        26.283819
                    ],
                    [
                        73.013494,
                        26.283557
                    ],
                    [
                        73.013123,
                        26.283414
                    ],
                    [
                        73.012249,
                        26.283066
                    ],
                    [
                        73.011342,
                        26.282725
                    ],
                    [
                        73.011226,
                        26.282683
                    ],
                    [
                        73.010978,
                        26.28259
                    ],
                    [
                        73.010333,
                        26.282351
                    ],
                    [
                        73.009876,
                        26.282184
                    ],
                    [
                        73.009458,
                        26.282026
                    ],
                    [
                        73.009057,
                        26.281881
                    ],
                    [
                        73.008819,
                        26.281794
                    ],
                    [
                        73.008531,
                        26.28169
                    ],
                    [
                        73.008127,
                        26.281542
                    ],
                    [
                        73.007668,
                        26.281396
                    ],
                    [
                        73.007324,
                        26.281291
                    ],
                    [
                        73.006818,
                        26.281118
                    ],
                    [
                        73.006571,
                        26.281041
                    ],
                    [
                        73.006091,
                        26.280888
                    ],
                    [
                        73.005317,
                        26.28062
                    ],
                    [
                        73.005274,
                        26.280543
                    ],
                    [
                        73.005214,
                        26.280522
                    ],
                    [
                        73.005182,
                        26.280521
                    ],
                    [
                        73.005131,
                        26.280547
                    ],
                    [
                        73.005112,
                        26.280567
                    ],
                    [
                        73.004645,
                        26.280414
                    ],
                    [
                        73.002771,
                        26.279812
                    ],
                    [
                        73.002238,
                        26.27965
                    ],
                    [
                        73.001761,
                        26.279497
                    ],
                    [
                        73.001158,
                        26.279305
                    ],
                    [
                        73.000666,
                        26.279148
                    ],
                    [
                        72.999998,
                        26.278935
                    ],
                    [
                        72.999692,
                        26.278828
                    ],
                    [
                        72.999029,
                        26.278597
                    ],
                    [
                        72.999016,
                        26.278529
                    ],
                    [
                        72.998992,
                        26.278488
                    ],
                    [
                        72.998912,
                        26.278435
                    ],
                    [
                        72.998798,
                        26.278435
                    ],
                    [
                        72.998709,
                        26.278499
                    ],
                    [
                        72.998108,
                        26.27826
                    ],
                    [
                        72.997656,
                        26.278091
                    ],
                    [
                        72.99722,
                        26.277962
                    ],
                    [
                        72.995282,
                        26.277412
                    ],
                    [
                        72.995089,
                        26.277352
                    ],
                    [
                        72.994196,
                        26.27716
                    ],
                    [
                        72.993802,
                        26.277123
                    ],
                    [
                        72.993584,
                        26.277116
                    ],
                    [
                        72.993433,
                        26.277129
                    ],
                    [
                        72.993279,
                        26.277153
                    ],
                    [
                        72.992696,
                        26.277332
                    ],
                    [
                        72.992011,
                        26.277557
                    ],
                    [
                        72.991566,
                        26.277648
                    ],
                    [
                        72.991474,
                        26.277627
                    ],
                    [
                        72.991201,
                        26.277607
                    ],
                    [
                        72.990977,
                        26.277525
                    ],
                    [
                        72.990395,
                        26.277308
                    ],
                    [
                        72.989966,
                        26.277146
                    ],
                    [
                        72.989338,
                        26.276907
                    ],
                    [
                        72.987795,
                        26.276305
                    ],
                    [
                        72.987163,
                        26.276085
                    ],
                    [
                        72.986792,
                        26.275941
                    ],
                    [
                        72.98547,
                        26.275413
                    ],
                    [
                        72.98511,
                        26.275266
                    ],
                    [
                        72.984497,
                        26.275013
                    ],
                    [
                        72.983371,
                        26.274529
                    ],
                    [
                        72.982213,
                        26.274071
                    ],
                    [
                        72.981614,
                        26.273835
                    ],
                    [
                        72.98131,
                        26.273729
                    ],
                    [
                        72.980964,
                        26.273616
                    ],
                    [
                        72.980919,
                        26.273601
                    ],
                    [
                        72.979825,
                        26.273277
                    ],
                    [
                        72.979151,
                        26.273072
                    ],
                    [
                        72.979095,
                        26.273044
                    ],
                    [
                        72.979053,
                        26.273056
                    ],
                    [
                        72.979038,
                        26.273071
                    ],
                    [
                        72.978725,
                        26.27296
                    ],
                    [
                        72.978474,
                        26.272813
                    ],
                    [
                        72.977736,
                        26.272186
                    ],
                    [
                        72.977584,
                        26.272088
                    ],
                    [
                        72.976831,
                        26.271714
                    ],
                    [
                        72.976709,
                        26.271654
                    ],
                    [
                        72.976679,
                        26.27164
                    ],
                    [
                        72.976001,
                        26.271305
                    ],
                    [
                        72.974401,
                        26.270507
                    ],
                    [
                        72.974043,
                        26.270296
                    ],
                    [
                        72.973251,
                        26.269806
                    ],
                    [
                        72.970557,
                        26.268036
                    ],
                    [
                        72.970252,
                        26.267842
                    ],
                    [
                        72.9695,
                        26.267376
                    ],
                    [
                        72.969153,
                        26.267213
                    ],
                    [
                        72.968818,
                        26.267114
                    ],
                    [
                        72.968012,
                        26.266922
                    ],
                    [
                        72.96774,
                        26.266858
                    ],
                    [
                        72.967464,
                        26.266792
                    ],
                    [
                        72.966982,
                        26.266678
                    ],
                    [
                        72.966883,
                        26.266667
                    ],
                    [
                        72.966326,
                        26.266655
                    ],
                    [
                        72.965613,
                        26.266678
                    ],
                    [
                        72.964475,
                        26.26671
                    ],
                    [
                        72.964371,
                        26.266699
                    ],
                    [
                        72.964263,
                        26.266666
                    ],
                    [
                        72.964112,
                        26.266597
                    ],
                    [
                        72.963929,
                        26.266485
                    ],
                    [
                        72.963176,
                        26.265841
                    ],
                    [
                        72.962694,
                        26.265437
                    ],
                    [
                        72.962644,
                        26.265395
                    ],
                    [
                        72.961996,
                        26.264864
                    ],
                    [
                        72.961517,
                        26.264638
                    ],
                    [
                        72.961226,
                        26.264521
                    ],
                    [
                        72.960928,
                        26.264367
                    ],
                    [
                        72.960803,
                        26.264287
                    ],
                    [
                        72.960212,
                        26.263821
                    ],
                    [
                        72.959328,
                        26.26314
                    ],
                    [
                        72.959078,
                        26.263018
                    ],
                    [
                        72.958365,
                        26.262718
                    ],
                    [
                        72.957931,
                        26.262548
                    ],
                    [
                        72.956812,
                        26.26215
                    ],
                    [
                        72.956547,
                        26.262119
                    ],
                    [
                        72.956064,
                        26.262144
                    ],
                    [
                        72.955678,
                        26.262183
                    ],
                    [
                        72.954751,
                        26.262319
                    ],
                    [
                        72.95396,
                        26.262434
                    ],
                    [
                        72.953333,
                        26.262529
                    ],
                    [
                        72.950955,
                        26.262795
                    ],
                    [
                        72.950782,
                        26.262893
                    ],
                    [
                        72.95064,
                        26.262906
                    ],
                    [
                        72.950217,
                        26.262946
                    ],
                    [
                        72.95001,
                        26.26297
                    ],
                    [
                        72.949841,
                        26.262092
                    ],
                    [
                        72.94978,
                        26.261797
                    ],
                    [
                        72.949679,
                        26.261312
                    ],
                    [
                        72.94966,
                        26.261242
                    ],
                    [
                        72.949491,
                        26.261058
                    ],
                    [
                        72.949348,
                        26.260986
                    ],
                    [
                        72.94918,
                        26.260938
                    ],
                    [
                        72.949078,
                        26.260937
                    ],
                    [
                        72.948734,
                        26.260937
                    ],
                    [
                        72.949008,
                        26.261357
                    ],
                    [
                        72.949083,
                        26.26157
                    ],
                    [
                        72.949206,
                        26.262004
                    ],
                    [
                        72.949195,
                        26.262192
                    ],
                    [
                        72.949209,
                        26.262421
                    ],
                    [
                        72.949188,
                        26.262686
                    ],
                    [
                        72.949139,
                        26.262973
                    ],
                    [
                        72.94906,
                        26.263136
                    ],
                    [
                        72.94873,
                        26.264047
                    ],
                    [
                        72.948193,
                        26.264746
                    ],
                    [
                        72.947383,
                        26.265708
                    ],
                    [
                        72.945987,
                        26.26722
                    ],
                    [
                        72.94589,
                        26.267293
                    ],
                    [
                        72.94554,
                        26.267647
                    ],
                    [
                        72.945082,
                        26.268036
                    ],
                    [
                        72.944876,
                        26.268198
                    ],
                    [
                        72.944576,
                        26.268383
                    ],
                    [
                        72.944068,
                        26.268849
                    ],
                    [
                        72.943927,
                        26.268955
                    ],
                    [
                        72.943726,
                        26.269126
                    ],
                    [
                        72.943472,
                        26.269318
                    ],
                    [
                        72.942688,
                        26.270017
                    ],
                    [
                        72.942504,
                        26.270191
                    ],
                    [
                        72.942275,
                        26.270478
                    ],
                    [
                        72.94187,
                        26.27107
                    ],
                    [
                        72.941675,
                        26.271548
                    ],
                    [
                        72.94151,
                        26.271896
                    ],
                    [
                        72.941425,
                        26.272147
                    ],
                    [
                        72.941394,
                        26.272308
                    ],
                    [
                        72.941311,
                        26.272729
                    ],
                    [
                        72.94126,
                        26.273161
                    ],
                    [
                        72.941251,
                        26.273371
                    ],
                    [
                        72.941264,
                        26.273557
                    ],
                    [
                        72.941295,
                        26.273878
                    ],
                    [
                        72.941744,
                        26.27623
                    ],
                    [
                        72.941814,
                        26.276761
                    ],
                    [
                        72.941844,
                        26.277189
                    ],
                    [
                        72.941729,
                        26.277913
                    ],
                    [
                        72.941573,
                        26.278317
                    ],
                    [
                        72.941367,
                        26.278723
                    ],
                    [
                        72.941259,
                        26.278873
                    ],
                    [
                        72.941131,
                        26.279063
                    ],
                    [
                        72.940818,
                        26.279394
                    ],
                    [
                        72.940644,
                        26.279548
                    ],
                    [
                        72.939392,
                        26.280238
                    ],
                    [
                        72.938073,
                        26.280865
                    ],
                    [
                        72.936381,
                        26.281713
                    ],
                    [
                        72.936207,
                        26.2818
                    ],
                    [
                        72.935869,
                        26.281966
                    ],
                    [
                        72.935322,
                        26.282278
                    ],
                    [
                        72.935007,
                        26.282502
                    ],
                    [
                        72.934823,
                        26.282674
                    ],
                    [
                        72.934636,
                        26.282898
                    ],
                    [
                        72.934308,
                        26.283357
                    ],
                    [
                        72.933961,
                        26.283977
                    ],
                    [
                        72.933741,
                        26.284446
                    ],
                    [
                        72.933595,
                        26.284986
                    ],
                    [
                        72.933264,
                        26.286352
                    ],
                    [
                        72.932983,
                        26.287476
                    ],
                    [
                        72.932709,
                        26.288963
                    ],
                    [
                        72.932652,
                        26.289347
                    ],
                    [
                        72.932683,
                        26.289917
                    ],
                    [
                        72.932726,
                        26.290179
                    ],
                    [
                        72.932796,
                        26.290437
                    ],
                    [
                        72.932869,
                        26.290766
                    ],
                    [
                        72.933218,
                        26.291764
                    ],
                    [
                        72.933355,
                        26.292122
                    ],
                    [
                        72.933478,
                        26.292528
                    ],
                    [
                        72.933757,
                        26.293214
                    ],
                    [
                        72.933963,
                        26.293849
                    ],
                    [
                        72.934036,
                        26.294047
                    ],
                    [
                        72.934116,
                        26.294361
                    ],
                    [
                        72.934157,
                        26.294638
                    ],
                    [
                        72.934147,
                        26.294946
                    ],
                    [
                        72.93407,
                        26.295439
                    ],
                    [
                        72.933883,
                        26.296062
                    ],
                    [
                        72.933092,
                        26.29779
                    ],
                    [
                        72.933045,
                        26.297889
                    ],
                    [
                        72.932553,
                        26.298904
                    ],
                    [
                        72.932128,
                        26.299725
                    ],
                    [
                        72.931751,
                        26.300291
                    ],
                    [
                        72.931426,
                        26.300726
                    ],
                    [
                        72.931318,
                        26.30083
                    ],
                    [
                        72.930956,
                        26.301075
                    ],
                    [
                        72.930322,
                        26.301388
                    ],
                    [
                        72.929622,
                        26.301707
                    ],
                    [
                        72.928554,
                        26.302177
                    ],
                    [
                        72.926196,
                        26.303274
                    ],
                    [
                        72.926138,
                        26.303301
                    ],
                    [
                        72.925279,
                        26.303684
                    ],
                    [
                        72.924301,
                        26.304154
                    ],
                    [
                        72.922546,
                        26.304968
                    ],
                    [
                        72.920829,
                        26.305744
                    ],
                    [
                        72.920398,
                        26.305941
                    ],
                    [
                        72.919881,
                        26.306178
                    ],
                    [
                        72.919671,
                        26.306157
                    ],
                    [
                        72.919183,
                        26.306332
                    ],
                    [
                        72.915155,
                        26.308194
                    ],
                    [
                        72.914882,
                        26.308329
                    ],
                    [
                        72.914144,
                        26.308756
                    ],
                    [
                        72.913329,
                        26.309278
                    ],
                    [
                        72.913267,
                        26.309211
                    ],
                    [
                        72.913271,
                        26.309092
                    ],
                    [
                        72.913247,
                        26.309007
                    ],
                    [
                        72.913143,
                        26.308791
                    ],
                    [
                        72.912951,
                        26.308494
                    ],
                    [
                        72.912579,
                        26.308016
                    ],
                    [
                        72.911123,
                        26.306257
                    ],
                    [
                        72.910436,
                        26.305507
                    ],
                    [
                        72.910069,
                        26.305128
                    ],
                    [
                        72.909891,
                        26.304964
                    ],
                    [
                        72.909724,
                        26.304836
                    ],
                    [
                        72.909146,
                        26.304462
                    ],
                    [
                        72.908601,
                        26.304083
                    ],
                    [
                        72.908077,
                        26.303781
                    ],
                    [
                        72.903441,
                        26.301797
                    ],
                    [
                        72.90333,
                        26.301751
                    ],
                    [
                        72.902101,
                        26.301224
                    ],
                    [
                        72.901674,
                        26.301118
                    ],
                    [
                        72.901318,
                        26.300707
                    ],
                    [
                        72.90062,
                        26.29995
                    ],
                    [
                        72.900483,
                        26.299873
                    ],
                    [
                        72.899688,
                        26.299425
                    ],
                    [
                        72.899526,
                        26.299348
                    ],
                    [
                        72.898207,
                        26.29872
                    ],
                    [
                        72.898177,
                        26.298702
                    ],
                    [
                        72.897692,
                        26.298442
                    ],
                    [
                        72.896989,
                        26.298085
                    ],
                    [
                        72.896943,
                        26.298062
                    ],
                    [
                        72.896435,
                        26.297804
                    ],
                    [
                        72.895857,
                        26.297516
                    ],
                    [
                        72.895608,
                        26.297392
                    ],
                    [
                        72.895459,
                        26.297349
                    ],
                    [
                        72.895239,
                        26.297205
                    ],
                    [
                        72.895153,
                        26.297176
                    ],
                    [
                        72.894704,
                        26.297236
                    ]
                ],
                "type": "LineString"
            }
        }
    ],
    "metadata": {
        "attribution": "openrouteservice.org | OpenStreetMap contributors",
        "service": "routing",
        "timestamp": 1756628946954,
        "query": {
            "coordinates": [
                [
                    73.041149,
                    26.298086
                ],
                [
                    72.894706,
                    26.29725
                ]
            ],
            "profile": "driving-car",
            "profileName": "driving-car",
            "format": "geojson"
        },
        "engine": {
            "version": "9.3.0",
            "build_date": "2025-06-06T15:39:25Z",
            "graph_date": "2025-08-24T11:22:16Z",
            "osm_date": "2025-08-18T00:00:00Z"
        }
    }
}