{
    "type": "FeatureCollection",
    "bbox": [
        -87.927582,
        41.806034,
        -87.624171,
        41.876197
    ],
    "features": [
        {
            "bbox": [
                -87.927582,
                41.806034,
                -87.624171,
                41.876197
            ],
            "type": "Feature",
            "properties": {
                "segments": [
                    {
                        "distance": 33261.0,
                        "duration": 2188.5,
                        "steps": [
                            {
                                "distance": 123.5,
                                "duration": 20.5,
                                "type": 11,
                                "instruction": "Head south on South Michigan Avenue",
                                "name": "South Michigan Avenue",
                                "way_points": [
                                    0,
                                    3
                                ]
                            },
                            {
                                "distance": 153.2,
                                "duration": 20.1,
                                "type": 6,
                                "instruction": "Continue straight onto South Michigan Avenue",
                                "name": "South Michigan Avenue",
                                "way_points": [
                                    3,
                                    6
                                ]
                            },
                            {
                                "distance": 786.6,
                                "duration": 123.9,
                                "type": 2,
                                "instruction": "Turn sharp left onto East Ida B. Wells Drive",
                                "name": "East Ida B. Wells Drive",
                                "way_points": [
                                    6,
                                    25
                                ]
                            },
                            {
                                "distance": 22552.9,
                                "duration": 1313.3,
                                "type": 6,
                                "instruction": "Continue straight onto Eisenhower Expressway, I 290, IL 110",
                                "name": "Eisenhower Expressway, I 290, IL 110",
                                "way_points": [
                                    25,
                                    183
                                ]
                            },
                            {
                                "distance": 824.6,
                                "duration": 50.5,
                                "type": 12,
                                "instruction": "Keep left onto Ronald Reagan Memorial Tollway, I 88, IL 110",
                                "name": "Ronald Reagan Memorial Tollway, I 88, IL 110",
                                "way_points": [
                                    183,
                                    194
                                ]
                            },
                            {
                                "distance": 635.5,
                                "duration": 41.6,
                                "type": 13,
                                "instruction": "Keep right",
                                "name": "-",
                                "way_points": [
                                    194,
                                    205
                                ]
                            },
                            {
                                "distance": 1173.2,
                                "duration": 57.1,
                                "type": 12,
                                "instruction": "Keep left",
                                "name": "-",
                                "way_points": [
                                    205,
                                    219
                                ]
                            },
                            {
                                "distance": 3790.2,
                                "duration": 176.1,
                                "type": 12,
                                "instruction": "Keep left onto Tri-State Tollway, I 294",
                                "name": "Tri-State Tollway, I 294",
                                "way_points": [
                                    219,
                                    245
                                ]
                            },
                            {
                                "distance": 840.7,
                                "duration": 55.0,
                                "type": 13,
                                "instruction": "Keep right",
                                "name": "-",
                                "way_points": [
                                    245,
                                    260
                                ]
                            },
                            {
                                "distance": 587.6,
                                "duration": 108.3,
                                "type": 5,
                                "instruction": "Turn slight right onto East Ogden Avenue, US 34",
                                "name": "East Ogden Avenue, US 34",
                                "way_points": [
                                    260,
                                    281
                                ]
                            },
                            {
                                "distance": 653.5,
                                "duration": 73.4,
                                "type": 0,
                                "instruction": "Turn left onto North York Road",
                                "name": "North York Road",
                                "way_points": [
                                    281,
                                    296
                                ]
                            },
                            {
                                "distance": 62.0,
                                "duration": 8.9,
                                "type": 1,
                                "instruction": "Turn right onto The Lane",
                                "name": "The Lane",
                                "way_points": [
                                    296,
                                    297
                                ]
                            },
                            {
                                "distance": 520.9,
                                "duration": 34.1,
                                "type": 0,
                                "instruction": "Turn left onto North Garfield Avenue",
                                "name": "North Garfield Avenue",
                                "way_points": [
                                    297,
                                    302
                                ]
                            },
                            {
                                "distance": 400.4,
                                "duration": 72.1,
                                "type": 0,
                                "instruction": "Turn left onto East Walnut Street",
                                "name": "East Walnut Street",
                                "way_points": [
                                    302,
                                    304
                                ]
                            },
                            {
                                "distance": 44.3,
                                "duration": 10.6,
                                "type": 1,
                                "instruction": "Turn right onto North Elm Street",
                                "name": "North Elm Street",
                                "way_points": [
                                    304,
                                    305
                                ]
                            },
                            {
                                "distance": 111.9,
                                "duration": 22.9,
                                "type": 0,
                                "instruction": "Turn left",
                                "name": "-",
                                "way_points": [
                                    305,
                                    312
                                ]
                            },
                            {
                                "distance": 0.0,
                                "duration": 0.0,
                                "type": 10,
                                "instruction": "Arrive at your destination, on the right",
                                "name": "-",
                                "way_points": [
                                    312,
                                    312
                                ]
                            }
                        ]
                    }
                ],
                "way_points": [
                    0,
                    312
                ],
                "summary": {
                    "distance": 33261.0,
                    "duration": 2188.5
                }
            },
            "geometry": {
                "coordinates": [
                    [
                        -87.624348,
                        41.875562
                    ],
                    [
                        -87.624346,
                        41.875314
                    ],
                    [
                        -87.624342,
                        41.875125
                    ],
                    [
                        -87.624328,
                        41.874452
                    ],
                    [
                        -87.624171,
                        41.874529
                    ],
                    [
                        -87.624199,
                        41.87569
                    ],
                    [
                        -87.624204,
                        41.875767
                    ],
                    [
                        -87.62435,
                        41.875724
                    ],
                    [
                        -87.625197,
                        41.875709
                    ],
                    [
                        -87.625357,
                        41.875706
                    ],
                    [
                        -87.626035,
                        41.875694
                    ],
                    [
                        -87.626887,
                        41.875675
                    ],
                    [
                        -87.627092,
                        41.875716
                    ],
                    [
                        -87.627633,
                        41.875711
                    ],
                    [
                        -87.62871,
                        41.875706
                    ],
                    [
                        -87.628823,
                        41.875705
                    ],
                    [
                        -87.629226,
                        41.875702
                    ],
                    [
                        -87.629714,
                        41.875706
                    ],
                    [
                        -87.630226,
                        41.8757
                    ],
                    [
                        -87.630715,
                        41.875701
                    ],
                    [
                        -87.631257,
                        41.875692
                    ],
                    [
                        -87.631738,
                        41.875684
                    ],
                    [
                        -87.631804,
                        41.875684
                    ],
                    [
                        -87.632575,
                        41.875668
                    ],
                    [
                        -87.633082,
                        41.875667
                    ],
                    [
                        -87.633684,
                        41.87567
                    ],
                    [
                        -87.635013,
                        41.875697
                    ],
                    [
                        -87.635793,
                        41.875703
                    ],
                    [
                        -87.636103,
                        41.875704
                    ],
                    [
                        -87.636346,
                        41.875701
                    ],
                    [
                        -87.637168,
                        41.875691
                    ],
                    [
                        -87.637331,
                        41.875689
                    ],
                    [
                        -87.638039,
                        41.875674
                    ],
                    [
                        -87.63928,
                        41.875657
                    ],
                    [
                        -87.641365,
                        41.875647
                    ],
                    [
                        -87.641651,
                        41.875644
                    ],
                    [
                        -87.64257,
                        41.875632
                    ],
                    [
                        -87.643439,
                        41.875616
                    ],
                    [
                        -87.644141,
                        41.87562
                    ],
                    [
                        -87.645957,
                        41.87576
                    ],
                    [
                        -87.646525,
                        41.875773
                    ],
                    [
                        -87.649135,
                        41.875728
                    ],
                    [
                        -87.650912,
                        41.875714
                    ],
                    [
                        -87.65167,
                        41.875726
                    ],
                    [
                        -87.652598,
                        41.875763
                    ],
                    [
                        -87.653489,
                        41.87582
                    ],
                    [
                        -87.654258,
                        41.87589
                    ],
                    [
                        -87.65643,
                        41.87613
                    ],
                    [
                        -87.657268,
                        41.876192
                    ],
                    [
                        -87.657603,
                        41.876197
                    ],
                    [
                        -87.661623,
                        41.876138
                    ],
                    [
                        -87.662425,
                        41.876121
                    ],
                    [
                        -87.669387,
                        41.875998
                    ],
                    [
                        -87.671304,
                        41.875928
                    ],
                    [
                        -87.672211,
                        41.875914
                    ],
                    [
                        -87.673066,
                        41.8759
                    ],
                    [
                        -87.676764,
                        41.875846
                    ],
                    [
                        -87.67999,
                        41.875826
                    ],
                    [
                        -87.680757,
                        41.875819
                    ],
                    [
                        -87.688313,
                        41.875763
                    ],
                    [
                        -87.691075,
                        41.875729
                    ],
                    [
                        -87.694906,
                        41.875687
                    ],
                    [
                        -87.697235,
                        41.875658
                    ],
                    [
                        -87.698591,
                        41.875598
                    ],
                    [
                        -87.699324,
                        41.875537
                    ],
                    [
                        -87.700044,
                        41.875465
                    ],
                    [
                        -87.70076,
                        41.875371
                    ],
                    [
                        -87.704533,
                        41.874829
                    ],
                    [
                        -87.706246,
                        41.87458
                    ],
                    [
                        -87.707254,
                        41.874433
                    ],
                    [
                        -87.708052,
                        41.874348
                    ],
                    [
                        -87.70915,
                        41.874284
                    ],
                    [
                        -87.716326,
                        41.874195
                    ],
                    [
                        -87.724386,
                        41.87409
                    ],
                    [
                        -87.730503,
                        41.874017
                    ],
                    [
                        -87.732045,
                        41.873999
                    ],
                    [
                        -87.732948,
                        41.873967
                    ],
                    [
                        -87.733714,
                        41.873883
                    ],
                    [
                        -87.734358,
                        41.873763
                    ],
                    [
                        -87.735047,
                        41.873584
                    ],
                    [
                        -87.735509,
                        41.873432
                    ],
                    [
                        -87.73588,
                        41.873289
                    ],
                    [
                        -87.73726,
                        41.872633
                    ],
                    [
                        -87.737647,
                        41.872466
                    ],
                    [
                        -87.738196,
                        41.872274
                    ],
                    [
                        -87.738477,
                        41.87219
                    ],
                    [
                        -87.739075,
                        41.872042
                    ],
                    [
                        -87.739541,
                        41.871955
                    ],
                    [
                        -87.739922,
                        41.871909
                    ],
                    [
                        -87.740374,
                        41.87187
                    ],
                    [
                        -87.740938,
                        41.87185
                    ],
                    [
                        -87.749322,
                        41.871739
                    ],
                    [
                        -87.749896,
                        41.871736
                    ],
                    [
                        -87.751426,
                        41.871731
                    ],
                    [
                        -87.754425,
                        41.871684
                    ],
                    [
                        -87.759179,
                        41.871626
                    ],
                    [
                        -87.760752,
                        41.871604
                    ],
                    [
                        -87.761527,
                        41.871576
                    ],
                    [
                        -87.762606,
                        41.871504
                    ],
                    [
                        -87.764019,
                        41.871352
                    ],
                    [
                        -87.765019,
                        41.871237
                    ],
                    [
                        -87.766569,
                        41.87106
                    ],
                    [
                        -87.766962,
                        41.871028
                    ],
                    [
                        -87.767488,
                        41.871015
                    ],
                    [
                        -87.768271,
                        41.871004
                    ],
                    [
                        -87.76928,
                        41.871025
                    ],
                    [
                        -87.771972,
                        41.871111
                    ],
                    [
                        -87.774065,
                        41.871215
                    ],
                    [
                        -87.778491,
                        41.871483
                    ],
                    [
                        -87.77979,
                        41.871568
                    ],
                    [
                        -87.789277,
                        41.872374
                    ],
                    [
                        -87.789693,
                        41.872397
                    ],
                    [
                        -87.791094,
                        41.872412
                    ],
                    [
                        -87.791497,
                        41.872429
                    ],
                    [
                        -87.794688,
                        41.872689
                    ],
                    [
                        -87.799298,
                        41.873251
                    ],
                    [
                        -87.801095,
                        41.873459
                    ],
                    [
                        -87.806928,
                        41.874029
                    ],
                    [
                        -87.808811,
                        41.8742
                    ],
                    [
                        -87.809918,
                        41.874235
                    ],
                    [
                        -87.810643,
                        41.874228
                    ],
                    [
                        -87.811825,
                        41.874153
                    ],
                    [
                        -87.812369,
                        41.874098
                    ],
                    [
                        -87.813068,
                        41.873994
                    ],
                    [
                        -87.81402,
                        41.873806
                    ],
                    [
                        -87.817513,
                        41.872796
                    ],
                    [
                        -87.818479,
                        41.872572
                    ],
                    [
                        -87.819487,
                        41.872398
                    ],
                    [
                        -87.820222,
                        41.872304
                    ],
                    [
                        -87.820903,
                        41.872239
                    ],
                    [
                        -87.821466,
                        41.872206
                    ],
                    [
                        -87.825217,
                        41.87213
                    ],
                    [
                        -87.825943,
                        41.872119
                    ],
                    [
                        -87.827366,
                        41.872091
                    ],
                    [
                        -87.828084,
                        41.872053
                    ],
                    [
                        -87.829155,
                        41.871944
                    ],
                    [
                        -87.829649,
                        41.871869
                    ],
                    [
                        -87.83086,
                        41.871675
                    ],
                    [
                        -87.831524,
                        41.871588
                    ],
                    [
                        -87.832523,
                        41.871501
                    ],
                    [
                        -87.834662,
                        41.871438
                    ],
                    [
                        -87.838168,
                        41.871383
                    ],
                    [
                        -87.839449,
                        41.871363
                    ],
                    [
                        -87.841045,
                        41.871337
                    ],
                    [
                        -87.848467,
                        41.871157
                    ],
                    [
                        -87.853019,
                        41.871037
                    ],
                    [
                        -87.853606,
                        41.871019
                    ],
                    [
                        -87.854574,
                        41.871003
                    ],
                    [
                        -87.855175,
                        41.87101
                    ],
                    [
                        -87.856368,
                        41.871074
                    ],
                    [
                        -87.858488,
                        41.871256
                    ],
                    [
                        -87.859193,
                        41.871271
                    ],
                    [
                        -87.863515,
                        41.871162
                    ],
                    [
                        -87.866389,
                        41.87109
                    ],
                    [
                        -87.866618,
                        41.871084
                    ],
                    [
                        -87.870986,
                        41.870987
                    ],
                    [
                        -87.872025,
                        41.870952
                    ],
                    [
                        -87.872574,
                        41.870938
                    ],
                    [
                        -87.87569,
                        41.870846
                    ],
                    [
                        -87.876899,
                        41.870725
                    ],
                    [
                        -87.877437,
                        41.870654
                    ],
                    [
                        -87.87847,
                        41.870499
                    ],
                    [
                        -87.880135,
                        41.870141
                    ],
                    [
                        -87.881577,
                        41.869962
                    ],
                    [
                        -87.883483,
                        41.869883
                    ],
                    [
                        -87.886357,
                        41.869795
                    ],
                    [
                        -87.887193,
                        41.869778
                    ],
                    [
                        -87.888459,
                        41.869827
                    ],
                    [
                        -87.890563,
                        41.870077
                    ],
                    [
                        -87.891628,
                        41.870294
                    ],
                    [
                        -87.893053,
                        41.870697
                    ],
                    [
                        -87.894074,
                        41.871055
                    ],
                    [
                        -87.894992,
                        41.871496
                    ],
                    [
                        -87.896404,
                        41.872207
                    ],
                    [
                        -87.896689,
                        41.872338
                    ],
                    [
                        -87.897317,
                        41.872612
                    ],
                    [
                        -87.897723,
                        41.872772
                    ],
                    [
                        -87.898139,
                        41.872924
                    ],
                    [
                        -87.898955,
                        41.873179
                    ],
                    [
                        -87.900167,
                        41.873481
                    ],
                    [
                        -87.901086,
                        41.873662
                    ],
                    [
                        -87.902101,
                        41.8738
                    ],
                    [
                        -87.902963,
                        41.873862
                    ],
                    [
                        -87.903102,
                        41.873868
                    ],
                    [
                        -87.904195,
                        41.873869
                    ],
                    [
                        -87.905126,
                        41.873839
                    ],
                    [
                        -87.906104,
                        41.873753
                    ],
                    [
                        -87.906977,
                        41.873631
                    ],
                    [
                        -87.908053,
                        41.873429
                    ],
                    [
                        -87.908841,
                        41.873234
                    ],
                    [
                        -87.9098,
                        41.87295
                    ],
                    [
                        -87.910194,
                        41.872816
                    ],
                    [
                        -87.910869,
                        41.872559
                    ],
                    [
                        -87.911431,
                        41.872323
                    ],
                    [
                        -87.9125,
                        41.871837
                    ],
                    [
                        -87.91279,
                        41.871761
                    ],
                    [
                        -87.913767,
                        41.871418
                    ],
                    [
                        -87.914974,
                        41.871061
                    ],
                    [
                        -87.91527,
                        41.87095
                    ],
                    [
                        -87.91581,
                        41.870703
                    ],
                    [
                        -87.916191,
                        41.870454
                    ],
                    [
                        -87.916341,
                        41.870331
                    ],
                    [
                        -87.916767,
                        41.869814
                    ],
                    [
                        -87.917325,
                        41.868786
                    ],
                    [
                        -87.917454,
                        41.868415
                    ],
                    [
                        -87.917496,
                        41.868063
                    ],
                    [
                        -87.91744,
                        41.867398
                    ],
                    [
                        -87.917422,
                        41.866861
                    ],
                    [
                        -87.917432,
                        41.866616
                    ],
                    [
                        -87.91749,
                        41.866183
                    ],
                    [
                        -87.917512,
                        41.865933
                    ],
                    [
                        -87.917846,
                        41.864836
                    ],
                    [
                        -87.91802,
                        41.864237
                    ],
                    [
                        -87.918592,
                        41.862385
                    ],
                    [
                        -87.918658,
                        41.862138
                    ],
                    [
                        -87.918942,
                        41.861319
                    ],
                    [
                        -87.91938,
                        41.859846
                    ],
                    [
                        -87.919564,
                        41.85918
                    ],
                    [
                        -87.919643,
                        41.858952
                    ],
                    [
                        -87.919763,
                        41.857699
                    ],
                    [
                        -87.91974,
                        41.857314
                    ],
                    [
                        -87.919433,
                        41.854386
                    ],
                    [
                        -87.919369,
                        41.853463
                    ],
                    [
                        -87.919331,
                        41.850453
                    ],
                    [
                        -87.919262,
                        41.847721
                    ],
                    [
                        -87.919264,
                        41.847216
                    ],
                    [
                        -87.919291,
                        41.845957
                    ],
                    [
                        -87.919465,
                        41.844432
                    ],
                    [
                        -87.919774,
                        41.841975
                    ],
                    [
                        -87.919862,
                        41.840963
                    ],
                    [
                        -87.919869,
                        41.84051
                    ],
                    [
                        -87.919851,
                        41.840052
                    ],
                    [
                        -87.91982,
                        41.839608
                    ],
                    [
                        -87.919752,
                        41.839149
                    ],
                    [
                        -87.918856,
                        41.834928
                    ],
                    [
                        -87.918725,
                        41.834125
                    ],
                    [
                        -87.918657,
                        41.833438
                    ],
                    [
                        -87.918614,
                        41.832747
                    ],
                    [
                        -87.918427,
                        41.828819
                    ],
                    [
                        -87.918408,
                        41.828433
                    ],
                    [
                        -87.918304,
                        41.82683
                    ],
                    [
                        -87.918226,
                        41.826376
                    ],
                    [
                        -87.918148,
                        41.825922
                    ],
                    [
                        -87.917876,
                        41.825165
                    ],
                    [
                        -87.917485,
                        41.824393
                    ],
                    [
                        -87.917148,
                        41.823854
                    ],
                    [
                        -87.917038,
                        41.823493
                    ],
                    [
                        -87.916444,
                        41.822489
                    ],
                    [
                        -87.915664,
                        41.821043
                    ],
                    [
                        -87.915558,
                        41.820699
                    ],
                    [
                        -87.915537,
                        41.820493
                    ],
                    [
                        -87.915561,
                        41.820124
                    ],
                    [
                        -87.915689,
                        41.819722
                    ],
                    [
                        -87.915813,
                        41.819492
                    ],
                    [
                        -87.916336,
                        41.818702
                    ],
                    [
                        -87.916554,
                        41.818496
                    ],
                    [
                        -87.91686,
                        41.818304
                    ],
                    [
                        -87.917096,
                        41.818211
                    ],
                    [
                        -87.917258,
                        41.818166
                    ],
                    [
                        -87.918318,
                        41.817992
                    ],
                    [
                        -87.918737,
                        41.8178
                    ],
                    [
                        -87.9189,
                        41.817769
                    ],
                    [
                        -87.919346,
                        41.8177
                    ],
                    [
                        -87.919433,
                        41.817685
                    ],
                    [
                        -87.919969,
                        41.817597
                    ],
                    [
                        -87.920118,
                        41.817577
                    ],
                    [
                        -87.920323,
                        41.817544
                    ],
                    [
                        -87.920708,
                        41.817482
                    ],
                    [
                        -87.921191,
                        41.817407
                    ],
                    [
                        -87.92163,
                        41.817339
                    ],
                    [
                        -87.922209,
                        41.817246
                    ],
                    [
                        -87.92257,
                        41.817187
                    ],
                    [
                        -87.923067,
                        41.817107
                    ],
                    [
                        -87.923778,
                        41.816993
                    ],
                    [
                        -87.923991,
                        41.816958
                    ],
                    [
                        -87.924383,
                        41.816895
                    ],
                    [
                        -87.924594,
                        41.816861
                    ],
                    [
                        -87.924958,
                        41.816808
                    ],
                    [
                        -87.925044,
                        41.816796
                    ],
                    [
                        -87.925221,
                        41.816766
                    ],
                    [
                        -87.92553,
                        41.816704
                    ],
                    [
                        -87.925654,
                        41.816657
                    ],
                    [
                        -87.925536,
                        41.816371
                    ],
                    [
                        -87.925521,
                        41.816286
                    ],
                    [
                        -87.925509,
                        41.816172
                    ],
                    [
                        -87.92549,
                        41.815983
                    ],
                    [
                        -87.925463,
                        41.815706
                    ],
                    [
                        -87.925423,
                        41.815311
                    ],
                    [
                        -87.925412,
                        41.815195
                    ],
                    [
                        -87.92539,
                        41.814973
                    ],
                    [
                        -87.925355,
                        41.814554
                    ],
                    [
                        -87.925338,
                        41.81436
                    ],
                    [
                        -87.925324,
                        41.813824
                    ],
                    [
                        -87.925322,
                        41.813774
                    ],
                    [
                        -87.92562,
                        41.813277
                    ],
                    [
                        -87.926168,
                        41.812216
                    ],
                    [
                        -87.926834,
                        41.811021
                    ],
                    [
                        -87.927582,
                        41.811002
                    ],
                    [
                        -87.92755,
                        41.810278
                    ],
                    [
                        -87.927515,
                        41.809466
                    ],
                    [
                        -87.927498,
                        41.809085
                    ],
                    [
                        -87.927441,
                        41.807802
                    ],
                    [
                        -87.927376,
                        41.80632
                    ],
                    [
                        -87.924959,
                        41.806376
                    ],
                    [
                        -87.922547,
                        41.806432
                    ],
                    [
                        -87.922526,
                        41.806034
                    ],
                    [
                        -87.922406,
                        41.806049
                    ],
                    [
                        -87.922129,
                        41.806171
                    ],
                    [
                        -87.922028,
                        41.806195
                    ],
                    [
                        -87.921871,
                        41.806242
                    ],
                    [
                        -87.9218,
                        41.806299
                    ],
                    [
                        -87.921728,
                        41.806318
                    ],
                    [
                        -87.921278,
                        41.806327
                    ]
                ],
                "type": "LineString"
            }
        }
    ],
    "metadata": {
        "attribution": "openrouteservice.org | OpenStreetMap contributors",
        "service": "routing",
        "timestamp": 1756796220286,
        "query": {
            "coordinates": [
                [
                    -87.6244212,
                    41.8755616
                ],
                [
                    -87.921266,
                    41.80597
                ]
            ],
            "profile": "driving-car",
            "profileName": "driving-car",
            "format": "geojson"
        },
        "engine": {
            "version": "9.3.0",
            "build_date": "2025-06-06T15:39:25Z",
            "graph_date": "2025-08-31T11:45:10Z",
            "osm_date": "2025-08-24T23:59:58Z"
        }
    }
}