{
    "type": "FeatureCollection",
    "bbox": [
        -122.417622,
        47.974686,
        -122.351719,
        47.997036
    ],
    "features": [
        {
            "bbox": [
                -122.417622,
                47.974686,
                -122.351719,
                47.997036
            ],
            "type": "Feature",
            "properties": {
                "segments": [
                    {
                        "distance": 6399.9,
                        "duration": 433.3,
                        "steps": [
                            {
                                "distance": 22.3,
                                "duration": 3.2,
                                "type": 11,
                                "instruction": "Head east",
                                "name": "-",
                                "way_points": [
                                    0,
                                    1
                                ]
                            },
                            {
                                "distance": 30.1,
                                "duration": 2.2,
                                "type": 0,
                                "instruction": "Turn left onto Maxwelton Road",
                                "name": "Maxwelton Road",
                                "way_points": [
                                    1,
                                    2
                                ]
                            },
                            {
                                "distance": 1349.5,
                                "duration": 97.2,
                                "type": 1,
                                "instruction": "Turn right onto Midvale Road",
                                "name": "Midvale Road",
                                "way_points": [
                                    2,
                                    31
                                ]
                            },
                            {
                                "distance": 4998.0,
                                "duration": 330.7,
                                "type": 1,
                                "instruction": "Turn right onto State Route 525, WA 525",
                                "name": "State Route 525, WA 525",
                                "way_points": [
                                    31,
                                    94
                                ]
                            },
                            {
                                "distance": 0.0,
                                "duration": 0.0,
                                "type": 10,
                                "instruction": "Arrive at State Route 525, WA 525, on the left",
                                "name": "-",
                                "way_points": [
                                    94,
                                    94
                                ]
                            }
                        ]
                    }
                ],
                "way_points": [
                    0,
                    94
                ],
                "summary": {
                    "distance": 6399.9,
                    "duration": 433.3
                }
            },
            "geometry": {
                "coordinates": [
                    [
                        -122.417622,
                        47.992381
                    ],
                    [
                        -122.417329,
                        47.992393
                    ],
                    [
                        -122.417287,
                        47.992662
                    ],
                    [
                        -122.415228,
                        47.992474
                    ],
                    [
                        -122.413828,
                        47.992356
                    ],
                    [
                        -122.413517,
                        47.992332
                    ],
                    [
                        -122.413341,
                        47.992307
                    ],
                    [
                        -122.412921,
                        47.992267
                    ],
                    [
                        -122.411297,
                        47.992119
                    ],
                    [
                        -122.41117,
                        47.992134
                    ],
                    [
                        -122.410727,
                        47.992241
                    ],
                    [
                        -122.410514,
                        47.992368
                    ],
                    [
                        -122.410339,
                        47.992507
                    ],
                    [
                        -122.409966,
                        47.992921
                    ],
                    [
                        -122.409744,
                        47.993134
                    ],
                    [
                        -122.409542,
                        47.993278
                    ],
                    [
                        -122.40929,
                        47.993422
                    ],
                    [
                        -122.409062,
                        47.99351
                    ],
                    [
                        -122.408716,
                        47.9936
                    ],
                    [
                        -122.408391,
                        47.993635
                    ],
                    [
                        -122.407829,
                        47.993665
                    ],
                    [
                        -122.407452,
                        47.993721
                    ],
                    [
                        -122.407223,
                        47.993804
                    ],
                    [
                        -122.407022,
                        47.9939
                    ],
                    [
                        -122.40534,
                        47.995156
                    ],
                    [
                        -122.404974,
                        47.995475
                    ],
                    [
                        -122.404491,
                        47.995983
                    ],
                    [
                        -122.404262,
                        47.996136
                    ],
                    [
                        -122.404035,
                        47.996237
                    ],
                    [
                        -122.403451,
                        47.996436
                    ],
                    [
                        -122.403068,
                        47.996611
                    ],
                    [
                        -122.402246,
                        47.997036
                    ],
                    [
                        -122.401576,
                        47.996445
                    ],
                    [
                        -122.399819,
                        47.994692
                    ],
                    [
                        -122.399041,
                        47.993842
                    ],
                    [
                        -122.398057,
                        47.992812
                    ],
                    [
                        -122.397506,
                        47.992234
                    ],
                    [
                        -122.39744,
                        47.992165
                    ],
                    [
                        -122.397047,
                        47.991752
                    ],
                    [
                        -122.39703,
                        47.991736
                    ],
                    [
                        -122.396509,
                        47.991219
                    ],
                    [
                        -122.395538,
                        47.9902
                    ],
                    [
                        -122.395353,
                        47.990007
                    ],
                    [
                        -122.394893,
                        47.989525
                    ],
                    [
                        -122.394747,
                        47.989369
                    ],
                    [
                        -122.392578,
                        47.987063
                    ],
                    [
                        -122.392179,
                        47.986577
                    ],
                    [
                        -122.391054,
                        47.985561
                    ],
                    [
                        -122.390512,
                        47.985173
                    ],
                    [
                        -122.3887,
                        47.984107
                    ],
                    [
                        -122.385799,
                        47.982753
                    ],
                    [
                        -122.385054,
                        47.982392
                    ],
                    [
                        -122.384328,
                        47.98204
                    ],
                    [
                        -122.380057,
                        47.979993
                    ],
                    [
                        -122.377992,
                        47.979053
                    ],
                    [
                        -122.377268,
                        47.978803
                    ],
                    [
                        -122.376745,
                        47.9787
                    ],
                    [
                        -122.375895,
                        47.978602
                    ],
                    [
                        -122.375435,
                        47.978593
                    ],
                    [
                        -122.374862,
                        47.978621
                    ],
                    [
                        -122.373752,
                        47.978782
                    ],
                    [
                        -122.370785,
                        47.979196
                    ],
                    [
                        -122.368959,
                        47.979426
                    ],
                    [
                        -122.367922,
                        47.979478
                    ],
                    [
                        -122.367337,
                        47.979489
                    ],
                    [
                        -122.366098,
                        47.979514
                    ],
                    [
                        -122.365007,
                        47.979536
                    ],
                    [
                        -122.36286,
                        47.979591
                    ],
                    [
                        -122.362542,
                        47.979599
                    ],
                    [
                        -122.361574,
                        47.979624
                    ],
                    [
                        -122.360675,
                        47.97964
                    ],
                    [
                        -122.358977,
                        47.979662
                    ],
                    [
                        -122.358702,
                        47.97964
                    ],
                    [
                        -122.358529,
                        47.979637
                    ],
                    [
                        -122.358045,
                        47.979593
                    ],
                    [
                        -122.357678,
                        47.979528
                    ],
                    [
                        -122.357316,
                        47.979427
                    ],
                    [
                        -122.357173,
                        47.979377
                    ],
                    [
                        -122.356854,
                        47.979243
                    ],
                    [
                        -122.356542,
                        47.979075
                    ],
                    [
                        -122.356275,
                        47.978889
                    ],
                    [
                        -122.355768,
                        47.978482
                    ],
                    [
                        -122.355641,
                        47.97837
                    ],
                    [
                        -122.355341,
                        47.978094
                    ],
                    [
                        -122.353757,
                        47.976628
                    ],
                    [
                        -122.35348,
                        47.976334
                    ],
                    [
                        -122.353022,
                        47.9757
                    ],
                    [
                        -122.352556,
                        47.974922
                    ],
                    [
                        -122.352461,
                        47.97482
                    ],
                    [
                        -122.352289,
                        47.974739
                    ],
                    [
                        -122.35216,
                        47.974707
                    ],
                    [
                        -122.352076,
                        47.974686
                    ],
                    [
                        -122.351952,
                        47.97469
                    ],
                    [
                        -122.351821,
                        47.974715
                    ],
                    [
                        -122.351719,
                        47.974752
                    ]
                ],
                "type": "LineString"
            }
        }
    ],
    "metadata": {
        "attribution": "openrouteservice.org | OpenStreetMap contributors",
        "service": "routing",
        "timestamp": 1756793559290,
        "query": {
            "coordinates": [
                [
                    -122.41764,
                    47.99259
                ],
                [
                    -122.351728,
                    47.974763
                ]
            ],
            "profile": "driving-car",
            "profileName": "driving-car",
            "format": "geojson"
        },
        "engine": {
            "version": "9.3.0",
            "build_date": "2025-06-06T15:39:25Z",
            "graph_date": "2025-08-31T11:45:10Z",
            "osm_date": "2025-08-24T23:59:58Z"
        }
    }
}