{
    "type": "FeatureCollection",
    "bbox": [
        75.805081,
        26.854985,
        75.82055,
        26.91595
    ],
    "features": [
        {
            "bbox": [
                75.805081,
                26.854985,
                75.82055,
                26.91595
            ],
            "type": "Feature",
            "properties": {
                "segments": [
                    {
                        "distance": 7214.0,
                        "duration": 586.1,
                        "steps": [
                            {
                                "distance": 46.1,
                                "duration": 11.9,
                                "type": 11,
                                "instruction": "Head south",
                                "name": "-",
                                "way_points": [
                                    0,
                                    3
                                ]
                            },
                            {
                                "distance": 184.4,
                                "duration": 14.8,
                                "type": 4,
                                "instruction": "Turn slight left",
                                "name": "-",
                                "way_points": [
                                    3,
                                    5
                                ]
                            },
                            {
                                "distance": 194.0,
                                "duration": 15.9,
                                "type": 7,
                                "instruction": "Enter the roundabout and take the 2nd exit",
                                "name": "-",
                                "exit_number": 2,
                                "way_points": [
                                    5,
                                    12
                                ]
                            },
                            {
                                "distance": 383.7,
                                "duration": 27.6,
                                "type": 0,
                                "instruction": "Turn left",
                                "name": "-",
                                "way_points": [
                                    12,
                                    26
                                ]
                            },
                            {
                                "distance": 1222.0,
                                "duration": 80.2,
                                "type": 0,
                                "instruction": "Turn left",
                                "name": "-",
                                "way_points": [
                                    26,
                                    43
                                ]
                            },
                            {
                                "distance": 1616.1,
                                "duration": 104.1,
                                "type": 7,
                                "instruction": "Enter the roundabout and take the 2nd exit onto JLN Marg",
                                "name": "JLN Marg",
                                "exit_number": 2,
                                "way_points": [
                                    43,
                                    69
                                ]
                            },
                            {
                                "distance": 1004.1,
                                "duration": 84.1,
                                "type": 7,
                                "instruction": "Enter the roundabout and take the 2nd exit",
                                "name": "-",
                                "exit_number": 2,
                                "way_points": [
                                    69,
                                    84
                                ]
                            },
                            {
                                "distance": 14.2,
                                "duration": 3.4,
                                "type": 3,
                                "instruction": "Turn sharp right",
                                "name": "-",
                                "way_points": [
                                    84,
                                    85
                                ]
                            },
                            {
                                "distance": 1267.3,
                                "duration": 116.5,
                                "type": 2,
                                "instruction": "Turn sharp left onto JLN Marg",
                                "name": "JLN Marg",
                                "way_points": [
                                    85,
                                    99
                                ]
                            },
                            {
                                "distance": 9.6,
                                "duration": 2.3,
                                "type": 0,
                                "instruction": "Turn left",
                                "name": "-",
                                "way_points": [
                                    99,
                                    100
                                ]
                            },
                            {
                                "distance": 451.6,
                                "duration": 36.4,
                                "type": 1,
                                "instruction": "Turn right",
                                "name": "-",
                                "way_points": [
                                    100,
                                    106
                                ]
                            },
                            {
                                "distance": 638.6,
                                "duration": 58.5,
                                "type": 6,
                                "instruction": "Continue straight onto JLN Marg",
                                "name": "JLN Marg",
                                "way_points": [
                                    106,
                                    112
                                ]
                            },
                            {
                                "distance": 64.3,
                                "duration": 9.3,
                                "type": 12,
                                "instruction": "Keep left",
                                "name": "-",
                                "way_points": [
                                    112,
                                    114
                                ]
                            },
                            {
                                "distance": 117.9,
                                "duration": 21.2,
                                "type": 4,
                                "instruction": "Turn slight left",
                                "name": "-",
                                "way_points": [
                                    114,
                                    120
                                ]
                            },
                            {
                                "distance": 0.0,
                                "duration": 0.0,
                                "type": 10,
                                "instruction": "Arrive at your destination, on the left",
                                "name": "-",
                                "way_points": [
                                    120,
                                    120
                                ]
                            }
                        ]
                    }
                ],
                "extras": {
                    "roadaccessrestrictions": {
                        "values": [
                            [
                                0,
                                1,
                                0
                            ],
                            [
                                1,
                                43,
                                32
                            ],
                            [
                                43,
                                120,
                                0
                            ]
                        ],
                        "summary": [
                            {
                                "value": 0.0,
                                "distance": 5190.7,
                                "amount": 71.95
                            },
                            {
                                "value": 32.0,
                                "distance": 2023.3,
                                "amount": 28.05
                            }
                        ]
                    }
                },
                "warnings": [
                    {
                        "code": 1,
                        "message": "There may be restrictions on some roads"
                    }
                ],
                "way_points": [
                    0,
                    120
                ],
                "summary": {
                    "distance": 7214.0,
                    "duration": 586.1
                }
            },
            "geometry": {
                "coordinates": [
                    [
                        75.82055,
                        26.91595
                    ],
                    [
                        75.82054,
                        26.915888
                    ],
                    [
                        75.820486,
                        26.915626
                    ],
                    [
                        75.820407,
                        26.915576
                    ],
                    [
                        75.820094,
                        26.914201
                    ],
                    [
                        75.820019,
                        26.913955
                    ],
                    [
                        75.820086,
                        26.913925
                    ],
                    [
                        75.820118,
                        26.91389
                    ],
                    [
                        75.820129,
                        26.913792
                    ],
                    [
                        75.820064,
                        26.913719
                    ],
                    [
                        75.820018,
                        26.913703
                    ],
                    [
                        75.819956,
                        26.913705
                    ],
                    [
                        75.819657,
                        26.912391
                    ],
                    [
                        75.819863,
                        26.912318
                    ],
                    [
                        75.819998,
                        26.912231
                    ],
                    [
                        75.820106,
                        26.912119
                    ],
                    [
                        75.820185,
                        26.911966
                    ],
                    [
                        75.820222,
                        26.911794
                    ],
                    [
                        75.820212,
                        26.911613
                    ],
                    [
                        75.820146,
                        26.911321
                    ],
                    [
                        75.819862,
                        26.9102
                    ],
                    [
                        75.819811,
                        26.91007
                    ],
                    [
                        75.819724,
                        26.909945
                    ],
                    [
                        75.819612,
                        26.909857
                    ],
                    [
                        75.819467,
                        26.909795
                    ],
                    [
                        75.819157,
                        26.909741
                    ],
                    [
                        75.819,
                        26.909763
                    ],
                    [
                        75.818921,
                        26.909429
                    ],
                    [
                        75.818674,
                        26.908383
                    ],
                    [
                        75.818562,
                        26.907912
                    ],
                    [
                        75.818486,
                        26.907608
                    ],
                    [
                        75.818235,
                        26.906604
                    ],
                    [
                        75.81808,
                        26.905982
                    ],
                    [
                        75.817895,
                        26.90526
                    ],
                    [
                        75.817679,
                        26.904437
                    ],
                    [
                        75.817648,
                        26.904322
                    ],
                    [
                        75.817233,
                        26.902743
                    ],
                    [
                        75.816934,
                        26.901606
                    ],
                    [
                        75.816907,
                        26.901505
                    ],
                    [
                        75.816899,
                        26.901473
                    ],
                    [
                        75.816758,
                        26.900938
                    ],
                    [
                        75.816392,
                        26.899425
                    ],
                    [
                        75.816351,
                        26.899255
                    ],
                    [
                        75.816338,
                        26.899037
                    ],
                    [
                        75.816376,
                        26.898981
                    ],
                    [
                        75.816385,
                        26.898889
                    ],
                    [
                        75.816378,
                        26.89885
                    ],
                    [
                        75.816336,
                        26.898788
                    ],
                    [
                        75.816263,
                        26.898747
                    ],
                    [
                        75.816175,
                        26.898596
                    ],
                    [
                        75.81615,
                        26.898553
                    ],
                    [
                        75.815697,
                        26.896779
                    ],
                    [
                        75.815552,
                        26.896239
                    ],
                    [
                        75.815233,
                        26.894857
                    ],
                    [
                        75.815212,
                        26.894778
                    ],
                    [
                        75.815157,
                        26.894562
                    ],
                    [
                        75.81515,
                        26.894537
                    ],
                    [
                        75.814906,
                        26.893627
                    ],
                    [
                        75.814631,
                        26.892459
                    ],
                    [
                        75.814508,
                        26.892086
                    ],
                    [
                        75.814478,
                        26.891961
                    ],
                    [
                        75.814434,
                        26.891826
                    ],
                    [
                        75.814322,
                        26.891588
                    ],
                    [
                        75.814264,
                        26.891378
                    ],
                    [
                        75.813624,
                        26.888734
                    ],
                    [
                        75.813585,
                        26.888621
                    ],
                    [
                        75.813133,
                        26.886812
                    ],
                    [
                        75.812944,
                        26.885985
                    ],
                    [
                        75.812715,
                        26.885162
                    ],
                    [
                        75.812659,
                        26.884941
                    ],
                    [
                        75.812763,
                        26.88483
                    ],
                    [
                        75.8128,
                        26.884751
                    ],
                    [
                        75.812806,
                        26.88464
                    ],
                    [
                        75.81279,
                        26.884574
                    ],
                    [
                        75.812756,
                        26.884469
                    ],
                    [
                        75.812674,
                        26.88435
                    ],
                    [
                        75.812549,
                        26.884266
                    ],
                    [
                        75.812341,
                        26.883466
                    ],
                    [
                        75.811961,
                        26.881971
                    ],
                    [
                        75.811724,
                        26.8809
                    ],
                    [
                        75.811681,
                        26.880753
                    ],
                    [
                        75.811283,
                        26.879225
                    ],
                    [
                        75.810883,
                        26.877655
                    ],
                    [
                        75.810692,
                        26.876903
                    ],
                    [
                        75.810522,
                        26.876236
                    ],
                    [
                        75.810418,
                        26.876324
                    ],
                    [
                        75.810175,
                        26.875328
                    ],
                    [
                        75.810165,
                        26.875294
                    ],
                    [
                        75.810155,
                        26.875255
                    ],
                    [
                        75.809882,
                        26.874227
                    ],
                    [
                        75.809133,
                        26.871388
                    ],
                    [
                        75.808977,
                        26.870801
                    ],
                    [
                        75.808937,
                        26.870642
                    ],
                    [
                        75.808875,
                        26.870397
                    ],
                    [
                        75.808553,
                        26.869044
                    ],
                    [
                        75.80823,
                        26.867733
                    ],
                    [
                        75.808218,
                        26.867687
                    ],
                    [
                        75.808145,
                        26.867406
                    ],
                    [
                        75.807957,
                        26.866674
                    ],
                    [
                        75.807582,
                        26.865211
                    ],
                    [
                        75.807678,
                        26.865197
                    ],
                    [
                        75.807552,
                        26.864576
                    ],
                    [
                        75.806871,
                        26.861957
                    ],
                    [
                        75.806826,
                        26.861838
                    ],
                    [
                        75.806732,
                        26.861701
                    ],
                    [
                        75.806592,
                        26.861556
                    ],
                    [
                        75.806535,
                        26.861296
                    ],
                    [
                        75.806309,
                        26.860462
                    ],
                    [
                        75.806278,
                        26.860348
                    ],
                    [
                        75.806077,
                        26.859497
                    ],
                    [
                        75.805365,
                        26.856788
                    ],
                    [
                        75.805104,
                        26.855806
                    ],
                    [
                        75.805081,
                        26.855702
                    ],
                    [
                        75.805211,
                        26.855502
                    ],
                    [
                        75.805468,
                        26.855241
                    ],
                    [
                        75.805579,
                        26.855222
                    ],
                    [
                        75.805707,
                        26.85519
                    ],
                    [
                        75.80614,
                        26.855082
                    ],
                    [
                        75.80646,
                        26.855017
                    ],
                    [
                        75.806543,
                        26.855001
                    ],
                    [
                        75.80662,
                        26.854985
                    ]
                ],
                "type": "LineString"
            }
        }
    ],
    "metadata": {
        "attribution": "openrouteservice.org | OpenStreetMap contributors",
        "service": "routing",
        "timestamp": 1756632298573,
        "query": {
            "coordinates": [
                [
                    75.820505,
                    26.915956
                ],
                [
                    75.806624,
                    26.855001
                ]
            ],
            "profile": "driving-car",
            "profileName": "driving-car",
            "format": "geojson"
        },
        "engine": {
            "version": "9.3.0",
            "build_date": "2025-06-06T15:39:25Z",
            "graph_date": "2025-08-24T11:22:16Z",
            "osm_date": "2025-08-18T00:00:00Z"
        }
    }
}