{
    "type": "FeatureCollection",
    "bbox": [
        -87.465218,
        20.210818,
        -87.436735,
        20.2186
    ],
    "features": [
        {
            "bbox": [
                -87.465218,
                20.210818,
                -87.436735,
                20.2186
            ],
            "type": "Feature",
            "properties": {
                "segments": [
                    {
                        "distance": 3583.5,
                        "duration": 488.1,
                        "steps": [
                            {
                                "distance": 143.0,
                                "duration": 34.3,
                                "type": 11,
                                "instruction": "Head east on Polar Oriente",
                                "name": "Polar Oriente",
                                "way_points": [
                                    0,
                                    1
                                ]
                            },
                            {
                                "distance": 81.5,
                                "duration": 19.6,
                                "type": 1,
                                "instruction": "Turn right onto Alfa Norte",
                                "name": "Alfa Norte",
                                "way_points": [
                                    1,
                                    2
                                ]
                            },
                            {
                                "distance": 1169.8,
                                "duration": 172.2,
                                "type": 1,
                                "instruction": "Turn right",
                                "name": "-",
                                "way_points": [
                                    2,
                                    18
                                ]
                            },
                            {
                                "distance": 1530.0,
                                "duration": 112.6,
                                "type": 6,
                                "instruction": "Continue straight onto Carretera Reforma Agraria - Puerto Ju\u00e1rez, MEX 307",
                                "name": "Carretera Reforma Agraria - Puerto Ju\u00e1rez, MEX 307",
                                "way_points": [
                                    18,
                                    30
                                ]
                            },
                            {
                                "distance": 92.7,
                                "duration": 22.2,
                                "type": 1,
                                "instruction": "Turn right",
                                "name": "-",
                                "way_points": [
                                    30,
                                    33
                                ]
                            },
                            {
                                "distance": 234.0,
                                "duration": 56.2,
                                "type": 1,
                                "instruction": "Turn right",
                                "name": "-",
                                "way_points": [
                                    33,
                                    36
                                ]
                            },
                            {
                                "distance": 186.4,
                                "duration": 44.7,
                                "type": 0,
                                "instruction": "Turn left",
                                "name": "-",
                                "way_points": [
                                    36,
                                    41
                                ]
                            },
                            {
                                "distance": 105.6,
                                "duration": 19.0,
                                "type": 0,
                                "instruction": "Turn left",
                                "name": "-",
                                "way_points": [
                                    41,
                                    44
                                ]
                            },
                            {
                                "distance": 40.5,
                                "duration": 7.3,
                                "type": 3,
                                "instruction": "Turn sharp right",
                                "name": "-",
                                "way_points": [
                                    44,
                                    47
                                ]
                            },
                            {
                                "distance": 0.0,
                                "duration": 0.0,
                                "type": 10,
                                "instruction": "Arrive at your destination, straight ahead",
                                "name": "-",
                                "way_points": [
                                    47,
                                    47
                                ]
                            }
                        ]
                    }
                ],
                "way_points": [
                    0,
                    47
                ],
                "summary": {
                    "distance": 3583.5,
                    "duration": 488.1
                }
            },
            "geometry": {
                "coordinates": [
                    [
                        -87.465218,
                        20.21121
                    ],
                    [
                        -87.463924,
                        20.211634
                    ],
                    [
                        -87.463784,
                        20.210913
                    ],
                    [
                        -87.463814,
                        20.210888
                    ],
                    [
                        -87.463824,
                        20.210846
                    ],
                    [
                        -87.463796,
                        20.210818
                    ],
                    [
                        -87.463756,
                        20.210818
                    ],
                    [
                        -87.46322,
                        20.210998
                    ],
                    [
                        -87.462805,
                        20.211137
                    ],
                    [
                        -87.461803,
                        20.211458
                    ],
                    [
                        -87.4607,
                        20.211814
                    ],
                    [
                        -87.459519,
                        20.212173
                    ],
                    [
                        -87.458444,
                        20.212506
                    ],
                    [
                        -87.458312,
                        20.212545
                    ],
                    [
                        -87.457085,
                        20.212919
                    ],
                    [
                        -87.455893,
                        20.213305
                    ],
                    [
                        -87.454748,
                        20.213665
                    ],
                    [
                        -87.45337,
                        20.214111
                    ],
                    [
                        -87.453294,
                        20.214138
                    ],
                    [
                        -87.451697,
                        20.214653
                    ],
                    [
                        -87.450562,
                        20.215019
                    ],
                    [
                        -87.448386,
                        20.215706
                    ],
                    [
                        -87.446713,
                        20.216234
                    ],
                    [
                        -87.446113,
                        20.216424
                    ],
                    [
                        -87.445925,
                        20.216485
                    ],
                    [
                        -87.444644,
                        20.216909
                    ],
                    [
                        -87.442071,
                        20.217743
                    ],
                    [
                        -87.440426,
                        20.218262
                    ],
                    [
                        -87.440164,
                        20.218347
                    ],
                    [
                        -87.439838,
                        20.218453
                    ],
                    [
                        -87.439424,
                        20.2186
                    ],
                    [
                        -87.439249,
                        20.218053
                    ],
                    [
                        -87.439149,
                        20.217932
                    ],
                    [
                        -87.439038,
                        20.217899
                    ],
                    [
                        -87.438933,
                        20.217655
                    ],
                    [
                        -87.438546,
                        20.21656
                    ],
                    [
                        -87.438292,
                        20.215916
                    ],
                    [
                        -87.438066,
                        20.215947
                    ],
                    [
                        -87.437935,
                        20.21601
                    ],
                    [
                        -87.437602,
                        20.21602
                    ],
                    [
                        -87.437307,
                        20.216203
                    ],
                    [
                        -87.436735,
                        20.21662
                    ],
                    [
                        -87.436841,
                        20.216702
                    ],
                    [
                        -87.437218,
                        20.217096
                    ],
                    [
                        -87.437288,
                        20.21738
                    ],
                    [
                        -87.437054,
                        20.2173
                    ],
                    [
                        -87.436979,
                        20.2173
                    ],
                    [
                        -87.436921,
                        20.217325
                    ]
                ],
                "type": "LineString"
            }
        }
    ],
    "metadata": {
        "attribution": "openrouteservice.org | OpenStreetMap contributors",
        "service": "routing",
        "timestamp": 1756799301146,
        "query": {
            "coordinates": [
                [
                    -87.465124,
                    20.210958
                ],
                [
                    -87.436921,
                    20.217326
                ]
            ],
            "profile": "driving-car",
            "profileName": "driving-car",
            "format": "geojson"
        },
        "engine": {
            "version": "9.3.0",
            "build_date": "2025-06-06T15:39:25Z",
            "graph_date": "2025-08-31T11:45:10Z",
            "osm_date": "2025-08-24T23:59:58Z"
        }
    }
}