{
    "type": "FeatureCollection",
    "bbox": [
        76.113493,
        27.330129,
        76.147023,
        27.399334
    ],
    "features": [
        {
            "bbox": [
                76.113493,
                27.330129,
                76.147023,
                27.399334
            ],
            "type": "Feature",
            "properties": {
                "segments": [
                    {
                        "distance": 9674.0,
                        "duration": 819.3,
                        "steps": [
                            {
                                "distance": 757.1,
                                "duration": 45.4,
                                "type": 11,
                                "instruction": "Head southeast on MDR188",
                                "name": "MDR188",
                                "way_points": [
                                    0,
                                    13
                                ]
                            },
                            {
                                "distance": 6169.4,
                                "duration": 444.2,
                                "type": 6,
                                "instruction": "Continue straight",
                                "name": "-",
                                "way_points": [
                                    13,
                                    42
                                ]
                            },
                            {
                                "distance": 2747.5,
                                "duration": 329.7,
                                "type": 1,
                                "instruction": "Turn right",
                                "name": "-",
                                "way_points": [
                                    42,
                                    56
                                ]
                            },
                            {
                                "distance": 0.0,
                                "duration": 0.0,
                                "type": 10,
                                "instruction": "Arrive at your destination, on the left",
                                "name": "-",
                                "way_points": [
                                    56,
                                    56
                                ]
                            }
                        ]
                    }
                ],
                "way_points": [
                    0,
                    56
                ],
                "summary": {
                    "distance": 9674.0,
                    "duration": 819.3
                }
            },
            "geometry": {
                "coordinates": [
                    [
                        76.113493,
                        27.399334
                    ],
                    [
                        76.113637,
                        27.399165
                    ],
                    [
                        76.113776,
                        27.399004
                    ],
                    [
                        76.114087,
                        27.398794
                    ],
                    [
                        76.114393,
                        27.398704
                    ],
                    [
                        76.116759,
                        27.398201
                    ],
                    [
                        76.118982,
                        27.397763
                    ],
                    [
                        76.119382,
                        27.397665
                    ],
                    [
                        76.119634,
                        27.397556
                    ],
                    [
                        76.119749,
                        27.39748
                    ],
                    [
                        76.119918,
                        27.397277
                    ],
                    [
                        76.119967,
                        27.39712
                    ],
                    [
                        76.120011,
                        27.396891
                    ],
                    [
                        76.120081,
                        27.396715
                    ],
                    [
                        76.120185,
                        27.396322
                    ],
                    [
                        76.120034,
                        27.395995
                    ],
                    [
                        76.118597,
                        27.393069
                    ],
                    [
                        76.118222,
                        27.392074
                    ],
                    [
                        76.117498,
                        27.387858
                    ],
                    [
                        76.117492,
                        27.38642
                    ],
                    [
                        76.117975,
                        27.383181
                    ],
                    [
                        76.118479,
                        27.379937
                    ],
                    [
                        76.119027,
                        27.376641
                    ],
                    [
                        76.119161,
                        27.375126
                    ],
                    [
                        76.119402,
                        27.37424
                    ],
                    [
                        76.119633,
                        27.37374
                    ],
                    [
                        76.119845,
                        27.373481
                    ],
                    [
                        76.120153,
                        27.373106
                    ],
                    [
                        76.125319,
                        27.368399
                    ],
                    [
                        76.126146,
                        27.367618
                    ],
                    [
                        76.127277,
                        27.366594
                    ],
                    [
                        76.128795,
                        27.365184
                    ],
                    [
                        76.130501,
                        27.36364
                    ],
                    [
                        76.131692,
                        27.362749
                    ],
                    [
                        76.13645,
                        27.360076
                    ],
                    [
                        76.138886,
                        27.358895
                    ],
                    [
                        76.140758,
                        27.358013
                    ],
                    [
                        76.142008,
                        27.357113
                    ],
                    [
                        76.14396,
                        27.35575
                    ],
                    [
                        76.145961,
                        27.354483
                    ],
                    [
                        76.146557,
                        27.353978
                    ],
                    [
                        76.146889,
                        27.353525
                    ],
                    [
                        76.147023,
                        27.353454
                    ],
                    [
                        76.146997,
                        27.352639
                    ],
                    [
                        76.146857,
                        27.351705
                    ],
                    [
                        76.146648,
                        27.351009
                    ],
                    [
                        76.146294,
                        27.350242
                    ],
                    [
                        76.146192,
                        27.349304
                    ],
                    [
                        76.146482,
                        27.346116
                    ],
                    [
                        76.146476,
                        27.343915
                    ],
                    [
                        76.146417,
                        27.342609
                    ],
                    [
                        76.145908,
                        27.340436
                    ],
                    [
                        76.145752,
                        27.339659
                    ],
                    [
                        76.14498,
                        27.338301
                    ],
                    [
                        76.143209,
                        27.33537
                    ],
                    [
                        76.141627,
                        27.332678
                    ],
                    [
                        76.140189,
                        27.330129
                    ]
                ],
                "type": "LineString"
            }
        }
    ],
    "metadata": {
        "attribution": "openrouteservice.org | OpenStreetMap contributors",
        "service": "routing",
        "timestamp": 1756630777504,
        "query": {
            "coordinates": [
                [
                    76.113505,
                    27.399342
                ],
                [
                    76.141412,
                    27.329585
                ]
            ],
            "profile": "driving-car",
            "profileName": "driving-car",
            "format": "geojson"
        },
        "engine": {
            "version": "9.3.0",
            "build_date": "2025-06-06T15:39:25Z",
            "graph_date": "2025-08-24T11:22:16Z",
            "osm_date": "2025-08-18T00:00:00Z"
        }
    }
}