{
    "type": "FeatureCollection",
    "bbox": [
        -87.613854,
        20.078921,
        -87.463784,
        20.211634
    ],
    "features": [
        {
            "bbox": [
                -87.613854,
                20.078921,
                -87.463784,
                20.211634
            ],
            "type": "Feature",
            "properties": {
                "segments": [
                    {
                        "distance": 22980.4,
                        "duration": 1133.3,
                        "steps": [
                            {
                                "distance": 143.0,
                                "duration": 34.3,
                                "type": 11,
                                "instruction": "Head east on Polar Oriente",
                                "name": "Polar Oriente",
                                "way_points": [
                                    0,
                                    1
                                ]
                            },
                            {
                                "distance": 81.5,
                                "duration": 19.6,
                                "type": 1,
                                "instruction": "Turn right onto Alfa Norte",
                                "name": "Alfa Norte",
                                "way_points": [
                                    1,
                                    2
                                ]
                            },
                            {
                                "distance": 22735.0,
                                "duration": 1074.4,
                                "type": 1,
                                "instruction": "Turn right onto Avenida Tulum, MEX 307",
                                "name": "Avenida Tulum, MEX 307",
                                "way_points": [
                                    2,
                                    115
                                ]
                            },
                            {
                                "distance": 20.9,
                                "duration": 5.0,
                                "type": 0,
                                "instruction": "Turn left",
                                "name": "-",
                                "way_points": [
                                    115,
                                    116
                                ]
                            },
                            {
                                "distance": 0.0,
                                "duration": 0.0,
                                "type": 10,
                                "instruction": "Arrive at your destination, on the right",
                                "name": "-",
                                "way_points": [
                                    116,
                                    116
                                ]
                            }
                        ]
                    }
                ],
                "way_points": [
                    0,
                    116
                ],
                "summary": {
                    "distance": 22980.4,
                    "duration": 1133.3
                }
            },
            "geometry": {
                "coordinates": [
                    [
                        -87.465218,
                        20.21121
                    ],
                    [
                        -87.463924,
                        20.211634
                    ],
                    [
                        -87.463784,
                        20.210913
                    ],
                    [
                        -87.464803,
                        20.210562
                    ],
                    [
                        -87.465652,
                        20.210294
                    ],
                    [
                        -87.467055,
                        20.209857
                    ],
                    [
                        -87.468189,
                        20.209476
                    ],
                    [
                        -87.469781,
                        20.208985
                    ],
                    [
                        -87.470113,
                        20.208866
                    ],
                    [
                        -87.471288,
                        20.208499
                    ],
                    [
                        -87.472511,
                        20.208095
                    ],
                    [
                        -87.473721,
                        20.207672
                    ],
                    [
                        -87.474409,
                        20.20744
                    ],
                    [
                        -87.474702,
                        20.207342
                    ],
                    [
                        -87.475361,
                        20.20713
                    ],
                    [
                        -87.475686,
                        20.207026
                    ],
                    [
                        -87.476229,
                        20.206849
                    ],
                    [
                        -87.476763,
                        20.206682
                    ],
                    [
                        -87.477357,
                        20.206499
                    ],
                    [
                        -87.47783,
                        20.206338
                    ],
                    [
                        -87.478359,
                        20.20617
                    ],
                    [
                        -87.479369,
                        20.205836
                    ],
                    [
                        -87.479576,
                        20.20577
                    ],
                    [
                        -87.482801,
                        20.204723
                    ],
                    [
                        -87.482963,
                        20.204671
                    ],
                    [
                        -87.487936,
                        20.203092
                    ],
                    [
                        -87.488106,
                        20.203031
                    ],
                    [
                        -87.491674,
                        20.201889
                    ],
                    [
                        -87.492706,
                        20.201559
                    ],
                    [
                        -87.495572,
                        20.20064
                    ],
                    [
                        -87.497846,
                        20.199912
                    ],
                    [
                        -87.498592,
                        20.199703
                    ],
                    [
                        -87.499536,
                        20.19937
                    ],
                    [
                        -87.499935,
                        20.199242
                    ],
                    [
                        -87.500227,
                        20.199149
                    ],
                    [
                        -87.502921,
                        20.198287
                    ],
                    [
                        -87.503808,
                        20.198001
                    ],
                    [
                        -87.505214,
                        20.197548
                    ],
                    [
                        -87.505698,
                        20.197392
                    ],
                    [
                        -87.506035,
                        20.197284
                    ],
                    [
                        -87.508566,
                        20.196475
                    ],
                    [
                        -87.510862,
                        20.195741
                    ],
                    [
                        -87.511941,
                        20.195361
                    ],
                    [
                        -87.512352,
                        20.195189
                    ],
                    [
                        -87.51322,
                        20.194759
                    ],
                    [
                        -87.514957,
                        20.19386
                    ],
                    [
                        -87.515727,
                        20.193462
                    ],
                    [
                        -87.51769,
                        20.192433
                    ],
                    [
                        -87.518423,
                        20.192052
                    ],
                    [
                        -87.51944,
                        20.191495
                    ],
                    [
                        -87.520094,
                        20.191155
                    ],
                    [
                        -87.521383,
                        20.190471
                    ],
                    [
                        -87.524359,
                        20.188908
                    ],
                    [
                        -87.525742,
                        20.188184
                    ],
                    [
                        -87.525861,
                        20.188122
                    ],
                    [
                        -87.526676,
                        20.187693
                    ],
                    [
                        -87.527128,
                        20.187455
                    ],
                    [
                        -87.528255,
                        20.186855
                    ],
                    [
                        -87.528504,
                        20.186724
                    ],
                    [
                        -87.529655,
                        20.186114
                    ],
                    [
                        -87.531133,
                        20.18533
                    ],
                    [
                        -87.531425,
                        20.185169
                    ],
                    [
                        -87.533136,
                        20.184275
                    ],
                    [
                        -87.536235,
                        20.182673
                    ],
                    [
                        -87.542799,
                        20.179196
                    ],
                    [
                        -87.544442,
                        20.178323
                    ],
                    [
                        -87.548152,
                        20.17637
                    ],
                    [
                        -87.552403,
                        20.174126
                    ],
                    [
                        -87.562165,
                        20.168986
                    ],
                    [
                        -87.562752,
                        20.16862
                    ],
                    [
                        -87.563184,
                        20.16828
                    ],
                    [
                        -87.563583,
                        20.167905
                    ],
                    [
                        -87.563931,
                        20.167495
                    ],
                    [
                        -87.564254,
                        20.167023
                    ],
                    [
                        -87.569441,
                        20.156942
                    ],
                    [
                        -87.570028,
                        20.155795
                    ],
                    [
                        -87.571999,
                        20.151962
                    ],
                    [
                        -87.57563,
                        20.144859
                    ],
                    [
                        -87.576787,
                        20.142617
                    ],
                    [
                        -87.579022,
                        20.138269
                    ],
                    [
                        -87.579173,
                        20.137975
                    ],
                    [
                        -87.580908,
                        20.134605
                    ],
                    [
                        -87.581812,
                        20.132843
                    ],
                    [
                        -87.582753,
                        20.131008
                    ],
                    [
                        -87.583492,
                        20.129567
                    ],
                    [
                        -87.584636,
                        20.127337
                    ],
                    [
                        -87.586785,
                        20.123136
                    ],
                    [
                        -87.588213,
                        20.120359
                    ],
                    [
                        -87.589695,
                        20.117175
                    ],
                    [
                        -87.590074,
                        20.116311
                    ],
                    [
                        -87.590477,
                        20.115458
                    ],
                    [
                        -87.590751,
                        20.114874
                    ],
                    [
                        -87.591107,
                        20.114075
                    ],
                    [
                        -87.591545,
                        20.113206
                    ],
                    [
                        -87.59174,
                        20.112891
                    ],
                    [
                        -87.592315,
                        20.111685
                    ],
                    [
                        -87.592498,
                        20.111278
                    ],
                    [
                        -87.59295,
                        20.11035
                    ],
                    [
                        -87.593003,
                        20.110245
                    ],
                    [
                        -87.593949,
                        20.108182
                    ],
                    [
                        -87.594193,
                        20.107702
                    ],
                    [
                        -87.594294,
                        20.107541
                    ],
                    [
                        -87.594691,
                        20.106845
                    ],
                    [
                        -87.595289,
                        20.106135
                    ],
                    [
                        -87.595389,
                        20.106003
                    ],
                    [
                        -87.596772,
                        20.104413
                    ],
                    [
                        -87.598126,
                        20.102761
                    ],
                    [
                        -87.601608,
                        20.098543
                    ],
                    [
                        -87.602085,
                        20.097934
                    ],
                    [
                        -87.602629,
                        20.097142
                    ],
                    [
                        -87.605961,
                        20.091735
                    ],
                    [
                        -87.606009,
                        20.091656
                    ],
                    [
                        -87.60934,
                        20.086309
                    ],
                    [
                        -87.611295,
                        20.083215
                    ],
                    [
                        -87.613072,
                        20.080346
                    ],
                    [
                        -87.613854,
                        20.079017
                    ],
                    [
                        -87.613681,
                        20.078921
                    ]
                ],
                "type": "LineString"
            }
        }
    ],
    "metadata": {
        "attribution": "openrouteservice.org | OpenStreetMap contributors",
        "service": "routing",
        "timestamp": 1756799300628,
        "query": {
            "coordinates": [
                [
                    -87.465124,
                    20.210958
                ],
                [
                    -87.613734,
                    20.078838
                ]
            ],
            "profile": "driving-car",
            "profileName": "driving-car",
            "format": "geojson"
        },
        "engine": {
            "version": "9.3.0",
            "build_date": "2025-06-06T15:39:25Z",
            "graph_date": "2025-08-31T11:45:10Z",
            "osm_date": "2025-08-24T23:59:58Z"
        }
    }
}