{
    "type": "FeatureCollection",
    "bbox": [
        -87.465218,
        20.210818,
        -87.360068,
        20.328106
    ],
    "features": [
        {
            "bbox": [
                -87.465218,
                20.210818,
                -87.360068,
                20.328106
            ],
            "type": "Feature",
            "properties": {
                "segments": [
                    {
                        "distance": 22215.1,
                        "duration": 1523.6,
                        "steps": [
                            {
                                "distance": 143.0,
                                "duration": 34.3,
                                "type": 11,
                                "instruction": "Head east on Polar Oriente",
                                "name": "Polar Oriente",
                                "way_points": [
                                    0,
                                    1
                                ]
                            },
                            {
                                "distance": 81.5,
                                "duration": 19.6,
                                "type": 1,
                                "instruction": "Turn right onto Alfa Norte",
                                "name": "Alfa Norte",
                                "way_points": [
                                    1,
                                    2
                                ]
                            },
                            {
                                "distance": 1169.8,
                                "duration": 172.2,
                                "type": 1,
                                "instruction": "Turn right",
                                "name": "-",
                                "way_points": [
                                    2,
                                    18
                                ]
                            },
                            {
                                "distance": 16472.9,
                                "duration": 722.5,
                                "type": 6,
                                "instruction": "Continue straight onto Carretera Reforma Agraria - Puerto Ju\u00e1rez, MEX 307",
                                "name": "Carretera Reforma Agraria - Puerto Ju\u00e1rez, MEX 307",
                                "way_points": [
                                    18,
                                    87
                                ]
                            },
                            {
                                "distance": 1568.8,
                                "duration": 69.3,
                                "type": 6,
                                "instruction": "Continue straight onto Carretera Reforma Agraria - Puerto Ju\u00e1rez, MEX 307",
                                "name": "Carretera Reforma Agraria - Puerto Ju\u00e1rez, MEX 307",
                                "way_points": [
                                    87,
                                    94
                                ]
                            },
                            {
                                "distance": 309.9,
                                "duration": 49.3,
                                "type": 1,
                                "instruction": "Turn right",
                                "name": "-",
                                "way_points": [
                                    94,
                                    98
                                ]
                            },
                            {
                                "distance": 2341.2,
                                "duration": 425.8,
                                "type": 6,
                                "instruction": "Continue straight",
                                "name": "-",
                                "way_points": [
                                    98,
                                    121
                                ]
                            },
                            {
                                "distance": 128.0,
                                "duration": 30.7,
                                "type": 0,
                                "instruction": "Turn left",
                                "name": "-",
                                "way_points": [
                                    121,
                                    125
                                ]
                            },
                            {
                                "distance": 0.0,
                                "duration": 0.0,
                                "type": 10,
                                "instruction": "Arrive at your destination, on the left",
                                "name": "-",
                                "way_points": [
                                    125,
                                    125
                                ]
                            }
                        ]
                    }
                ],
                "way_points": [
                    0,
                    125
                ],
                "summary": {
                    "distance": 22215.1,
                    "duration": 1523.6
                }
            },
            "geometry": {
                "coordinates": [
                    [
                        -87.465218,
                        20.21121
                    ],
                    [
                        -87.463924,
                        20.211634
                    ],
                    [
                        -87.463784,
                        20.210913
                    ],
                    [
                        -87.463814,
                        20.210888
                    ],
                    [
                        -87.463824,
                        20.210846
                    ],
                    [
                        -87.463796,
                        20.210818
                    ],
                    [
                        -87.463756,
                        20.210818
                    ],
                    [
                        -87.46322,
                        20.210998
                    ],
                    [
                        -87.462805,
                        20.211137
                    ],
                    [
                        -87.461803,
                        20.211458
                    ],
                    [
                        -87.4607,
                        20.211814
                    ],
                    [
                        -87.459519,
                        20.212173
                    ],
                    [
                        -87.458444,
                        20.212506
                    ],
                    [
                        -87.458312,
                        20.212545
                    ],
                    [
                        -87.457085,
                        20.212919
                    ],
                    [
                        -87.455893,
                        20.213305
                    ],
                    [
                        -87.454748,
                        20.213665
                    ],
                    [
                        -87.45337,
                        20.214111
                    ],
                    [
                        -87.453294,
                        20.214138
                    ],
                    [
                        -87.451697,
                        20.214653
                    ],
                    [
                        -87.450562,
                        20.215019
                    ],
                    [
                        -87.448386,
                        20.215706
                    ],
                    [
                        -87.446713,
                        20.216234
                    ],
                    [
                        -87.446113,
                        20.216424
                    ],
                    [
                        -87.445925,
                        20.216485
                    ],
                    [
                        -87.444644,
                        20.216909
                    ],
                    [
                        -87.442071,
                        20.217743
                    ],
                    [
                        -87.440426,
                        20.218262
                    ],
                    [
                        -87.440164,
                        20.218347
                    ],
                    [
                        -87.439838,
                        20.218453
                    ],
                    [
                        -87.439424,
                        20.2186
                    ],
                    [
                        -87.439161,
                        20.218676
                    ],
                    [
                        -87.437625,
                        20.219173
                    ],
                    [
                        -87.437241,
                        20.219294
                    ],
                    [
                        -87.436762,
                        20.219451
                    ],
                    [
                        -87.436052,
                        20.219683
                    ],
                    [
                        -87.435965,
                        20.219708
                    ],
                    [
                        -87.435888,
                        20.219734
                    ],
                    [
                        -87.433306,
                        20.220561
                    ],
                    [
                        -87.432473,
                        20.22081
                    ],
                    [
                        -87.43166,
                        20.221112
                    ],
                    [
                        -87.431073,
                        20.221356
                    ],
                    [
                        -87.430514,
                        20.221656
                    ],
                    [
                        -87.430029,
                        20.221965
                    ],
                    [
                        -87.429639,
                        20.222276
                    ],
                    [
                        -87.42924,
                        20.22262
                    ],
                    [
                        -87.42886,
                        20.222968
                    ],
                    [
                        -87.428556,
                        20.223302
                    ],
                    [
                        -87.428229,
                        20.223756
                    ],
                    [
                        -87.426978,
                        20.225738
                    ],
                    [
                        -87.425996,
                        20.227339
                    ],
                    [
                        -87.42231,
                        20.233327
                    ],
                    [
                        -87.416665,
                        20.242444
                    ],
                    [
                        -87.416253,
                        20.243121
                    ],
                    [
                        -87.41495,
                        20.245447
                    ],
                    [
                        -87.413246,
                        20.248211
                    ],
                    [
                        -87.41253,
                        20.249224
                    ],
                    [
                        -87.409222,
                        20.253173
                    ],
                    [
                        -87.407897,
                        20.254784
                    ],
                    [
                        -87.4074,
                        20.255419
                    ],
                    [
                        -87.407058,
                        20.255927
                    ],
                    [
                        -87.406621,
                        20.256633
                    ],
                    [
                        -87.402471,
                        20.263413
                    ],
                    [
                        -87.401603,
                        20.264807
                    ],
                    [
                        -87.399807,
                        20.267715
                    ],
                    [
                        -87.396422,
                        20.273268
                    ],
                    [
                        -87.39543,
                        20.274871
                    ],
                    [
                        -87.393235,
                        20.277847
                    ],
                    [
                        -87.392681,
                        20.278631
                    ],
                    [
                        -87.389221,
                        20.283317
                    ],
                    [
                        -87.38796,
                        20.285059
                    ],
                    [
                        -87.386199,
                        20.28743
                    ],
                    [
                        -87.382258,
                        20.292845
                    ],
                    [
                        -87.375915,
                        20.301487
                    ],
                    [
                        -87.375148,
                        20.302531
                    ],
                    [
                        -87.373674,
                        20.304551
                    ],
                    [
                        -87.372901,
                        20.305747
                    ],
                    [
                        -87.371867,
                        20.307538
                    ],
                    [
                        -87.370995,
                        20.309171
                    ],
                    [
                        -87.370524,
                        20.310084
                    ],
                    [
                        -87.370061,
                        20.310892
                    ],
                    [
                        -87.369147,
                        20.312297
                    ],
                    [
                        -87.368706,
                        20.313001
                    ],
                    [
                        -87.363085,
                        20.322667
                    ],
                    [
                        -87.362539,
                        20.323658
                    ],
                    [
                        -87.361331,
                        20.325757
                    ],
                    [
                        -87.361103,
                        20.326177
                    ],
                    [
                        -87.360068,
                        20.327993
                    ],
                    [
                        -87.360221,
                        20.328106
                    ],
                    [
                        -87.361095,
                        20.326496
                    ],
                    [
                        -87.361489,
                        20.325718
                    ],
                    [
                        -87.362763,
                        20.323554
                    ],
                    [
                        -87.364956,
                        20.319729
                    ],
                    [
                        -87.36634,
                        20.31732
                    ],
                    [
                        -87.36725,
                        20.315841
                    ],
                    [
                        -87.367983,
                        20.316259
                    ],
                    [
                        -87.369172,
                        20.316784
                    ],
                    [
                        -87.36979,
                        20.317074
                    ],
                    [
                        -87.369887,
                        20.317119
                    ],
                    [
                        -87.370521,
                        20.317392
                    ],
                    [
                        -87.372028,
                        20.318041
                    ],
                    [
                        -87.373363,
                        20.318615
                    ],
                    [
                        -87.374091,
                        20.318908
                    ],
                    [
                        -87.374297,
                        20.319266
                    ],
                    [
                        -87.374317,
                        20.319294
                    ],
                    [
                        -87.374379,
                        20.319328
                    ],
                    [
                        -87.37446,
                        20.319352
                    ],
                    [
                        -87.374859,
                        20.319293
                    ],
                    [
                        -87.375078,
                        20.319368
                    ],
                    [
                        -87.375779,
                        20.319696
                    ],
                    [
                        -87.376059,
                        20.319803
                    ],
                    [
                        -87.376264,
                        20.319827
                    ],
                    [
                        -87.376475,
                        20.319799
                    ],
                    [
                        -87.376557,
                        20.319831
                    ],
                    [
                        -87.376627,
                        20.319915
                    ],
                    [
                        -87.376708,
                        20.320053
                    ],
                    [
                        -87.377001,
                        20.320215
                    ],
                    [
                        -87.379931,
                        20.321479
                    ],
                    [
                        -87.382897,
                        20.322807
                    ],
                    [
                        -87.383877,
                        20.323238
                    ],
                    [
                        -87.386408,
                        20.324338
                    ],
                    [
                        -87.390013,
                        20.325904
                    ],
                    [
                        -87.390275,
                        20.325485
                    ],
                    [
                        -87.390372,
                        20.325239
                    ],
                    [
                        -87.390622,
                        20.325008
                    ],
                    [
                        -87.390696,
                        20.324985
                    ]
                ],
                "type": "LineString"
            }
        }
    ],
    "metadata": {
        "attribution": "openrouteservice.org | OpenStreetMap contributors",
        "service": "routing",
        "timestamp": 1756799301010,
        "query": {
            "coordinates": [
                [
                    -87.465124,
                    20.210958
                ],
                [
                    -87.390607,
                    20.324734
                ]
            ],
            "profile": "driving-car",
            "profileName": "driving-car",
            "format": "geojson"
        },
        "engine": {
            "version": "9.3.0",
            "build_date": "2025-06-06T15:39:25Z",
            "graph_date": "2025-08-31T11:45:10Z",
            "osm_date": "2025-08-24T23:59:58Z"
        }
    }
}