{
    "type": "FeatureCollection",
    "bbox": [
        -84.322515,
        9.429476,
        -84.161596,
        9.535131
    ],
    "features": [
        {
            "bbox": [
                -84.322515,
                9.429476,
                -84.161596,
                9.535131
            ],
            "type": "Feature",
            "properties": {
                "segments": [
                    {
                        "distance": 24199.1,
                        "duration": 1696.3,
                        "steps": [
                            {
                                "distance": 167.3,
                                "duration": 40.2,
                                "type": 11,
                                "instruction": "Head east on Avenida 2A",
                                "name": "Avenida 2A",
                                "way_points": [
                                    0,
                                    3
                                ]
                            },
                            {
                                "distance": 96.6,
                                "duration": 11.6,
                                "type": 0,
                                "instruction": "Turn left onto Calle 19",
                                "name": "Calle 19",
                                "way_points": [
                                    3,
                                    4
                                ]
                            },
                            {
                                "distance": 20959.6,
                                "duration": 1284.5,
                                "type": 5,
                                "instruction": "Turn slight right onto Carretera Pac\u00edfica Fern\u00e1ndez Oreamuno, 34",
                                "name": "Carretera Pac\u00edfica Fern\u00e1ndez Oreamuno, 34",
                                "way_points": [
                                    4,
                                    120
                                ]
                            },
                            {
                                "distance": 2496.7,
                                "duration": 277.9,
                                "type": 13,
                                "instruction": "Keep right onto V\u00eda 235, 235",
                                "name": "V\u00eda 235, 235",
                                "way_points": [
                                    120,
                                    153
                                ]
                            },
                            {
                                "distance": 260.5,
                                "duration": 29.7,
                                "type": 0,
                                "instruction": "Turn left onto Avenida 2, 235",
                                "name": "Avenida 2, 235",
                                "way_points": [
                                    153,
                                    157
                                ]
                            },
                            {
                                "distance": 83.2,
                                "duration": 20.0,
                                "type": 0,
                                "instruction": "Turn left onto Calle Central",
                                "name": "Calle Central",
                                "way_points": [
                                    157,
                                    158
                                ]
                            },
                            {
                                "distance": 135.1,
                                "duration": 32.4,
                                "type": 1,
                                "instruction": "Turn right onto Avenida Central",
                                "name": "Avenida Central",
                                "way_points": [
                                    158,
                                    161
                                ]
                            },
                            {
                                "distance": 0.0,
                                "duration": 0.0,
                                "type": 10,
                                "instruction": "Arrive at Avenida Central, on the left",
                                "name": "-",
                                "way_points": [
                                    161,
                                    161
                                ]
                            }
                        ]
                    }
                ],
                "way_points": [
                    0,
                    161
                ],
                "summary": {
                    "distance": 24199.1,
                    "duration": 1696.3
                }
            },
            "geometry": {
                "coordinates": [
                    [
                        -84.322515,
                        9.52025
                    ],
                    [
                        -84.322229,
                        9.520303
                    ],
                    [
                        -84.321399,
                        9.520455
                    ],
                    [
                        -84.321011,
                        9.520505
                    ],
                    [
                        -84.320892,
                        9.521366
                    ],
                    [
                        -84.320278,
                        9.522017
                    ],
                    [
                        -84.318831,
                        9.523495
                    ],
                    [
                        -84.317705,
                        9.524681
                    ],
                    [
                        -84.316864,
                        9.525505
                    ],
                    [
                        -84.316312,
                        9.526042
                    ],
                    [
                        -84.315072,
                        9.52728
                    ],
                    [
                        -84.313533,
                        9.52882
                    ],
                    [
                        -84.312709,
                        9.529579
                    ],
                    [
                        -84.311974,
                        9.530069
                    ],
                    [
                        -84.311231,
                        9.530436
                    ],
                    [
                        -84.310765,
                        9.530572
                    ],
                    [
                        -84.310178,
                        9.530667
                    ],
                    [
                        -84.295764,
                        9.532719
                    ],
                    [
                        -84.295703,
                        9.532728
                    ],
                    [
                        -84.294646,
                        9.532889
                    ],
                    [
                        -84.287278,
                        9.533928
                    ],
                    [
                        -84.286801,
                        9.533996
                    ],
                    [
                        -84.286723,
                        9.534007
                    ],
                    [
                        -84.286433,
                        9.53405
                    ],
                    [
                        -84.286138,
                        9.534094
                    ],
                    [
                        -84.285852,
                        9.534137
                    ],
                    [
                        -84.285535,
                        9.534184
                    ],
                    [
                        -84.284867,
                        9.534283
                    ],
                    [
                        -84.284646,
                        9.534316
                    ],
                    [
                        -84.28243,
                        9.534619
                    ],
                    [
                        -84.279482,
                        9.535012
                    ],
                    [
                        -84.278732,
                        9.535131
                    ],
                    [
                        -84.278343,
                        9.535125
                    ],
                    [
                        -84.277994,
                        9.535084
                    ],
                    [
                        -84.277459,
                        9.534904
                    ],
                    [
                        -84.277325,
                        9.534859
                    ],
                    [
                        -84.276802,
                        9.534432
                    ],
                    [
                        -84.276514,
                        9.534127
                    ],
                    [
                        -84.275796,
                        9.533161
                    ],
                    [
                        -84.275297,
                        9.532611
                    ],
                    [
                        -84.275032,
                        9.532377
                    ],
                    [
                        -84.274405,
                        9.532022
                    ],
                    [
                        -84.273751,
                        9.5318
                    ],
                    [
                        -84.272124,
                        9.53152
                    ],
                    [
                        -84.271488,
                        9.531244
                    ],
                    [
                        -84.270822,
                        9.530863
                    ],
                    [
                        -84.27005,
                        9.5306
                    ],
                    [
                        -84.269629,
                        9.530561
                    ],
                    [
                        -84.267867,
                        9.530602
                    ],
                    [
                        -84.266619,
                        9.530269
                    ],
                    [
                        -84.265882,
                        9.529937
                    ],
                    [
                        -84.264138,
                        9.528634
                    ],
                    [
                        -84.263018,
                        9.527938
                    ],
                    [
                        -84.262418,
                        9.527679
                    ],
                    [
                        -84.261733,
                        9.527532
                    ],
                    [
                        -84.252641,
                        9.526424
                    ],
                    [
                        -84.246796,
                        9.525712
                    ],
                    [
                        -84.246207,
                        9.525567
                    ],
                    [
                        -84.245932,
                        9.525488
                    ],
                    [
                        -84.244948,
                        9.525148
                    ],
                    [
                        -84.243665,
                        9.524693
                    ],
                    [
                        -84.241142,
                        9.523843
                    ],
                    [
                        -84.240585,
                        9.523665
                    ],
                    [
                        -84.239592,
                        9.523165
                    ],
                    [
                        -84.239301,
                        9.522956
                    ],
                    [
                        -84.238558,
                        9.522259
                    ],
                    [
                        -84.234126,
                        9.517451
                    ],
                    [
                        -84.233971,
                        9.517283
                    ],
                    [
                        -84.23335,
                        9.516609
                    ],
                    [
                        -84.23291,
                        9.516141
                    ],
                    [
                        -84.232702,
                        9.515917
                    ],
                    [
                        -84.228935,
                        9.511818
                    ],
                    [
                        -84.22451,
                        9.507135
                    ],
                    [
                        -84.220777,
                        9.50315
                    ],
                    [
                        -84.215728,
                        9.497718
                    ],
                    [
                        -84.213844,
                        9.495665
                    ],
                    [
                        -84.212178,
                        9.493867
                    ],
                    [
                        -84.211597,
                        9.493221
                    ],
                    [
                        -84.211451,
                        9.493065
                    ],
                    [
                        -84.21111,
                        9.49271
                    ],
                    [
                        -84.210478,
                        9.492025
                    ],
                    [
                        -84.210188,
                        9.491712
                    ],
                    [
                        -84.209654,
                        9.491132
                    ],
                    [
                        -84.20903,
                        9.490456
                    ],
                    [
                        -84.208886,
                        9.490301
                    ],
                    [
                        -84.20856,
                        9.489947
                    ],
                    [
                        -84.208118,
                        9.489469
                    ],
                    [
                        -84.208059,
                        9.489405
                    ],
                    [
                        -84.207095,
                        9.488361
                    ],
                    [
                        -84.203889,
                        9.484919
                    ],
                    [
                        -84.201267,
                        9.482059
                    ],
                    [
                        -84.197805,
                        9.478362
                    ],
                    [
                        -84.195209,
                        9.47556
                    ],
                    [
                        -84.18943,
                        9.469316
                    ],
                    [
                        -84.187749,
                        9.467509
                    ],
                    [
                        -84.186147,
                        9.465793
                    ],
                    [
                        -84.185579,
                        9.46518
                    ],
                    [
                        -84.185339,
                        9.464925
                    ],
                    [
                        -84.183545,
                        9.463015
                    ],
                    [
                        -84.182785,
                        9.4622
                    ],
                    [
                        -84.182609,
                        9.461996
                    ],
                    [
                        -84.182035,
                        9.461369
                    ],
                    [
                        -84.181032,
                        9.460286
                    ],
                    [
                        -84.18088,
                        9.460126
                    ],
                    [
                        -84.180418,
                        9.459628
                    ],
                    [
                        -84.179974,
                        9.459181
                    ],
                    [
                        -84.179056,
                        9.458154
                    ],
                    [
                        -84.178335,
                        9.45739
                    ],
                    [
                        -84.178211,
                        9.457235
                    ],
                    [
                        -84.177732,
                        9.456514
                    ],
                    [
                        -84.177523,
                        9.456295
                    ],
                    [
                        -84.177283,
                        9.456091
                    ],
                    [
                        -84.176886,
                        9.455839
                    ],
                    [
                        -84.176406,
                        9.455615
                    ],
                    [
                        -84.175365,
                        9.455094
                    ],
                    [
                        -84.174206,
                        9.454589
                    ],
                    [
                        -84.169784,
                        9.452368
                    ],
                    [
                        -84.168231,
                        9.451699
                    ],
                    [
                        -84.168035,
                        9.451601
                    ],
                    [
                        -84.167966,
                        9.451567
                    ],
                    [
                        -84.167854,
                        9.451497
                    ],
                    [
                        -84.167664,
                        9.451331
                    ],
                    [
                        -84.16751,
                        9.451227
                    ],
                    [
                        -84.167281,
                        9.451026
                    ],
                    [
                        -84.167152,
                        9.450917
                    ],
                    [
                        -84.167061,
                        9.450804
                    ],
                    [
                        -84.166965,
                        9.45064
                    ],
                    [
                        -84.16685,
                        9.450306
                    ],
                    [
                        -84.166737,
                        9.449893
                    ],
                    [
                        -84.166534,
                        9.449061
                    ],
                    [
                        -84.166425,
                        9.448544
                    ],
                    [
                        -84.166309,
                        9.447837
                    ],
                    [
                        -84.166241,
                        9.447496
                    ],
                    [
                        -84.166127,
                        9.446907
                    ],
                    [
                        -84.164569,
                        9.438917
                    ],
                    [
                        -84.164206,
                        9.437127
                    ],
                    [
                        -84.16418,
                        9.436882
                    ],
                    [
                        -84.164188,
                        9.43644
                    ],
                    [
                        -84.164215,
                        9.436154
                    ],
                    [
                        -84.164311,
                        9.435737
                    ],
                    [
                        -84.164421,
                        9.435324
                    ],
                    [
                        -84.164447,
                        9.435133
                    ],
                    [
                        -84.164611,
                        9.434395
                    ],
                    [
                        -84.164691,
                        9.434004
                    ],
                    [
                        -84.164815,
                        9.433343
                    ],
                    [
                        -84.16495,
                        9.432772
                    ],
                    [
                        -84.165025,
                        9.432351
                    ],
                    [
                        -84.165056,
                        9.432197
                    ],
                    [
                        -84.165024,
                        9.431737
                    ],
                    [
                        -84.165042,
                        9.4315
                    ],
                    [
                        -84.165096,
                        9.431024
                    ],
                    [
                        -84.165161,
                        9.430547
                    ],
                    [
                        -84.165195,
                        9.430052
                    ],
                    [
                        -84.165247,
                        9.429806
                    ],
                    [
                        -84.164561,
                        9.429595
                    ],
                    [
                        -84.164201,
                        9.429521
                    ],
                    [
                        -84.163723,
                        9.429479
                    ],
                    [
                        -84.162914,
                        9.429476
                    ],
                    [
                        -84.162824,
                        9.430218
                    ],
                    [
                        -84.16223,
                        9.430166
                    ],
                    [
                        -84.16187,
                        9.430135
                    ],
                    [
                        -84.161596,
                        9.430119
                    ]
                ],
                "type": "LineString"
            }
        }
    ],
    "metadata": {
        "attribution": "openrouteservice.org | OpenStreetMap contributors",
        "service": "routing",
        "timestamp": 1756803836115,
        "query": {
            "coordinates": [
                [
                    -84.32249,
                    9.52012
                ],
                [
                    -84.161592,
                    9.430187
                ]
            ],
            "profile": "driving-car",
            "profileName": "driving-car",
            "format": "geojson"
        },
        "engine": {
            "version": "9.3.0",
            "build_date": "2025-06-06T15:39:25Z",
            "graph_date": "2025-08-31T11:45:10Z",
            "osm_date": "2025-08-24T23:59:58Z"
        }
    }
}