{
    "type": "FeatureCollection",
    "bbox": [
        -82.755845,
        9.502803,
        -82.61477,
        9.659032
    ],
    "features": [
        {
            "bbox": [
                -82.755845,
                9.502803,
                -82.61477,
                9.659032
            ],
            "type": "Feature",
            "properties": {
                "segments": [
                    {
                        "distance": 29993.2,
                        "duration": 1984.2,
                        "steps": [
                            {
                                "distance": 9.3,
                                "duration": 2.2,
                                "type": 11,
                                "instruction": "Head southwest on Avenida 73",
                                "name": "Avenida 73",
                                "way_points": [
                                    0,
                                    1
                                ]
                            },
                            {
                                "distance": 109.0,
                                "duration": 13.1,
                                "type": 0,
                                "instruction": "Turn left onto Calle 213",
                                "name": "Calle 213",
                                "way_points": [
                                    1,
                                    2
                                ]
                            },
                            {
                                "distance": 3495.5,
                                "duration": 307.7,
                                "type": 0,
                                "instruction": "Turn left onto Avenida 71, 256",
                                "name": "Avenida 71, 256",
                                "way_points": [
                                    2,
                                    75
                                ]
                            },
                            {
                                "distance": 6402.8,
                                "duration": 626.3,
                                "type": 1,
                                "instruction": "Turn right onto Calle El Parque",
                                "name": "Calle El Parque",
                                "way_points": [
                                    75,
                                    197
                                ]
                            },
                            {
                                "distance": 19976.6,
                                "duration": 1035.0,
                                "type": 0,
                                "instruction": "Turn left onto Corredor Caribe, 36",
                                "name": "Corredor Caribe, 36",
                                "way_points": [
                                    197,
                                    344
                                ]
                            },
                            {
                                "distance": 0.0,
                                "duration": 0.0,
                                "type": 10,
                                "instruction": "Arrive at Corredor Caribe, 36, on the right",
                                "name": "-",
                                "way_points": [
                                    344,
                                    344
                                ]
                            }
                        ]
                    }
                ],
                "way_points": [
                    0,
                    344
                ],
                "summary": {
                    "distance": 29993.2,
                    "duration": 1984.2
                }
            },
            "geometry": {
                "coordinates": [
                    [
                        -82.755796,
                        9.656747
                    ],
                    [
                        -82.755845,
                        9.656678
                    ],
                    [
                        -82.755083,
                        9.656048
                    ],
                    [
                        -82.754383,
                        9.656815
                    ],
                    [
                        -82.753698,
                        9.657571
                    ],
                    [
                        -82.7536,
                        9.657601
                    ],
                    [
                        -82.753455,
                        9.657612
                    ],
                    [
                        -82.753015,
                        9.657617
                    ],
                    [
                        -82.752886,
                        9.657633
                    ],
                    [
                        -82.752771,
                        9.657682
                    ],
                    [
                        -82.752388,
                        9.65799
                    ],
                    [
                        -82.752144,
                        9.658235
                    ],
                    [
                        -82.751764,
                        9.658629
                    ],
                    [
                        -82.751639,
                        9.658712
                    ],
                    [
                        -82.751505,
                        9.65875
                    ],
                    [
                        -82.750941,
                        9.658791
                    ],
                    [
                        -82.75022,
                        9.658978
                    ],
                    [
                        -82.74988,
                        9.659032
                    ],
                    [
                        -82.749758,
                        9.659028
                    ],
                    [
                        -82.749638,
                        9.659018
                    ],
                    [
                        -82.749477,
                        9.658981
                    ],
                    [
                        -82.748901,
                        9.658803
                    ],
                    [
                        -82.747886,
                        9.658462
                    ],
                    [
                        -82.747445,
                        9.658244
                    ],
                    [
                        -82.747022,
                        9.657984
                    ],
                    [
                        -82.746402,
                        9.657824
                    ],
                    [
                        -82.746106,
                        9.657722
                    ],
                    [
                        -82.745855,
                        9.657574
                    ],
                    [
                        -82.745672,
                        9.657415
                    ],
                    [
                        -82.745263,
                        9.657255
                    ],
                    [
                        -82.74475,
                        9.657146
                    ],
                    [
                        -82.744207,
                        9.656925
                    ],
                    [
                        -82.743737,
                        9.656756
                    ],
                    [
                        -82.743443,
                        9.656577
                    ],
                    [
                        -82.74296,
                        9.656223
                    ],
                    [
                        -82.742297,
                        9.656041
                    ],
                    [
                        -82.742158,
                        9.655974
                    ],
                    [
                        -82.742021,
                        9.655875
                    ],
                    [
                        -82.74195,
                        9.655774
                    ],
                    [
                        -82.741637,
                        9.655098
                    ],
                    [
                        -82.741296,
                        9.654211
                    ],
                    [
                        -82.741178,
                        9.653987
                    ],
                    [
                        -82.741083,
                        9.653896
                    ],
                    [
                        -82.740735,
                        9.653653
                    ],
                    [
                        -82.740149,
                        9.653192
                    ],
                    [
                        -82.739522,
                        9.652674
                    ],
                    [
                        -82.738148,
                        9.651421
                    ],
                    [
                        -82.737477,
                        9.650869
                    ],
                    [
                        -82.73706,
                        9.650527
                    ],
                    [
                        -82.736968,
                        9.650396
                    ],
                    [
                        -82.736604,
                        9.649932
                    ],
                    [
                        -82.735947,
                        9.648917
                    ],
                    [
                        -82.735733,
                        9.648532
                    ],
                    [
                        -82.735636,
                        9.648329
                    ],
                    [
                        -82.735603,
                        9.648202
                    ],
                    [
                        -82.735588,
                        9.647732
                    ],
                    [
                        -82.735576,
                        9.647286
                    ],
                    [
                        -82.735541,
                        9.646987
                    ],
                    [
                        -82.735451,
                        9.646739
                    ],
                    [
                        -82.735362,
                        9.646563
                    ],
                    [
                        -82.735282,
                        9.646465
                    ],
                    [
                        -82.735061,
                        9.646257
                    ],
                    [
                        -82.734885,
                        9.64606
                    ],
                    [
                        -82.734697,
                        9.645778
                    ],
                    [
                        -82.734349,
                        9.645417
                    ],
                    [
                        -82.733999,
                        9.645028
                    ],
                    [
                        -82.733587,
                        9.644751
                    ],
                    [
                        -82.733202,
                        9.644542
                    ],
                    [
                        -82.732768,
                        9.644311
                    ],
                    [
                        -82.732384,
                        9.644116
                    ],
                    [
                        -82.732248,
                        9.644063
                    ],
                    [
                        -82.732075,
                        9.644023
                    ],
                    [
                        -82.731908,
                        9.644022
                    ],
                    [
                        -82.731719,
                        9.644079
                    ],
                    [
                        -82.731564,
                        9.644144
                    ],
                    [
                        -82.731419,
                        9.644209
                    ],
                    [
                        -82.731224,
                        9.64334
                    ],
                    [
                        -82.731095,
                        9.642631
                    ],
                    [
                        -82.730956,
                        9.642377
                    ],
                    [
                        -82.730924,
                        9.642071
                    ],
                    [
                        -82.730873,
                        9.641891
                    ],
                    [
                        -82.730966,
                        9.641552
                    ],
                    [
                        -82.731127,
                        9.641235
                    ],
                    [
                        -82.731235,
                        9.641171
                    ],
                    [
                        -82.731331,
                        9.641002
                    ],
                    [
                        -82.731481,
                        9.640621
                    ],
                    [
                        -82.731825,
                        9.640357
                    ],
                    [
                        -82.731889,
                        9.640177
                    ],
                    [
                        -82.732404,
                        9.639659
                    ],
                    [
                        -82.732404,
                        9.639479
                    ],
                    [
                        -82.732511,
                        9.639225
                    ],
                    [
                        -82.732855,
                        9.638802
                    ],
                    [
                        -82.733069,
                        9.638643
                    ],
                    [
                        -82.733198,
                        9.638368
                    ],
                    [
                        -82.733402,
                        9.638242
                    ],
                    [
                        -82.73367,
                        9.637998
                    ],
                    [
                        -82.733788,
                        9.637935
                    ],
                    [
                        -82.734207,
                        9.637427
                    ],
                    [
                        -82.734185,
                        9.637237
                    ],
                    [
                        -82.734217,
                        9.637067
                    ],
                    [
                        -82.734282,
                        9.636898
                    ],
                    [
                        -82.734518,
                        9.636464
                    ],
                    [
                        -82.734528,
                        9.636285
                    ],
                    [
                        -82.734368,
                        9.635481
                    ],
                    [
                        -82.734486,
                        9.635153
                    ],
                    [
                        -82.734604,
                        9.634899
                    ],
                    [
                        -82.734614,
                        9.634021
                    ],
                    [
                        -82.734443,
                        9.633566
                    ],
                    [
                        -82.734003,
                        9.633037
                    ],
                    [
                        -82.733949,
                        9.632858
                    ],
                    [
                        -82.734032,
                        9.631797
                    ],
                    [
                        -82.734078,
                        9.631542
                    ],
                    [
                        -82.734114,
                        9.631434
                    ],
                    [
                        -82.734358,
                        9.631242
                    ],
                    [
                        -82.734396,
                        9.63116
                    ],
                    [
                        -82.734311,
                        9.630862
                    ],
                    [
                        -82.734215,
                        9.630701
                    ],
                    [
                        -82.734089,
                        9.630414
                    ],
                    [
                        -82.734142,
                        9.630171
                    ],
                    [
                        -82.734276,
                        9.629916
                    ],
                    [
                        -82.734331,
                        9.62982
                    ],
                    [
                        -82.734453,
                        9.629536
                    ],
                    [
                        -82.734722,
                        9.629018
                    ],
                    [
                        -82.735097,
                        9.628066
                    ],
                    [
                        -82.735161,
                        9.627801
                    ],
                    [
                        -82.735322,
                        9.626976
                    ],
                    [
                        -82.735483,
                        9.626828
                    ],
                    [
                        -82.735666,
                        9.626627
                    ],
                    [
                        -82.735408,
                        9.62576
                    ],
                    [
                        -82.735076,
                        9.625347
                    ],
                    [
                        -82.735097,
                        9.624639
                    ],
                    [
                        -82.734947,
                        9.623951
                    ],
                    [
                        -82.735183,
                        9.622872
                    ],
                    [
                        -82.735194,
                        9.622269
                    ],
                    [
                        -82.735161,
                        9.621825
                    ],
                    [
                        -82.735236,
                        9.621709
                    ],
                    [
                        -82.735269,
                        9.62155
                    ],
                    [
                        -82.735236,
                        9.621381
                    ],
                    [
                        -82.735516,
                        9.62045
                    ],
                    [
                        -82.73558,
                        9.62009
                    ],
                    [
                        -82.735778,
                        9.619564
                    ],
                    [
                        -82.735769,
                        9.619299
                    ],
                    [
                        -82.735677,
                        9.619041
                    ],
                    [
                        -82.735638,
                        9.618866
                    ],
                    [
                        -82.735647,
                        9.618661
                    ],
                    [
                        -82.735769,
                        9.618508
                    ],
                    [
                        -82.736372,
                        9.618164
                    ],
                    [
                        -82.737239,
                        9.617336
                    ],
                    [
                        -82.737743,
                        9.616674
                    ],
                    [
                        -82.738265,
                        9.616581
                    ],
                    [
                        -82.73865,
                        9.616231
                    ],
                    [
                        -82.738814,
                        9.615936
                    ],
                    [
                        -82.739007,
                        9.615783
                    ],
                    [
                        -82.739273,
                        9.615726
                    ],
                    [
                        -82.739834,
                        9.615885
                    ],
                    [
                        -82.740088,
                        9.615876
                    ],
                    [
                        -82.740409,
                        9.615702
                    ],
                    [
                        -82.740815,
                        9.615536
                    ],
                    [
                        -82.741288,
                        9.615211
                    ],
                    [
                        -82.741914,
                        9.614819
                    ],
                    [
                        -82.74261,
                        9.614142
                    ],
                    [
                        -82.742952,
                        9.613422
                    ],
                    [
                        -82.743248,
                        9.612874
                    ],
                    [
                        -82.743685,
                        9.612338
                    ],
                    [
                        -82.744363,
                        9.612092
                    ],
                    [
                        -82.744781,
                        9.61148
                    ],
                    [
                        -82.74527,
                        9.611306
                    ],
                    [
                        -82.745783,
                        9.611068
                    ],
                    [
                        -82.746092,
                        9.610984
                    ],
                    [
                        -82.746311,
                        9.610839
                    ],
                    [
                        -82.746745,
                        9.610357
                    ],
                    [
                        -82.74698,
                        9.610134
                    ],
                    [
                        -82.747136,
                        9.609924
                    ],
                    [
                        -82.747142,
                        9.609276
                    ],
                    [
                        -82.747194,
                        9.609171
                    ],
                    [
                        -82.747484,
                        9.60909
                    ],
                    [
                        -82.747927,
                        9.609039
                    ],
                    [
                        -82.74844,
                        9.609042
                    ],
                    [
                        -82.748739,
                        9.609002
                    ],
                    [
                        -82.749157,
                        9.608831
                    ],
                    [
                        -82.749881,
                        9.608436
                    ],
                    [
                        -82.75059,
                        9.607943
                    ],
                    [
                        -82.751225,
                        9.60747
                    ],
                    [
                        -82.751475,
                        9.607374
                    ],
                    [
                        -82.752584,
                        9.60725
                    ],
                    [
                        -82.752947,
                        9.60694
                    ],
                    [
                        -82.753045,
                        9.606747
                    ],
                    [
                        -82.752962,
                        9.606588
                    ],
                    [
                        -82.752764,
                        9.606479
                    ],
                    [
                        -82.752648,
                        9.60635
                    ],
                    [
                        -82.75262,
                        9.606145
                    ],
                    [
                        -82.752706,
                        9.605895
                    ],
                    [
                        -82.752822,
                        9.605639
                    ],
                    [
                        -82.753002,
                        9.605444
                    ],
                    [
                        -82.753176,
                        9.605326
                    ],
                    [
                        -82.753234,
                        9.605245
                    ],
                    [
                        -82.75232,
                        9.601194
                    ],
                    [
                        -82.752084,
                        9.60015
                    ],
                    [
                        -82.749971,
                        9.600551
                    ],
                    [
                        -82.749749,
                        9.60057
                    ],
                    [
                        -82.749559,
                        9.600566
                    ],
                    [
                        -82.749374,
                        9.600535
                    ],
                    [
                        -82.74919,
                        9.60048
                    ],
                    [
                        -82.74891,
                        9.600345
                    ],
                    [
                        -82.747912,
                        9.599815
                    ],
                    [
                        -82.74544,
                        9.598499
                    ],
                    [
                        -82.74385,
                        9.597706
                    ],
                    [
                        -82.743384,
                        9.597459
                    ],
                    [
                        -82.743024,
                        9.597401
                    ],
                    [
                        -82.742692,
                        9.597444
                    ],
                    [
                        -82.742404,
                        9.597603
                    ],
                    [
                        -82.742116,
                        9.597833
                    ],
                    [
                        -82.740019,
                        9.59965
                    ],
                    [
                        -82.739606,
                        9.599858
                    ],
                    [
                        -82.739386,
                        9.599924
                    ],
                    [
                        -82.739281,
                        9.599927
                    ],
                    [
                        -82.738975,
                        9.599863
                    ],
                    [
                        -82.738726,
                        9.599625
                    ],
                    [
                        -82.738509,
                        9.599329
                    ],
                    [
                        -82.737919,
                        9.598591
                    ],
                    [
                        -82.737701,
                        9.598247
                    ],
                    [
                        -82.736963,
                        9.59753
                    ],
                    [
                        -82.736323,
                        9.59701
                    ],
                    [
                        -82.735888,
                        9.596563
                    ],
                    [
                        -82.735515,
                        9.596034
                    ],
                    [
                        -82.734772,
                        9.594918
                    ],
                    [
                        -82.734687,
                        9.594632
                    ],
                    [
                        -82.734713,
                        9.594119
                    ],
                    [
                        -82.734829,
                        9.593802
                    ],
                    [
                        -82.734893,
                        9.593574
                    ],
                    [
                        -82.73489,
                        9.593225
                    ],
                    [
                        -82.73477,
                        9.592921
                    ],
                    [
                        -82.734316,
                        9.592151
                    ],
                    [
                        -82.734094,
                        9.59167
                    ],
                    [
                        -82.733152,
                        9.589441
                    ],
                    [
                        -82.733008,
                        9.589205
                    ],
                    [
                        -82.732932,
                        9.589072
                    ],
                    [
                        -82.732848,
                        9.588972
                    ],
                    [
                        -82.732767,
                        9.588906
                    ],
                    [
                        -82.732274,
                        9.588619
                    ],
                    [
                        -82.731219,
                        9.587968
                    ],
                    [
                        -82.728616,
                        9.586435
                    ],
                    [
                        -82.727228,
                        9.585609
                    ],
                    [
                        -82.726149,
                        9.584968
                    ],
                    [
                        -82.724847,
                        9.584218
                    ],
                    [
                        -82.724364,
                        9.583931
                    ],
                    [
                        -82.723668,
                        9.583524
                    ],
                    [
                        -82.723434,
                        9.583388
                    ],
                    [
                        -82.723062,
                        9.58317
                    ],
                    [
                        -82.722682,
                        9.582948
                    ],
                    [
                        -82.72228,
                        9.582713
                    ],
                    [
                        -82.721895,
                        9.582488
                    ],
                    [
                        -82.721682,
                        9.582363
                    ],
                    [
                        -82.718221,
                        9.58034
                    ],
                    [
                        -82.715416,
                        9.578689
                    ],
                    [
                        -82.714083,
                        9.577857
                    ],
                    [
                        -82.713985,
                        9.577785
                    ],
                    [
                        -82.713873,
                        9.577663
                    ],
                    [
                        -82.713688,
                        9.577383
                    ],
                    [
                        -82.713602,
                        9.577165
                    ],
                    [
                        -82.713417,
                        9.576849
                    ],
                    [
                        -82.71306,
                        9.57646
                    ],
                    [
                        -82.712752,
                        9.576217
                    ],
                    [
                        -82.712241,
                        9.576033
                    ],
                    [
                        -82.711233,
                        9.575804
                    ],
                    [
                        -82.710731,
                        9.575706
                    ],
                    [
                        -82.710263,
                        9.57556
                    ],
                    [
                        -82.709747,
                        9.575317
                    ],
                    [
                        -82.7094,
                        9.575031
                    ],
                    [
                        -82.709207,
                        9.574822
                    ],
                    [
                        -82.708683,
                        9.574123
                    ],
                    [
                        -82.701508,
                        9.564013
                    ],
                    [
                        -82.699754,
                        9.561474
                    ],
                    [
                        -82.699035,
                        9.560515
                    ],
                    [
                        -82.698724,
                        9.560099
                    ],
                    [
                        -82.698138,
                        9.559256
                    ],
                    [
                        -82.697624,
                        9.558568
                    ],
                    [
                        -82.696612,
                        9.557151
                    ],
                    [
                        -82.695333,
                        9.555297
                    ],
                    [
                        -82.694929,
                        9.554738
                    ],
                    [
                        -82.694534,
                        9.554286
                    ],
                    [
                        -82.693641,
                        9.553447
                    ],
                    [
                        -82.687832,
                        9.548104
                    ],
                    [
                        -82.687061,
                        9.547374
                    ],
                    [
                        -82.684288,
                        9.544815
                    ],
                    [
                        -82.682038,
                        9.542745
                    ],
                    [
                        -82.681211,
                        9.541984
                    ],
                    [
                        -82.680306,
                        9.54115
                    ],
                    [
                        -82.679339,
                        9.54029
                    ],
                    [
                        -82.678539,
                        9.539531
                    ],
                    [
                        -82.677653,
                        9.538717
                    ],
                    [
                        -82.677323,
                        9.538382
                    ],
                    [
                        -82.676795,
                        9.537846
                    ],
                    [
                        -82.676547,
                        9.537603
                    ],
                    [
                        -82.675945,
                        9.537088
                    ],
                    [
                        -82.674823,
                        9.536082
                    ],
                    [
                        -82.671173,
                        9.532695
                    ],
                    [
                        -82.670048,
                        9.531663
                    ],
                    [
                        -82.666111,
                        9.528013
                    ],
                    [
                        -82.66448,
                        9.526646
                    ],
                    [
                        -82.663362,
                        9.525636
                    ],
                    [
                        -82.662266,
                        9.524596
                    ],
                    [
                        -82.661093,
                        9.523442
                    ],
                    [
                        -82.66041,
                        9.522813
                    ],
                    [
                        -82.65938,
                        9.521862
                    ],
                    [
                        -82.65847,
                        9.521022
                    ],
                    [
                        -82.65513,
                        9.517968
                    ],
                    [
                        -82.654614,
                        9.51747
                    ],
                    [
                        -82.650159,
                        9.513357
                    ],
                    [
                        -82.649811,
                        9.51309
                    ],
                    [
                        -82.649538,
                        9.512917
                    ],
                    [
                        -82.649192,
                        9.512831
                    ],
                    [
                        -82.648718,
                        9.512737
                    ],
                    [
                        -82.643859,
                        9.51196
                    ],
                    [
                        -82.642592,
                        9.511757
                    ],
                    [
                        -82.641349,
                        9.511537
                    ],
                    [
                        -82.64069,
                        9.511455
                    ],
                    [
                        -82.63958,
                        9.511483
                    ],
                    [
                        -82.635779,
                        9.511536
                    ],
                    [
                        -82.634391,
                        9.511556
                    ],
                    [
                        -82.633434,
                        9.511552
                    ],
                    [
                        -82.632955,
                        9.51149
                    ],
                    [
                        -82.627833,
                        9.510682
                    ],
                    [
                        -82.62311,
                        9.509935
                    ],
                    [
                        -82.620488,
                        9.509526
                    ],
                    [
                        -82.619416,
                        9.509336
                    ],
                    [
                        -82.618984,
                        9.509303
                    ],
                    [
                        -82.618637,
                        9.509278
                    ],
                    [
                        -82.618262,
                        9.509192
                    ],
                    [
                        -82.617816,
                        9.509033
                    ],
                    [
                        -82.617538,
                        9.508896
                    ],
                    [
                        -82.617343,
                        9.508746
                    ],
                    [
                        -82.617011,
                        9.508508
                    ],
                    [
                        -82.616782,
                        9.508276
                    ],
                    [
                        -82.616672,
                        9.50813
                    ],
                    [
                        -82.616577,
                        9.507957
                    ],
                    [
                        -82.616499,
                        9.507815
                    ],
                    [
                        -82.616423,
                        9.50763
                    ],
                    [
                        -82.616287,
                        9.507288
                    ],
                    [
                        -82.616204,
                        9.507044
                    ],
                    [
                        -82.615954,
                        9.506313
                    ],
                    [
                        -82.615821,
                        9.505925
                    ],
                    [
                        -82.615104,
                        9.503826
                    ],
                    [
                        -82.615004,
                        9.503535
                    ],
                    [
                        -82.61477,
                        9.502803
                    ]
                ],
                "type": "LineString"
            }
        }
    ],
    "metadata": {
        "attribution": "openrouteservice.org | OpenStreetMap contributors",
        "service": "routing",
        "timestamp": 1756801714609,
        "query": {
            "coordinates": [
                [
                    -82.755807,
                    9.656754
                ],
                [
                    -82.614831,
                    9.502784
                ]
            ],
            "profile": "driving-car",
            "profileName": "driving-car",
            "format": "geojson"
        },
        "engine": {
            "version": "9.3.0",
            "build_date": "2025-06-06T15:39:25Z",
            "graph_date": "2025-08-31T11:45:10Z",
            "osm_date": "2025-08-24T23:59:58Z"
        }
    }
}