{
  "type": "FeatureCollection",
  "features": [
    {
      "type": "Feature",
      "geometry": {
        "type": "LineString",
        "coordinates": [
          [
            -82.88395,
            9.563878
          ]
        ]
      },
      "properties": {
        "@id": "way/11801339",
        "admin_level": "2",
        "border_type": "nation",
        "boundary": "administrative",
        "name": "R\u00edo York\u00edn",
        "waterway": "river",
        "wikidata": "Q8055642"
      }
    },
    {
      "type": "Feature",
      "geometry": {
        "type": "LineString",
        "coordinates": [
          [
            -82.936037,
            9.564881
          ],
          [
            -82.935521,
            9.564794
          ],
          [
            -82.933646,
            9.56451
          ],
          [
            -82.931955,
            9.564162
          ],
          [
            -82.930641,
            9.563345
          ],
          [
            -82.929402,
            9.563281
          ],
          [
            -82.928176,
            9.563567
          ],
          [
            -82.927479,
            9.564141
          ],
          [
            -82.927111,
            9.564516
          ],
          [
            -82.9265,
            9.564686
          ],
          [
            -82.923267,
            9.563127
          ],
          [
            -82.922655,
            9.562784
          ],
          [
            -82.920288,
            9.5612
          ],
          [
            -82.919167,
            9.560025
          ],
          [
            -82.918453,
            9.559438
          ],
          [
            -82.917348,
            9.558941
          ],
          [
            -82.915943,
            9.558015
          ],
          [
            -82.914349,
            9.556767
          ],
          [
            -82.911404,
            9.554476
          ],
          [
            -82.909935,
            9.553492
          ],
          [
            -82.9081,
            9.552741
          ],
          [
            -82.906926,
            9.552767
          ],
          [
            -82.90587,
            9.553079
          ],
          [
            -82.903562,
            9.553164
          ],
          [
            -82.902231,
            9.553334
          ],
          [
            -82.901604,
            9.55336
          ],
          [
            -82.901003,
            9.553201
          ],
          [
            -82.900686,
            9.553
          ],
          [
            -82.899994,
            9.552175
          ],
          [
            -82.89935,
            9.551641
          ],
          [
            -82.897559,
            9.550911
          ],
          [
            -82.896497,
            9.550482
          ],
          [
            -82.895612,
            9.549747
          ],
          [
            -82.894759,
            9.549123
          ],
          [
            -82.893434,
            9.548604
          ],
          [
            -82.891502,
            9.54816
          ],
          [
            -82.890011,
            9.548086
          ],
          [
            -82.889518,
            9.548213
          ],
          [
            -82.889153,
            9.548477
          ],
          [
            -82.888506,
            9.550852
          ],
          [
            -82.887403,
            9.555714
          ],
          [
            -82.887024,
            9.557527
          ],
          [
            -82.886776,
            9.558384
          ],
          [
            -82.885806,
            9.560372
          ],
          [
            -82.884651,
            9.562971
          ],
          [
            -82.88395,
            9.563878
          ]
        ]
      },
      "properties": {
        "@id": "way/383699517",
        "admin_level": "8",
        "boundary": "administrative",
        "name": "R\u00edo Telire",
        "source": "Bing",
        "waterway": "river"
      }
    }
  ]
}