{
  "type": "FeatureCollection",
  "generator": "overpass-turbo",
  "copyright": "The data included in this document is from www.openstreetmap.org. The data is made available under ODbL.",
  "timestamp": "2025-09-02T08:40:51Z",
  "features": [
    {
      "type": "Feature",
      "properties": {
        "@id": "way/11801339",
        "admin_level": "2",
        "border_type": "nation",
        "boundary": "administrative",
        "name": "Río Yorkín",
        "waterway": "river",
        "wikidata": "Q8055642"
      },
      "geometry": {
        "type": "LineString",
        "coordinates": [
          [
            -82.8444566,
            9.5000154
          ],
          [
            -82.8444434,
            9.5001172
          ],
          [
            -82.8440829,
            9.5005748
          ],
          [
            -82.8432053,
            9.5005027
          ],
          [
            -82.8425801,
            9.5014132
          ],
          [
            -82.8422849,
            9.5031972
          ],
          [
            -82.8426502,
            9.5047643
          ],
          [
            -82.8432488,
            9.5058204
          ],
          [
            -82.8440227,
            9.5063525
          ],
          [
            -82.8457348,
            9.5069539
          ],
          [
            -82.8469778,
            9.5076324
          ],
          [
            -82.8476266,
            9.5082877
          ],
          [
            -82.8481014,
            9.5091565
          ],
          [
            -82.8482755,
            9.5094751
          ],
          [
            -82.8484787,
            9.5106008
          ],
          [
            -82.848596,
            9.5114489
          ],
          [
            -82.848424,
            9.5123433
          ],
          [
            -82.8481253,
            9.5131521
          ],
          [
            -82.8479784,
            9.5138082
          ],
          [
            -82.8480093,
            9.514489
          ],
          [
            -82.848338,
            9.5146871
          ],
          [
            -82.8491823,
            9.5146409
          ],
          [
            -82.8503429,
            9.5141894
          ],
          [
            -82.8527616,
            9.513571
          ],
          [
            -82.8538511,
            9.5123715
          ],
          [
            -82.8543644,
            9.5116599
          ],
          [
            -82.8550067,
            9.5109306
          ],
          [
            -82.8558586,
            9.510809
          ],
          [
            -82.8565387,
            9.5109323
          ],
          [
            -82.8570764,
            9.5112842
          ],
          [
            -82.8573361,
            9.511711
          ],
          [
            -82.8574933,
            9.5124307
          ],
          [
            -82.8572579,
            9.5130063
          ],
          [
            -82.8568549,
            9.5133686
          ],
          [
            -82.8557205,
            9.513995
          ],
          [
            -82.855206,
            9.5142791
          ],
          [
            -82.8535805,
            9.5155965
          ],
          [
            -82.8532053,
            9.5161824
          ],
          [
            -82.8529707,
            9.5166605
          ],
          [
            -82.8530802,
            9.5170074
          ],
          [
            -82.8540261,
            9.5178324
          ],
          [
            -82.8550268,
            9.5195594
          ],
          [
            -82.8553864,
            9.5200066
          ],
          [
            -82.8559727,
            9.5202379
          ],
          [
            -82.8570247,
            9.5200529
          ],
          [
            -82.8577629,
            9.5199141
          ],
          [
            -82.8603082,
            9.519314
          ],
          [
            -82.8617663,
            9.5191596
          ],
          [
            -82.8623263,
            9.5189876
          ],
          [
            -82.8646761,
            9.5182661
          ],
          [
            -82.8651876,
            9.5183294
          ],
          [
            -82.865663,
            9.5186347
          ],
          [
            -82.8665807,
            9.5194633
          ],
          [
            -82.8682667,
            9.5207312
          ],
          [
            -82.8697316,
            9.5215895
          ],
          [
            -82.8713015,
            9.5230724
          ],
          [
            -82.8723297,
            9.524588
          ],
          [
            -82.8728935,
            9.5263652
          ],
          [
            -82.8728272,
            9.5278481
          ],
          [
            -82.8718529,
            9.5312071
          ],
          [
            -82.8715454,
            9.5325179
          ],
          [
            -82.8716373,
            9.5333866
          ],
          [
            -82.8721338,
            9.5345601
          ],
          [
            -82.8732535,
            9.5356453
          ],
          [
            -82.8743156,
            9.5379093
          ],
          [
            -82.8744229,
            9.5384305
          ],
          [
            -82.8743672,
            9.5386099
          ],
          [
            -82.8741012,
            9.5389895
          ],
          [
            -82.8729445,
            9.5395712
          ],
          [
            -82.8698013,
            9.5418993
          ],
          [
            -82.8689319,
            9.5434296
          ],
          [
            -82.8675888,
            9.5445231
          ],
          [
            -82.8672675,
            9.5452242
          ],
          [
            -82.8673335,
            9.5463253
          ],
          [
            -82.8677658,
            9.5471779
          ],
          [
            -82.8688037,
            9.5502848
          ],
          [
            -82.8691575,
            9.5510535
          ],
          [
            -82.8692625,
            9.5518439
          ],
          [
            -82.8690027,
            9.5523072
          ],
          [
            -82.868273,
            9.5527542
          ],
          [
            -82.8680629,
            9.5530868
          ],
          [
            -82.8682011,
            9.5537409
          ],
          [
            -82.8685273,
            9.5541825
          ],
          [
            -82.8690801,
            9.554624
          ],
          [
            -82.8698454,
            9.5548743
          ],
          [
            -82.8704326,
            9.5549648
          ],
          [
            -82.871389,
            9.555
          ],
          [
            -82.8725501,
            9.5551422
          ],
          [
            -82.8736327,
            9.55467
          ],
          [
            -82.8742558,
            9.5542698
          ],
          [
            -82.8747547,
            9.5534287
          ],
          [
            -82.8751892,
            9.5529367
          ],
          [
            -82.8761816,
            9.552905
          ],
          [
            -82.8770828,
            9.5533229
          ],
          [
            -82.8778982,
            9.5538202
          ],
          [
            -82.8785741,
            9.5545343
          ],
          [
            -82.8785044,
            9.5559838
          ],
          [
            -82.8784615,
            9.5571846
          ],
          [
            -82.8794968,
            9.5582955
          ],
          [
            -82.8798509,
            9.5588245
          ],
          [
            -82.8803353,
            9.5598104
          ],
          [
            -82.8818904,
            9.5631056
          ],
          [
            -82.8826176,
            9.5636428
          ],
          [
            -82.8839503,
            9.5638776
          ]
        ]
      },
      "id": "way/11801339"
    }
  ]
}