{"type":"FeatureCollection","features":[{"type":"Feature","properties":{},"geometry":{"coordinates":[[-82.6191289411555,9.62427716541994],[-82.61874980171363,9.624752206604754],[-82.61847825432055,9.625466139360014],[-82.61805153698629,9.62796489212245],[-82.61813985925997,9.63025068750153],[-82.61849712805932,9.632311982733427],[-82.61958755631885,9.635396909698088],[-82.62067023269924,9.63708067390455],[-82.6293406386446,9.63999619424105],[-82.63844686914696,9.641193205689547],[-82.64816015133115,9.641791710504222],[-82.65119554040272,9.641410842234038],[-82.65290638274253,9.64086674494672],[-82.6545276823348,9.639964183372683],[-82.65556625232522,9.638940276981941],[-82.65586689100658,9.638212762657432],[-82.65589422179592,9.637188850951162],[-82.65523828285447,9.63470989395347]],"type":"LineString"}}]}