{
  "type": "FeatureCollection",
  "generator": "overpass-turbo",
  "copyright": "The data included in this document is from www.openstreetmap.org. The data is made available under ODbL.",
  "timestamp": "2025-04-12T09:01:45Z",
  "features": [
    {
      "type": "Feature",
      "properties": {
        "@id": "way/933426477",
        "name": "Ruta Bahía Drake - Isla del Caño",
        "route": "ferry"
      },
      "geometry": {
        "type": "LineString",
        "coordinates": [
          [-83.6667795, 8.6905398],
          [-83.6670388, 8.6909037],
          [-83.6671836, 8.6912537],
          [-83.6672373, 8.6915931],
          [-83.6672373, 8.692012],
          [-83.6672641, 8.6923408],
          [-83.6671077, 8.6933308],
          [-83.6672364, 8.695155],
          [-83.6675368, 8.6972549],
          [-83.6674081, 8.6994396],
          [-83.6692105, 8.7042544],
          [-83.6714421, 8.7071602],
          [-83.6738239, 8.710363],
          [-83.6766563, 8.7125476],
          [-83.6783515, 8.7140111]
        ]
      },
      "id": "way/933426477"
    },
    {
      "type": "Feature",
      "properties": {
        "@id": "connector/bridge_option_1",
        "name": "Bridge: Bahía Drake connector (option 1)",
        "source": "generated",
        "note": "gentle northwest bulge"
      },
      "geometry": {
        "type": "LineString",
        "coordinates": [
          [-83.7001205, 8.7014752],
          [-83.6954271, 8.7059089],
          [-83.690484, 8.7099094],
          [-83.6845426, 8.7121769],
          [-83.6783515, 8.7140111]
        ]
      }
    },
    {
      "type": "Feature",
      "properties": {
        "@id": "way/169826586",
        "name": "Ruta San Pedrillo - Bahía Drake",
        "route": "ferry"
      },
      "geometry": {
        "type": "LineString",
        "coordinates": [
          [-83.7406594, 8.6210886],
          [-83.740654, 8.6212159],
          [-83.7411046, 8.6237512],
          [-83.7401605, 8.6260424],
          [-83.7381864, 8.6302005],
          [-83.7366843, 8.6333402],
          [-83.7356544, 8.6350374],
          [-83.7352252, 8.640044],
          [-83.7338519, 8.6453051],
          [-83.7282729, 8.6586271],
          [-83.7189174, 8.677973],
          [-83.7120509, 8.6885789],
          [-83.7001205, 8.7014752]
        ]
      },
      "id": "way/169826586"
    },
    {
      "type": "Feature",
      "properties": {
        "@id": "way/254913398",
        "name": "Sirena - San Pedrillo",
        "route": "ferry"
      },
      "geometry": {
        "type": "LineString",
        "coordinates": [
          [-83.5929249, 8.4703808],
          [-83.5932895, 8.4701889],
          [-83.6026237, 8.4652195],
          [-83.6075723, 8.466864],
          [-83.7396652, 8.5903746],
          [-83.7417227, 8.598614],
          [-83.7406594, 8.6210886]
        ]
      },
      "id": "way/254913398"
    }
  ]
}
