{
  "type": "FeatureCollection",
  "features": [
    {
      "type": "Feature",
      "geometry": {
        "type": "LineString",
        "coordinates": [
          [
            -78.628238,
            38.481713
          ],
          [
            -78.62915,
            38.482402
          ],
          [
            -78.629858,
            38.483057
          ],
          [
            -78.63095,
            38.484136
          ],
          [
            -78.631313,
            38.484556
          ],
          [
            -78.632025,
            38.485383
          ],
          [
            -78.632364,
            38.485894
          ],
          [
            -78.632551,
            38.486517
          ],
          [
            -78.632748,
            38.487423
          ],
          [
            -78.632842,
            38.488295
          ],
          [
            -78.632905,
            38.488902
          ],
          [
            -78.632808,
            38.489347
          ],
          [
            -78.632712,
            38.489809
          ],
          [
            -78.632545,
            38.490218
          ],
          [
            -78.632299,
            38.490575
          ],
          [
            -78.631693,
            38.491413
          ],
          [
            -78.631081,
            38.492236
          ],
          [
            -78.630716,
            38.493008
          ],
          [
            -78.630491,
            38.493671
          ],
          [
            -78.630304,
            38.494497
          ],
          [
            -78.630276,
            38.494872
          ],
          [
            -78.63018,
            38.495502
          ],
          [
            -78.63,
            38.496086
          ],
          [
            -78.629504,
            38.497098
          ],
          [
            -78.62885,
            38.498206
          ],
          [
            -78.628333,
            38.499476
          ],
          [
            -78.628158,
            38.499932
          ],
          [
            -78.628049,
            38.500124
          ],
          [
            -78.62797,
            38.500557
          ],
          [
            -78.627981,
            38.501791
          ],
          [
            -78.628034,
            38.502815
          ],
          [
            -78.628319,
            38.503739
          ],
          [
            -78.628952,
            38.504826
          ],
          [
            -78.629297,
            38.505088
          ],
          [
            -78.629823,
            38.505276
          ],
          [
            -78.630041,
            38.505313
          ],
          [
            -78.630316,
            38.505314
          ],
          [
            -78.630513,
            38.505305
          ],
          [
            -78.63104,
            38.505171
          ],
          [
            -78.631303,
            38.505125
          ],
          [
            -78.631636,
            38.505125
          ],
          [
            -78.632022,
            38.505163
          ],
          [
            -78.632328,
            38.505247
          ],
          [
            -78.634922,
            38.506476
          ],
          [
            -78.639257,
            38.508567
          ],
          [
            -78.641671,
            38.509482
          ],
          [
            -78.64251,
            38.509906
          ],
          [
            -78.643012,
            38.510338
          ],
          [
            -78.643398,
            38.510833
          ],
          [
            -78.64358,
            38.511161
          ],
          [
            -78.643795,
            38.511732
          ],
          [
            -78.643741,
            38.512386
          ],
          [
            -78.643645,
            38.512748
          ],
          [
            -78.643548,
            38.512932
          ],
          [
            -78.64343,
            38.513067
          ],
          [
            -78.642894,
            38.513562
          ],
          [
            -78.642808,
            38.513688
          ],
          [
            -78.642754,
            38.513864
          ],
          [
            -78.642743,
            38.514057
          ],
          [
            -78.642636,
            38.5143
          ],
          [
            -78.641928,
            38.515039
          ],
          [
            -78.640705,
            38.515963
          ],
          [
            -78.63975,
            38.516525
          ],
          [
            -78.638581,
            38.51697
          ],
          [
            -78.637969,
            38.517104
          ],
          [
            -78.635931,
            38.517138
          ],
          [
            -78.634429,
            38.517012
          ],
          [
            -78.633045,
            38.516752
          ],
          [
            -78.62724,
            38.515677
          ]
        ]
      },
      "properties": {
        "@id": "way/741011710",
        "name": "South Fork Shenandoah River",
        "waterway": "river"
      }
    }
  ]
}