{
    "type": "FeatureCollection",
    "bbox": [
        -124.155004,
        40.868862,
        -124.014669,
        41.373243
    ],
    "features": [
        {
            "bbox": [
                -124.155004,
                40.868862,
                -124.014669,
                41.373243
            ],
            "type": "Feature",
            "properties": {
                "segments": [
                    {
                        "distance": 67027.6,
                        "duration": 3104.5,
                        "steps": [
                            {
                                "distance": 2966.0,
                                "duration": 217.7,
                                "type": 11,
                                "instruction": "Head south on Newton B Drury Scenic Parkway",
                                "name": "Newton B Drury Scenic Parkway",
                                "way_points": [
                                    0,
                                    29
                                ]
                            },
                            {
                                "distance": 342.3,
                                "duration": 24.6,
                                "type": 1,
                                "instruction": "Turn right",
                                "name": "-",
                                "way_points": [
                                    29,
                                    31
                                ]
                            },
                            {
                                "distance": 38623.3,
                                "duration": 1787.7,
                                "type": 6,
                                "instruction": "Continue straight onto Redwood Highway, US 101",
                                "name": "Redwood Highway, US 101",
                                "way_points": [
                                    31,
                                    534
                                ]
                            },
                            {
                                "distance": 23168.5,
                                "duration": 877.9,
                                "type": 5,
                                "instruction": "Turn slight right onto Redwood Highway, US 101",
                                "name": "Redwood Highway, US 101",
                                "way_points": [
                                    534,
                                    677
                                ]
                            },
                            {
                                "distance": 488.2,
                                "duration": 42.7,
                                "type": 13,
                                "instruction": "Keep right",
                                "name": "-",
                                "way_points": [
                                    677,
                                    688
                                ]
                            },
                            {
                                "distance": 35.3,
                                "duration": 8.5,
                                "type": 12,
                                "instruction": "Keep left",
                                "name": "-",
                                "way_points": [
                                    688,
                                    689
                                ]
                            },
                            {
                                "distance": 939.2,
                                "duration": 84.3,
                                "type": 6,
                                "instruction": "Continue straight onto H Street",
                                "name": "H Street",
                                "way_points": [
                                    689,
                                    708
                                ]
                            },
                            {
                                "distance": 364.6,
                                "duration": 37.0,
                                "type": 0,
                                "instruction": "Turn left onto 11th Street",
                                "name": "11th Street",
                                "way_points": [
                                    708,
                                    715
                                ]
                            },
                            {
                                "distance": 100.3,
                                "duration": 24.1,
                                "type": 1,
                                "instruction": "Turn right onto D Street",
                                "name": "D Street",
                                "way_points": [
                                    715,
                                    717
                                ]
                            },
                            {
                                "distance": 0.0,
                                "duration": 0.0,
                                "type": 10,
                                "instruction": "Arrive at D Street, on the left",
                                "name": "-",
                                "way_points": [
                                    717,
                                    717
                                ]
                            }
                        ]
                    }
                ],
                "way_points": [
                    0,
                    717
                ],
                "summary": {
                    "distance": 67027.6,
                    "duration": 3104.5
                }
            },
            "geometry": {
                "coordinates": [
                    [
                        -124.014669,
                        41.373243
                    ],
                    [
                        -124.01467,
                        41.373228
                    ],
                    [
                        -124.014758,
                        41.371536
                    ],
                    [
                        -124.01491,
                        41.370912
                    ],
                    [
                        -124.014992,
                        41.370718
                    ],
                    [
                        -124.015102,
                        41.370505
                    ],
                    [
                        -124.01521,
                        41.370348
                    ],
                    [
                        -124.016172,
                        41.369297
                    ],
                    [
                        -124.016628,
                        41.368745
                    ],
                    [
                        -124.017143,
                        41.368178
                    ],
                    [
                        -124.017861,
                        41.367453
                    ],
                    [
                        -124.018296,
                        41.366914
                    ],
                    [
                        -124.019138,
                        41.366
                    ],
                    [
                        -124.019905,
                        41.365114
                    ],
                    [
                        -124.020513,
                        41.364277
                    ],
                    [
                        -124.020857,
                        41.363816
                    ],
                    [
                        -124.021233,
                        41.363314
                    ],
                    [
                        -124.02303,
                        41.360731
                    ],
                    [
                        -124.025567,
                        41.357144
                    ],
                    [
                        -124.026353,
                        41.355986
                    ],
                    [
                        -124.026742,
                        41.3553
                    ],
                    [
                        -124.026966,
                        41.354806
                    ],
                    [
                        -124.027088,
                        41.354438
                    ],
                    [
                        -124.027238,
                        41.353802
                    ],
                    [
                        -124.027643,
                        41.351051
                    ],
                    [
                        -124.027665,
                        41.3502
                    ],
                    [
                        -124.027636,
                        41.349917
                    ],
                    [
                        -124.027553,
                        41.349671
                    ],
                    [
                        -124.027406,
                        41.349442
                    ],
                    [
                        -124.027179,
                        41.349203
                    ],
                    [
                        -124.028957,
                        41.347041
                    ],
                    [
                        -124.029237,
                        41.346547
                    ],
                    [
                        -124.029581,
                        41.346099
                    ],
                    [
                        -124.029742,
                        41.345842
                    ],
                    [
                        -124.030324,
                        41.344867
                    ],
                    [
                        -124.030669,
                        41.344213
                    ],
                    [
                        -124.030988,
                        41.343611
                    ],
                    [
                        -124.031203,
                        41.343332
                    ],
                    [
                        -124.031442,
                        41.343066
                    ],
                    [
                        -124.031832,
                        41.342687
                    ],
                    [
                        -124.033547,
                        41.34114
                    ],
                    [
                        -124.033643,
                        41.34103
                    ],
                    [
                        -124.033788,
                        41.340789
                    ],
                    [
                        -124.033827,
                        41.340684
                    ],
                    [
                        -124.03384,
                        41.340534
                    ],
                    [
                        -124.033804,
                        41.340261
                    ],
                    [
                        -124.033758,
                        41.340128
                    ],
                    [
                        -124.03362,
                        41.339889
                    ],
                    [
                        -124.033324,
                        41.339628
                    ],
                    [
                        -124.031178,
                        41.337941
                    ],
                    [
                        -124.030929,
                        41.337688
                    ],
                    [
                        -124.030794,
                        41.337519
                    ],
                    [
                        -124.030693,
                        41.33733
                    ],
                    [
                        -124.03061,
                        41.337055
                    ],
                    [
                        -124.030561,
                        41.336716
                    ],
                    [
                        -124.03056,
                        41.336146
                    ],
                    [
                        -124.030593,
                        41.335691
                    ],
                    [
                        -124.030733,
                        41.335079
                    ],
                    [
                        -124.031102,
                        41.333784
                    ],
                    [
                        -124.031112,
                        41.333401
                    ],
                    [
                        -124.031045,
                        41.333157
                    ],
                    [
                        -124.030986,
                        41.333041
                    ],
                    [
                        -124.030427,
                        41.332281
                    ],
                    [
                        -124.030319,
                        41.332065
                    ],
                    [
                        -124.030226,
                        41.331804
                    ],
                    [
                        -124.029882,
                        41.329918
                    ],
                    [
                        -124.029851,
                        41.329745
                    ],
                    [
                        -124.029831,
                        41.329389
                    ],
                    [
                        -124.029849,
                        41.329015
                    ],
                    [
                        -124.029905,
                        41.328798
                    ],
                    [
                        -124.030091,
                        41.328367
                    ],
                    [
                        -124.030318,
                        41.328086
                    ],
                    [
                        -124.030403,
                        41.328008
                    ],
                    [
                        -124.0307,
                        41.327767
                    ],
                    [
                        -124.031168,
                        41.32744
                    ],
                    [
                        -124.032393,
                        41.326637
                    ],
                    [
                        -124.03329,
                        41.326103
                    ],
                    [
                        -124.033481,
                        41.325975
                    ],
                    [
                        -124.033676,
                        41.325817
                    ],
                    [
                        -124.033878,
                        41.325611
                    ],
                    [
                        -124.034183,
                        41.325225
                    ],
                    [
                        -124.034327,
                        41.325076
                    ],
                    [
                        -124.034523,
                        41.324898
                    ],
                    [
                        -124.034823,
                        41.324669
                    ],
                    [
                        -124.035341,
                        41.324382
                    ],
                    [
                        -124.036561,
                        41.323803
                    ],
                    [
                        -124.037803,
                        41.323212
                    ],
                    [
                        -124.038184,
                        41.323007
                    ],
                    [
                        -124.038294,
                        41.322925
                    ],
                    [
                        -124.038477,
                        41.322738
                    ],
                    [
                        -124.038548,
                        41.322634
                    ],
                    [
                        -124.039187,
                        41.321246
                    ],
                    [
                        -124.039618,
                        41.320093
                    ],
                    [
                        -124.039953,
                        41.319318
                    ],
                    [
                        -124.040713,
                        41.317421
                    ],
                    [
                        -124.040924,
                        41.316943
                    ],
                    [
                        -124.041282,
                        41.316065
                    ],
                    [
                        -124.041457,
                        41.315627
                    ],
                    [
                        -124.04159,
                        41.315356
                    ],
                    [
                        -124.041771,
                        41.315044
                    ],
                    [
                        -124.041914,
                        41.314853
                    ],
                    [
                        -124.042115,
                        41.314628
                    ],
                    [
                        -124.042381,
                        41.314399
                    ],
                    [
                        -124.044145,
                        41.313026
                    ],
                    [
                        -124.044302,
                        41.312882
                    ],
                    [
                        -124.044438,
                        41.312726
                    ],
                    [
                        -124.044584,
                        41.312471
                    ],
                    [
                        -124.045365,
                        41.310751
                    ],
                    [
                        -124.045391,
                        41.310589
                    ],
                    [
                        -124.045388,
                        41.310405
                    ],
                    [
                        -124.045338,
                        41.309411
                    ],
                    [
                        -124.04532,
                        41.309083
                    ],
                    [
                        -124.045311,
                        41.308751
                    ],
                    [
                        -124.045306,
                        41.308188
                    ],
                    [
                        -124.045215,
                        41.306571
                    ],
                    [
                        -124.045188,
                        41.306353
                    ],
                    [
                        -124.045112,
                        41.306097
                    ],
                    [
                        -124.044958,
                        41.305855
                    ],
                    [
                        -124.044407,
                        41.305309
                    ],
                    [
                        -124.044257,
                        41.305061
                    ],
                    [
                        -124.044211,
                        41.304929
                    ],
                    [
                        -124.044175,
                        41.304656
                    ],
                    [
                        -124.044229,
                        41.303907
                    ],
                    [
                        -124.044299,
                        41.303561
                    ],
                    [
                        -124.044384,
                        41.303394
                    ],
                    [
                        -124.044593,
                        41.303148
                    ],
                    [
                        -124.044699,
                        41.303052
                    ],
                    [
                        -124.044862,
                        41.302955
                    ],
                    [
                        -124.045097,
                        41.302843
                    ],
                    [
                        -124.045408,
                        41.302743
                    ],
                    [
                        -124.046651,
                        41.302392
                    ],
                    [
                        -124.046842,
                        41.302312
                    ],
                    [
                        -124.047431,
                        41.301999
                    ],
                    [
                        -124.047802,
                        41.301749
                    ],
                    [
                        -124.048586,
                        41.301353
                    ],
                    [
                        -124.049272,
                        41.301072
                    ],
                    [
                        -124.049475,
                        41.300963
                    ],
                    [
                        -124.049772,
                        41.300765
                    ],
                    [
                        -124.050218,
                        41.300394
                    ],
                    [
                        -124.050528,
                        41.300108
                    ],
                    [
                        -124.050726,
                        41.299861
                    ],
                    [
                        -124.050874,
                        41.299614
                    ],
                    [
                        -124.051165,
                        41.299263
                    ],
                    [
                        -124.051925,
                        41.298669
                    ],
                    [
                        -124.053204,
                        41.29752
                    ],
                    [
                        -124.053566,
                        41.297175
                    ],
                    [
                        -124.054201,
                        41.296375
                    ],
                    [
                        -124.054654,
                        41.295745
                    ],
                    [
                        -124.054781,
                        41.295553
                    ],
                    [
                        -124.055442,
                        41.294554
                    ],
                    [
                        -124.055974,
                        41.293758
                    ],
                    [
                        -124.056501,
                        41.292977
                    ],
                    [
                        -124.056718,
                        41.292651
                    ],
                    [
                        -124.057371,
                        41.291692
                    ],
                    [
                        -124.057794,
                        41.29107
                    ],
                    [
                        -124.057909,
                        41.290902
                    ],
                    [
                        -124.058293,
                        41.290331
                    ],
                    [
                        -124.058489,
                        41.28998
                    ],
                    [
                        -124.058574,
                        41.289729
                    ],
                    [
                        -124.058582,
                        41.289635
                    ],
                    [
                        -124.058591,
                        41.289476
                    ],
                    [
                        -124.058616,
                        41.289043
                    ],
                    [
                        -124.058675,
                        41.288506
                    ],
                    [
                        -124.058789,
                        41.287954
                    ],
                    [
                        -124.058894,
                        41.287655
                    ],
                    [
                        -124.059078,
                        41.287297
                    ],
                    [
                        -124.059252,
                        41.287043
                    ],
                    [
                        -124.059389,
                        41.286876
                    ],
                    [
                        -124.059582,
                        41.286664
                    ],
                    [
                        -124.059821,
                        41.286446
                    ],
                    [
                        -124.060661,
                        41.285724
                    ],
                    [
                        -124.061129,
                        41.285338
                    ],
                    [
                        -124.06132,
                        41.28516
                    ],
                    [
                        -124.061513,
                        41.285016
                    ],
                    [
                        -124.061746,
                        41.284874
                    ],
                    [
                        -124.061909,
                        41.284795
                    ],
                    [
                        -124.06224,
                        41.284684
                    ],
                    [
                        -124.062454,
                        41.284637
                    ],
                    [
                        -124.062723,
                        41.284602
                    ],
                    [
                        -124.063114,
                        41.284594
                    ],
                    [
                        -124.063733,
                        41.284597
                    ],
                    [
                        -124.064248,
                        41.284601
                    ],
                    [
                        -124.064305,
                        41.284601
                    ],
                    [
                        -124.06517,
                        41.284613
                    ],
                    [
                        -124.066339,
                        41.284629
                    ],
                    [
                        -124.067315,
                        41.284646
                    ],
                    [
                        -124.075156,
                        41.284754
                    ],
                    [
                        -124.075766,
                        41.284777
                    ],
                    [
                        -124.076153,
                        41.284813
                    ],
                    [
                        -124.07664,
                        41.28489
                    ],
                    [
                        -124.077349,
                        41.285066
                    ],
                    [
                        -124.077567,
                        41.285121
                    ],
                    [
                        -124.077852,
                        41.285213
                    ],
                    [
                        -124.078673,
                        41.285555
                    ],
                    [
                        -124.078899,
                        41.28565
                    ],
                    [
                        -124.08114,
                        41.286836
                    ],
                    [
                        -124.081544,
                        41.28699
                    ],
                    [
                        -124.081965,
                        41.287109
                    ],
                    [
                        -124.082381,
                        41.28719
                    ],
                    [
                        -124.082946,
                        41.287236
                    ],
                    [
                        -124.083313,
                        41.287229
                    ],
                    [
                        -124.083862,
                        41.287163
                    ],
                    [
                        -124.084226,
                        41.287083
                    ],
                    [
                        -124.084676,
                        41.286943
                    ],
                    [
                        -124.085545,
                        41.286508
                    ],
                    [
                        -124.089465,
                        41.284479
                    ],
                    [
                        -124.090464,
                        41.283942
                    ],
                    [
                        -124.090969,
                        41.283639
                    ],
                    [
                        -124.091507,
                        41.283233
                    ],
                    [
                        -124.091808,
                        41.28297
                    ],
                    [
                        -124.092421,
                        41.282338
                    ],
                    [
                        -124.092663,
                        41.282019
                    ],
                    [
                        -124.092789,
                        41.281818
                    ],
                    [
                        -124.092976,
                        41.281459
                    ],
                    [
                        -124.093037,
                        41.281341
                    ],
                    [
                        -124.093278,
                        41.280652
                    ],
                    [
                        -124.093725,
                        41.27929
                    ],
                    [
                        -124.093898,
                        41.278687
                    ],
                    [
                        -124.093991,
                        41.278282
                    ],
                    [
                        -124.094847,
                        41.273932
                    ],
                    [
                        -124.095157,
                        41.272614
                    ],
                    [
                        -124.095595,
                        41.271153
                    ],
                    [
                        -124.095933,
                        41.270197
                    ],
                    [
                        -124.096302,
                        41.26925
                    ],
                    [
                        -124.096601,
                        41.268549
                    ],
                    [
                        -124.097138,
                        41.267397
                    ],
                    [
                        -124.09751,
                        41.266646
                    ],
                    [
                        -124.097615,
                        41.266432
                    ],
                    [
                        -124.097799,
                        41.265896
                    ],
                    [
                        -124.097843,
                        41.26566
                    ],
                    [
                        -124.097863,
                        41.265381
                    ],
                    [
                        -124.097835,
                        41.265116
                    ],
                    [
                        -124.097504,
                        41.263782
                    ],
                    [
                        -124.097008,
                        41.261537
                    ],
                    [
                        -124.096915,
                        41.261168
                    ],
                    [
                        -124.096754,
                        41.260661
                    ],
                    [
                        -124.09658,
                        41.260201
                    ],
                    [
                        -124.096208,
                        41.259459
                    ],
                    [
                        -124.095786,
                        41.258803
                    ],
                    [
                        -124.095435,
                        41.258323
                    ],
                    [
                        -124.094256,
                        41.257017
                    ],
                    [
                        -124.093967,
                        41.256656
                    ],
                    [
                        -124.093058,
                        41.255697
                    ],
                    [
                        -124.09265,
                        41.255416
                    ],
                    [
                        -124.090179,
                        41.253587
                    ],
                    [
                        -124.089856,
                        41.253329
                    ],
                    [
                        -124.089654,
                        41.253136
                    ],
                    [
                        -124.089336,
                        41.252759
                    ],
                    [
                        -124.08822,
                        41.251
                    ],
                    [
                        -124.088036,
                        41.250738
                    ],
                    [
                        -124.087887,
                        41.250564
                    ],
                    [
                        -124.087411,
                        41.250094
                    ],
                    [
                        -124.087198,
                        41.249738
                    ],
                    [
                        -124.087138,
                        41.249582
                    ],
                    [
                        -124.087105,
                        41.249422
                    ],
                    [
                        -124.087095,
                        41.249259
                    ],
                    [
                        -124.087113,
                        41.248973
                    ],
                    [
                        -124.08714,
                        41.248839
                    ],
                    [
                        -124.088086,
                        41.246555
                    ],
                    [
                        -124.088144,
                        41.246351
                    ],
                    [
                        -124.088156,
                        41.246239
                    ],
                    [
                        -124.088155,
                        41.24614
                    ],
                    [
                        -124.088103,
                        41.245931
                    ],
                    [
                        -124.087592,
                        41.244938
                    ],
                    [
                        -124.087356,
                        41.244612
                    ],
                    [
                        -124.087144,
                        41.244432
                    ],
                    [
                        -124.087015,
                        41.244356
                    ],
                    [
                        -124.086726,
                        41.244232
                    ],
                    [
                        -124.08629,
                        41.244104
                    ],
                    [
                        -124.085922,
                        41.243954
                    ],
                    [
                        -124.085644,
                        41.243789
                    ],
                    [
                        -124.085478,
                        41.243663
                    ],
                    [
                        -124.085331,
                        41.243524
                    ],
                    [
                        -124.085204,
                        41.243375
                    ],
                    [
                        -124.085098,
                        41.243216
                    ],
                    [
                        -124.084798,
                        41.24265
                    ],
                    [
                        -124.084701,
                        41.242379
                    ],
                    [
                        -124.084667,
                        41.242193
                    ],
                    [
                        -124.084659,
                        41.241076
                    ],
                    [
                        -124.084636,
                        41.240833
                    ],
                    [
                        -124.084587,
                        41.240623
                    ],
                    [
                        -124.084484,
                        41.240352
                    ],
                    [
                        -124.083949,
                        41.239273
                    ],
                    [
                        -124.083811,
                        41.238949
                    ],
                    [
                        -124.083709,
                        41.238632
                    ],
                    [
                        -124.083578,
                        41.237971
                    ],
                    [
                        -124.083518,
                        41.237306
                    ],
                    [
                        -124.083538,
                        41.237025
                    ],
                    [
                        -124.083647,
                        41.236728
                    ],
                    [
                        -124.083846,
                        41.236321
                    ],
                    [
                        -124.083894,
                        41.236179
                    ],
                    [
                        -124.083919,
                        41.235994
                    ],
                    [
                        -124.083915,
                        41.235816
                    ],
                    [
                        -124.08388,
                        41.23558
                    ],
                    [
                        -124.083406,
                        41.234742
                    ],
                    [
                        -124.08326,
                        41.234404
                    ],
                    [
                        -124.08319,
                        41.234123
                    ],
                    [
                        -124.083166,
                        41.233775
                    ],
                    [
                        -124.083211,
                        41.233384
                    ],
                    [
                        -124.08354,
                        41.23184
                    ],
                    [
                        -124.083614,
                        41.231494
                    ],
                    [
                        -124.083964,
                        41.229855
                    ],
                    [
                        -124.084112,
                        41.229401
                    ],
                    [
                        -124.08451,
                        41.228659
                    ],
                    [
                        -124.085039,
                        41.227842
                    ],
                    [
                        -124.085296,
                        41.22749
                    ],
                    [
                        -124.085558,
                        41.227191
                    ],
                    [
                        -124.085838,
                        41.22695
                    ],
                    [
                        -124.08608,
                        41.226776
                    ],
                    [
                        -124.087619,
                        41.225931
                    ],
                    [
                        -124.089465,
                        41.22511
                    ],
                    [
                        -124.091224,
                        41.224251
                    ],
                    [
                        -124.091887,
                        41.223923
                    ],
                    [
                        -124.093155,
                        41.223254
                    ],
                    [
                        -124.09361,
                        41.223015
                    ],
                    [
                        -124.09422,
                        41.222628
                    ],
                    [
                        -124.095361,
                        41.221724
                    ],
                    [
                        -124.096108,
                        41.221162
                    ],
                    [
                        -124.096752,
                        41.22073
                    ],
                    [
                        -124.097679,
                        41.220245
                    ],
                    [
                        -124.098365,
                        41.219923
                    ],
                    [
                        -124.098803,
                        41.219748
                    ],
                    [
                        -124.099284,
                        41.21958
                    ],
                    [
                        -124.099859,
                        41.219426
                    ],
                    [
                        -124.100485,
                        41.21929
                    ],
                    [
                        -124.101593,
                        41.219116
                    ],
                    [
                        -124.102236,
                        41.219038
                    ],
                    [
                        -124.103241,
                        41.218967
                    ],
                    [
                        -124.103996,
                        41.218857
                    ],
                    [
                        -124.104296,
                        41.21878
                    ],
                    [
                        -124.104614,
                        41.21869
                    ],
                    [
                        -124.10524,
                        41.218451
                    ],
                    [
                        -124.105798,
                        41.218179
                    ],
                    [
                        -124.10621,
                        41.217934
                    ],
                    [
                        -124.106536,
                        41.217702
                    ],
                    [
                        -124.106794,
                        41.217482
                    ],
                    [
                        -124.107028,
                        41.217252
                    ],
                    [
                        -124.107306,
                        41.216935
                    ],
                    [
                        -124.107593,
                        41.216543
                    ],
                    [
                        -124.107901,
                        41.216018
                    ],
                    [
                        -124.108074,
                        41.215547
                    ],
                    [
                        -124.108275,
                        41.214831
                    ],
                    [
                        -124.108674,
                        41.213098
                    ],
                    [
                        -124.109571,
                        41.209477
                    ],
                    [
                        -124.109884,
                        41.208081
                    ],
                    [
                        -124.109987,
                        41.207539
                    ],
                    [
                        -124.110145,
                        41.206132
                    ],
                    [
                        -124.110263,
                        41.20479
                    ],
                    [
                        -124.11031,
                        41.204195
                    ],
                    [
                        -124.110359,
                        41.203906
                    ],
                    [
                        -124.110689,
                        41.203083
                    ],
                    [
                        -124.110777,
                        41.202744
                    ],
                    [
                        -124.110794,
                        41.202514
                    ],
                    [
                        -124.110779,
                        41.202285
                    ],
                    [
                        -124.110744,
                        41.202099
                    ],
                    [
                        -124.110426,
                        41.201013
                    ],
                    [
                        -124.110427,
                        41.200808
                    ],
                    [
                        -124.110484,
                        41.200609
                    ],
                    [
                        -124.1109,
                        41.199739
                    ],
                    [
                        -124.110997,
                        41.199437
                    ],
                    [
                        -124.111038,
                        41.19916
                    ],
                    [
                        -124.11103,
                        41.198908
                    ],
                    [
                        -124.110787,
                        41.197943
                    ],
                    [
                        -124.110628,
                        41.197682
                    ],
                    [
                        -124.110084,
                        41.197046
                    ],
                    [
                        -124.109949,
                        41.196851
                    ],
                    [
                        -124.109898,
                        41.196702
                    ],
                    [
                        -124.109919,
                        41.196418
                    ],
                    [
                        -124.110035,
                        41.196196
                    ],
                    [
                        -124.110188,
                        41.19602
                    ],
                    [
                        -124.110351,
                        41.195898
                    ],
                    [
                        -124.110757,
                        41.195675
                    ],
                    [
                        -124.110879,
                        41.19557
                    ],
                    [
                        -124.111026,
                        41.195354
                    ],
                    [
                        -124.111072,
                        41.195196
                    ],
                    [
                        -124.111073,
                        41.195033
                    ],
                    [
                        -124.110991,
                        41.194798
                    ],
                    [
                        -124.110884,
                        41.194657
                    ],
                    [
                        -124.110593,
                        41.194397
                    ],
                    [
                        -124.110339,
                        41.194129
                    ],
                    [
                        -124.110236,
                        41.193939
                    ],
                    [
                        -124.110186,
                        41.193739
                    ],
                    [
                        -124.110187,
                        41.193465
                    ],
                    [
                        -124.110422,
                        41.192921
                    ],
                    [
                        -124.110503,
                        41.192524
                    ],
                    [
                        -124.110465,
                        41.19214
                    ],
                    [
                        -124.110409,
                        41.191967
                    ],
                    [
                        -124.110146,
                        41.191438
                    ],
                    [
                        -124.109875,
                        41.190461
                    ],
                    [
                        -124.109765,
                        41.190275
                    ],
                    [
                        -124.108591,
                        41.189031
                    ],
                    [
                        -124.108384,
                        41.188843
                    ],
                    [
                        -124.108164,
                        41.188691
                    ],
                    [
                        -124.107916,
                        41.18849
                    ],
                    [
                        -124.107772,
                        41.188301
                    ],
                    [
                        -124.107737,
                        41.18816
                    ],
                    [
                        -124.107755,
                        41.187915
                    ],
                    [
                        -124.107818,
                        41.18777
                    ],
                    [
                        -124.108023,
                        41.187445
                    ],
                    [
                        -124.108075,
                        41.187279
                    ],
                    [
                        -124.108073,
                        41.186045
                    ],
                    [
                        -124.108032,
                        41.185697
                    ],
                    [
                        -124.10786,
                        41.185306
                    ],
                    [
                        -124.107805,
                        41.18512
                    ],
                    [
                        -124.107155,
                        41.183944
                    ],
                    [
                        -124.106986,
                        41.183561
                    ],
                    [
                        -124.106948,
                        41.183267
                    ],
                    [
                        -124.106693,
                        41.182496
                    ],
                    [
                        -124.106403,
                        41.181367
                    ],
                    [
                        -124.106218,
                        41.180751
                    ],
                    [
                        -124.106007,
                        41.179824
                    ],
                    [
                        -124.105814,
                        41.179144
                    ],
                    [
                        -124.105554,
                        41.178527
                    ],
                    [
                        -124.105225,
                        41.178049
                    ],
                    [
                        -124.104832,
                        41.177613
                    ],
                    [
                        -124.104273,
                        41.177131
                    ],
                    [
                        -124.104005,
                        41.176932
                    ],
                    [
                        -124.10339,
                        41.176489
                    ],
                    [
                        -124.103029,
                        41.176208
                    ],
                    [
                        -124.102789,
                        41.175948
                    ],
                    [
                        -124.102597,
                        41.175627
                    ],
                    [
                        -124.102554,
                        41.175483
                    ],
                    [
                        -124.101914,
                        41.171372
                    ],
                    [
                        -124.101918,
                        41.170564
                    ],
                    [
                        -124.101938,
                        41.170201
                    ],
                    [
                        -124.102037,
                        41.169375
                    ],
                    [
                        -124.102108,
                        41.168966
                    ],
                    [
                        -124.102193,
                        41.168616
                    ],
                    [
                        -124.102331,
                        41.168312
                    ],
                    [
                        -124.102459,
                        41.168118
                    ],
                    [
                        -124.102631,
                        41.167892
                    ],
                    [
                        -124.102974,
                        41.16753
                    ],
                    [
                        -124.103283,
                        41.167265
                    ],
                    [
                        -124.103864,
                        41.166825
                    ],
                    [
                        -124.105944,
                        41.16532
                    ],
                    [
                        -124.107112,
                        41.164513
                    ],
                    [
                        -124.107515,
                        41.164267
                    ],
                    [
                        -124.108013,
                        41.164002
                    ],
                    [
                        -124.108511,
                        41.163763
                    ],
                    [
                        -124.110553,
                        41.1628
                    ],
                    [
                        -124.111918,
                        41.162161
                    ],
                    [
                        -124.116201,
                        41.160157
                    ],
                    [
                        -124.116613,
                        41.160009
                    ],
                    [
                        -124.117059,
                        41.159873
                    ],
                    [
                        -124.117549,
                        41.15975
                    ],
                    [
                        -124.120596,
                        41.159162
                    ],
                    [
                        -124.121016,
                        41.159046
                    ],
                    [
                        -124.12178,
                        41.158794
                    ],
                    [
                        -124.12214,
                        41.158632
                    ],
                    [
                        -124.122844,
                        41.158258
                    ],
                    [
                        -124.12693,
                        41.155899
                    ],
                    [
                        -124.132569,
                        41.152609
                    ],
                    [
                        -124.133015,
                        41.15237
                    ],
                    [
                        -124.133384,
                        41.152144
                    ],
                    [
                        -124.134002,
                        41.151717
                    ],
                    [
                        -124.13426,
                        41.151491
                    ],
                    [
                        -124.134835,
                        41.150864
                    ],
                    [
                        -124.135049,
                        41.150567
                    ],
                    [
                        -124.135401,
                        41.14994
                    ],
                    [
                        -124.135753,
                        41.149041
                    ],
                    [
                        -124.135873,
                        41.148428
                    ],
                    [
                        -124.135916,
                        41.148001
                    ],
                    [
                        -124.136011,
                        41.14477
                    ],
                    [
                        -124.136062,
                        41.143994
                    ],
                    [
                        -124.136217,
                        41.143277
                    ],
                    [
                        -124.13644,
                        41.142624
                    ],
                    [
                        -124.136637,
                        41.142171
                    ],
                    [
                        -124.136878,
                        41.141725
                    ],
                    [
                        -124.137169,
                        41.141253
                    ],
                    [
                        -124.137676,
                        41.140594
                    ],
                    [
                        -124.137993,
                        41.140239
                    ],
                    [
                        -124.138302,
                        41.139941
                    ],
                    [
                        -124.138723,
                        41.139599
                    ],
                    [
                        -124.139161,
                        41.139269
                    ],
                    [
                        -124.13959,
                        41.138972
                    ],
                    [
                        -124.140002,
                        41.138733
                    ],
                    [
                        -124.1405,
                        41.138461
                    ],
                    [
                        -124.141358,
                        41.13806
                    ],
                    [
                        -124.141856,
                        41.137879
                    ],
                    [
                        -124.142336,
                        41.137724
                    ],
                    [
                        -124.14341,
                        41.13748
                    ],
                    [
                        -124.143924,
                        41.137291
                    ],
                    [
                        -124.144662,
                        41.137071
                    ],
                    [
                        -124.145195,
                        41.136884
                    ],
                    [
                        -124.145684,
                        41.13669
                    ],
                    [
                        -124.146542,
                        41.13627
                    ],
                    [
                        -124.146808,
                        41.136121
                    ],
                    [
                        -124.147516,
                        41.135691
                    ],
                    [
                        -124.148177,
                        41.1352
                    ],
                    [
                        -124.148967,
                        41.134439
                    ],
                    [
                        -124.149565,
                        41.13372
                    ],
                    [
                        -124.149844,
                        41.133227
                    ],
                    [
                        -124.150159,
                        41.132721
                    ],
                    [
                        -124.150327,
                        41.132287
                    ],
                    [
                        -124.150405,
                        41.131977
                    ],
                    [
                        -124.150456,
                        41.131667
                    ],
                    [
                        -124.15049,
                        41.130523
                    ],
                    [
                        -124.15055,
                        41.130057
                    ],
                    [
                        -124.150581,
                        41.129604
                    ],
                    [
                        -124.151151,
                        41.120003
                    ],
                    [
                        -124.151246,
                        41.119564
                    ],
                    [
                        -124.151555,
                        41.118594
                    ],
                    [
                        -124.154533,
                        41.110181
                    ],
                    [
                        -124.154687,
                        41.109689
                    ],
                    [
                        -124.154833,
                        41.109075
                    ],
                    [
                        -124.154919,
                        41.10848
                    ],
                    [
                        -124.154962,
                        41.107976
                    ],
                    [
                        -124.155004,
                        41.107269
                    ],
                    [
                        -124.154977,
                        41.106794
                    ],
                    [
                        -124.154941,
                        41.106432
                    ],
                    [
                        -124.154833,
                        41.10601
                    ],
                    [
                        -124.154773,
                        41.105628
                    ],
                    [
                        -124.154571,
                        41.103657
                    ],
                    [
                        -124.154345,
                        41.101906
                    ],
                    [
                        -124.154282,
                        41.101209
                    ],
                    [
                        -124.154168,
                        41.100535
                    ],
                    [
                        -124.153842,
                        41.099481
                    ],
                    [
                        -124.153704,
                        41.099151
                    ],
                    [
                        -124.153469,
                        41.098662
                    ],
                    [
                        -124.153348,
                        41.098404
                    ],
                    [
                        -124.151952,
                        41.095408
                    ],
                    [
                        -124.151203,
                        41.093918
                    ],
                    [
                        -124.148874,
                        41.089172
                    ],
                    [
                        -124.147869,
                        41.087179
                    ],
                    [
                        -124.14217,
                        41.075553
                    ],
                    [
                        -124.142041,
                        41.075231
                    ],
                    [
                        -124.14178,
                        41.074447
                    ],
                    [
                        -124.141634,
                        41.073899
                    ],
                    [
                        -124.141536,
                        41.073359
                    ],
                    [
                        -124.141482,
                        41.072856
                    ],
                    [
                        -124.141457,
                        41.072369
                    ],
                    [
                        -124.141463,
                        41.07203
                    ],
                    [
                        -124.141537,
                        41.071022
                    ],
                    [
                        -124.141516,
                        41.070973
                    ],
                    [
                        -124.141455,
                        41.070911
                    ],
                    [
                        -124.141873,
                        41.066469
                    ],
                    [
                        -124.141828,
                        41.065779
                    ],
                    [
                        -124.141779,
                        41.065468
                    ],
                    [
                        -124.141543,
                        41.06461
                    ],
                    [
                        -124.141468,
                        41.064408
                    ],
                    [
                        -124.141305,
                        41.064113
                    ],
                    [
                        -124.140884,
                        41.063559
                    ],
                    [
                        -124.140406,
                        41.063045
                    ],
                    [
                        -124.139754,
                        41.062493
                    ],
                    [
                        -124.139379,
                        41.062238
                    ],
                    [
                        -124.139032,
                        41.062016
                    ],
                    [
                        -124.138113,
                        41.061496
                    ],
                    [
                        -124.137348,
                        41.061126
                    ],
                    [
                        -124.13351,
                        41.05913
                    ],
                    [
                        -124.131794,
                        41.05828
                    ],
                    [
                        -124.127955,
                        41.05628
                    ],
                    [
                        -124.127363,
                        41.055885
                    ],
                    [
                        -124.127003,
                        41.055588
                    ],
                    [
                        -124.126668,
                        41.055275
                    ],
                    [
                        -124.126188,
                        41.054755
                    ],
                    [
                        -124.120893,
                        41.048869
                    ],
                    [
                        -124.119832,
                        41.047632
                    ],
                    [
                        -124.117661,
                        41.045351
                    ],
                    [
                        -124.116921,
                        41.04455
                    ],
                    [
                        -124.11602,
                        41.04347
                    ],
                    [
                        -124.115741,
                        41.043069
                    ],
                    [
                        -124.11537,
                        41.042377
                    ],
                    [
                        -124.114314,
                        41.040108
                    ],
                    [
                        -124.112699,
                        41.036595
                    ],
                    [
                        -124.112039,
                        41.035288
                    ],
                    [
                        -124.111728,
                        41.034734
                    ],
                    [
                        -124.110221,
                        41.032306
                    ],
                    [
                        -124.109999,
                        41.031963
                    ],
                    [
                        -124.108923,
                        41.030236
                    ],
                    [
                        -124.107887,
                        41.028672
                    ],
                    [
                        -124.107627,
                        41.02833
                    ],
                    [
                        -124.107426,
                        41.028029
                    ],
                    [
                        -124.107222,
                        41.027596
                    ],
                    [
                        -124.107155,
                        41.027359
                    ],
                    [
                        -124.107026,
                        41.026831
                    ],
                    [
                        -124.106991,
                        41.026475
                    ],
                    [
                        -124.106981,
                        41.025904
                    ],
                    [
                        -124.107266,
                        41.023871
                    ],
                    [
                        -124.1073,
                        41.023476
                    ],
                    [
                        -124.107309,
                        41.023101
                    ],
                    [
                        -124.107292,
                        41.022764
                    ],
                    [
                        -124.107094,
                        41.020828
                    ],
                    [
                        -124.10694,
                        41.019785
                    ],
                    [
                        -124.106906,
                        41.019254
                    ],
                    [
                        -124.106845,
                        41.018762
                    ],
                    [
                        -124.10682,
                        41.018004
                    ],
                    [
                        -124.106828,
                        41.017706
                    ],
                    [
                        -124.106923,
                        41.016871
                    ],
                    [
                        -124.107043,
                        41.016359
                    ],
                    [
                        -124.107223,
                        41.015718
                    ],
                    [
                        -124.107918,
                        41.013795
                    ],
                    [
                        -124.108169,
                        41.013228
                    ],
                    [
                        -124.108262,
                        41.012979
                    ],
                    [
                        -124.108468,
                        41.012558
                    ],
                    [
                        -124.108648,
                        41.012241
                    ],
                    [
                        -124.109532,
                        41.011003
                    ],
                    [
                        -124.109832,
                        41.010589
                    ],
                    [
                        -124.110159,
                        41.010006
                    ],
                    [
                        -124.110304,
                        41.009669
                    ],
                    [
                        -124.111575,
                        41.00566
                    ],
                    [
                        -124.111961,
                        41.004287
                    ],
                    [
                        -124.112253,
                        41.00292
                    ],
                    [
                        -124.112879,
                        40.998638
                    ],
                    [
                        -124.113008,
                        40.997472
                    ],
                    [
                        -124.11306,
                        40.996565
                    ],
                    [
                        -124.113184,
                        40.995225
                    ],
                    [
                        -124.113424,
                        40.994143
                    ],
                    [
                        -124.113509,
                        40.993856
                    ],
                    [
                        -124.113619,
                        40.993565
                    ],
                    [
                        -124.113826,
                        40.993114
                    ],
                    [
                        -124.114537,
                        40.991726
                    ],
                    [
                        -124.114971,
                        40.990784
                    ],
                    [
                        -124.115209,
                        40.990171
                    ],
                    [
                        -124.11536,
                        40.989679
                    ],
                    [
                        -124.11557,
                        40.988819
                    ],
                    [
                        -124.117589,
                        40.979869
                    ],
                    [
                        -124.117629,
                        40.979475
                    ],
                    [
                        -124.117641,
                        40.979027
                    ],
                    [
                        -124.117609,
                        40.978615
                    ],
                    [
                        -124.11743,
                        40.977735
                    ],
                    [
                        -124.117284,
                        40.976516
                    ],
                    [
                        -124.116616,
                        40.973198
                    ],
                    [
                        -124.116375,
                        40.971894
                    ],
                    [
                        -124.116136,
                        40.970557
                    ],
                    [
                        -124.1161,
                        40.970245
                    ],
                    [
                        -124.116085,
                        40.968938
                    ],
                    [
                        -124.11608,
                        40.968623
                    ],
                    [
                        -124.116126,
                        40.966546
                    ],
                    [
                        -124.116206,
                        40.959041
                    ],
                    [
                        -124.116239,
                        40.958046
                    ],
                    [
                        -124.116226,
                        40.954157
                    ],
                    [
                        -124.116402,
                        40.938491
                    ],
                    [
                        -124.116383,
                        40.93817
                    ],
                    [
                        -124.116295,
                        40.937578
                    ],
                    [
                        -124.116126,
                        40.936981
                    ],
                    [
                        -124.114397,
                        40.932227
                    ],
                    [
                        -124.113343,
                        40.929311
                    ],
                    [
                        -124.113152,
                        40.928902
                    ],
                    [
                        -124.11288,
                        40.928407
                    ],
                    [
                        -124.112736,
                        40.928187
                    ],
                    [
                        -124.112284,
                        40.927614
                    ],
                    [
                        -124.111725,
                        40.927074
                    ],
                    [
                        -124.11119,
                        40.926671
                    ],
                    [
                        -124.110617,
                        40.926317
                    ],
                    [
                        -124.110174,
                        40.926083
                    ],
                    [
                        -124.098434,
                        40.920891
                    ],
                    [
                        -124.097003,
                        40.920262
                    ],
                    [
                        -124.096389,
                        40.919949
                    ],
                    [
                        -124.096142,
                        40.919802
                    ],
                    [
                        -124.095816,
                        40.919581
                    ],
                    [
                        -124.095346,
                        40.919216
                    ],
                    [
                        -124.095078,
                        40.918973
                    ],
                    [
                        -124.094768,
                        40.918657
                    ],
                    [
                        -124.094418,
                        40.918243
                    ],
                    [
                        -124.094199,
                        40.917945
                    ],
                    [
                        -124.093921,
                        40.917491
                    ],
                    [
                        -124.093426,
                        40.916694
                    ],
                    [
                        -124.092714,
                        40.91555
                    ],
                    [
                        -124.091904,
                        40.91423
                    ],
                    [
                        -124.091651,
                        40.913787
                    ],
                    [
                        -124.089672,
                        40.909827
                    ],
                    [
                        -124.089528,
                        40.909538
                    ],
                    [
                        -124.089382,
                        40.909246
                    ],
                    [
                        -124.088866,
                        40.908212
                    ],
                    [
                        -124.087988,
                        40.9065
                    ],
                    [
                        -124.085667,
                        40.901822
                    ],
                    [
                        -124.083053,
                        40.896583
                    ],
                    [
                        -124.082903,
                        40.896283
                    ],
                    [
                        -124.081994,
                        40.894451
                    ],
                    [
                        -124.080725,
                        40.89192
                    ],
                    [
                        -124.080416,
                        40.89131
                    ],
                    [
                        -124.080242,
                        40.890879
                    ],
                    [
                        -124.080128,
                        40.890328
                    ],
                    [
                        -124.079807,
                        40.887295
                    ],
                    [
                        -124.079828,
                        40.886889
                    ],
                    [
                        -124.079884,
                        40.886431
                    ],
                    [
                        -124.080739,
                        40.883865
                    ],
                    [
                        -124.081041,
                        40.882951
                    ],
                    [
                        -124.081292,
                        40.882394
                    ],
                    [
                        -124.081764,
                        40.881261
                    ],
                    [
                        -124.081972,
                        40.880915
                    ],
                    [
                        -124.082268,
                        40.880559
                    ],
                    [
                        -124.082516,
                        40.880339
                    ],
                    [
                        -124.083177,
                        40.879833
                    ],
                    [
                        -124.083343,
                        40.879689
                    ],
                    [
                        -124.083467,
                        40.879559
                    ],
                    [
                        -124.083542,
                        40.879418
                    ],
                    [
                        -124.083588,
                        40.879272
                    ],
                    [
                        -124.083607,
                        40.879112
                    ],
                    [
                        -124.083666,
                        40.878798
                    ],
                    [
                        -124.083643,
                        40.87845
                    ],
                    [
                        -124.083569,
                        40.877941
                    ],
                    [
                        -124.083576,
                        40.877711
                    ],
                    [
                        -124.083601,
                        40.877617
                    ],
                    [
                        -124.083833,
                        40.877051
                    ],
                    [
                        -124.083856,
                        40.876918
                    ],
                    [
                        -124.084012,
                        40.876484
                    ],
                    [
                        -124.084122,
                        40.876199
                    ],
                    [
                        -124.084227,
                        40.875925
                    ],
                    [
                        -124.084428,
                        40.875395
                    ],
                    [
                        -124.084732,
                        40.874598
                    ],
                    [
                        -124.08503,
                        40.87381
                    ],
                    [
                        -124.08518,
                        40.873396
                    ],
                    [
                        -124.085322,
                        40.87301
                    ],
                    [
                        -124.085619,
                        40.872222
                    ],
                    [
                        -124.085663,
                        40.872105
                    ],
                    [
                        -124.085919,
                        40.871428
                    ],
                    [
                        -124.086064,
                        40.871039
                    ],
                    [
                        -124.08622,
                        40.870635
                    ],
                    [
                        -124.085715,
                        40.870525
                    ],
                    [
                        -124.08519,
                        40.870411
                    ],
                    [
                        -124.08452,
                        40.870264
                    ],
                    [
                        -124.084135,
                        40.870179
                    ],
                    [
                        -124.083406,
                        40.870009
                    ],
                    [
                        -124.082443,
                        40.869803
                    ],
                    [
                        -124.082053,
                        40.869728
                    ],
                    [
                        -124.082343,
                        40.868918
                    ],
                    [
                        -124.082364,
                        40.868862
                    ]
                ],
                "type": "LineString"
            }
        }
    ],
    "metadata": {
        "attribution": "openrouteservice.org | OpenStreetMap contributors",
        "service": "routing",
        "timestamp": 1756795558160,
        "query": {
            "coordinates": [
                [
                    -124.014675,
                    41.373243
                ],
                [
                    -124.082295,
                    40.868847
                ]
            ],
            "profile": "driving-car",
            "profileName": "driving-car",
            "format": "geojson"
        },
        "engine": {
            "version": "9.3.0",
            "build_date": "2025-06-06T15:39:25Z",
            "graph_date": "2025-08-31T11:45:10Z",
            "osm_date": "2025-08-24T23:59:58Z"
        }
    }
}