{
    "type": "FeatureCollection",
    "bbox": [
        77.569707,
        12.975294,
        77.703496,
        13.200172
    ],
    "features": [
        {
            "bbox": [
                77.569707,
                12.975294,
                77.703496,
                13.200172
            ],
            "type": "Feature",
            "properties": {
                "segments": [
                    {
                        "distance": 34532.2,
                        "duration": 2520.6,
                        "steps": [
                            {
                                "distance": 358.2,
                                "duration": 64.5,
                                "type": 11,
                                "instruction": "Head west on Cargo Road",
                                "name": "Cargo Road",
                                "way_points": [
                                    0,
                                    4
                                ]
                            },
                            {
                                "distance": 2079.4,
                                "duration": 195.1,
                                "type": 2,
                                "instruction": "Turn sharp left",
                                "name": "-",
                                "way_points": [
                                    4,
                                    22
                                ]
                            },
                            {
                                "distance": 1874.3,
                                "duration": 149.2,
                                "type": 13,
                                "instruction": "Keep right onto KIAL Exit Road",
                                "name": "KIAL Exit Road",
                                "way_points": [
                                    22,
                                    36
                                ]
                            },
                            {
                                "distance": 476.2,
                                "duration": 47.2,
                                "type": 12,
                                "instruction": "Keep left onto Airport Trumpet Flyover",
                                "name": "Airport Trumpet Flyover",
                                "way_points": [
                                    36,
                                    44
                                ]
                            },
                            {
                                "distance": 19691.0,
                                "duration": 1193.2,
                                "type": 12,
                                "instruction": "Keep left onto Airport Trumpet Flyover",
                                "name": "Airport Trumpet Flyover",
                                "way_points": [
                                    44,
                                    203
                                ]
                            },
                            {
                                "distance": 1585.5,
                                "duration": 128.0,
                                "type": 13,
                                "instruction": "Keep right onto Hebbal Flyover",
                                "name": "Hebbal Flyover",
                                "way_points": [
                                    203,
                                    226
                                ]
                            },
                            {
                                "distance": 9.3,
                                "duration": 3.4,
                                "type": 0,
                                "instruction": "Turn left",
                                "name": "-",
                                "way_points": [
                                    226,
                                    227
                                ]
                            },
                            {
                                "distance": 601.2,
                                "duration": 43.3,
                                "type": 1,
                                "instruction": "Turn right",
                                "name": "-",
                                "way_points": [
                                    227,
                                    235
                                ]
                            },
                            {
                                "distance": 14.0,
                                "duration": 1.1,
                                "type": 1,
                                "instruction": "Turn right",
                                "name": "-",
                                "way_points": [
                                    235,
                                    236
                                ]
                            },
                            {
                                "distance": 3357.8,
                                "duration": 251.8,
                                "type": 0,
                                "instruction": "Turn left onto Ganga Nagar Flyover, NH48",
                                "name": "Ganga Nagar Flyover, NH48",
                                "way_points": [
                                    236,
                                    277
                                ]
                            },
                            {
                                "distance": 301.9,
                                "duration": 27.2,
                                "type": 0,
                                "instruction": "Turn left",
                                "name": "-",
                                "way_points": [
                                    277,
                                    283
                                ]
                            },
                            {
                                "distance": 504.5,
                                "duration": 57.9,
                                "type": 6,
                                "instruction": "Continue straight onto Palace Cross Road",
                                "name": "Palace Cross Road",
                                "way_points": [
                                    283,
                                    294
                                ]
                            },
                            {
                                "distance": 8.9,
                                "duration": 6.4,
                                "type": 0,
                                "instruction": "Turn left",
                                "name": "-",
                                "way_points": [
                                    294,
                                    296
                                ]
                            },
                            {
                                "distance": 1367.9,
                                "duration": 98.5,
                                "type": 0,
                                "instruction": "Turn left onto Sheshadripuram Main Road",
                                "name": "Sheshadripuram Main Road",
                                "way_points": [
                                    296,
                                    332
                                ]
                            },
                            {
                                "distance": 18.2,
                                "duration": 6.6,
                                "type": 1,
                                "instruction": "Turn right",
                                "name": "-",
                                "way_points": [
                                    332,
                                    333
                                ]
                            },
                            {
                                "distance": 411.9,
                                "duration": 38.2,
                                "type": 0,
                                "instruction": "Turn left onto Subedar Chatram Road",
                                "name": "Subedar Chatram Road",
                                "way_points": [
                                    333,
                                    339
                                ]
                            },
                            {
                                "distance": 262.0,
                                "duration": 23.6,
                                "type": 1,
                                "instruction": "Turn right onto Risaldar Street",
                                "name": "Risaldar Street",
                                "way_points": [
                                    339,
                                    347
                                ]
                            },
                            {
                                "distance": 43.8,
                                "duration": 6.8,
                                "type": 0,
                                "instruction": "Turn left onto Railway Platform Road",
                                "name": "Railway Platform Road",
                                "way_points": [
                                    347,
                                    349
                                ]
                            },
                            {
                                "distance": 35.6,
                                "duration": 2.8,
                                "type": 12,
                                "instruction": "Keep left onto Dhanvanthari Road",
                                "name": "Dhanvanthari Road",
                                "way_points": [
                                    349,
                                    350
                                ]
                            },
                            {
                                "distance": 550.6,
                                "duration": 68.2,
                                "type": 3,
                                "instruction": "Turn sharp right",
                                "name": "-",
                                "way_points": [
                                    350,
                                    374
                                ]
                            },
                            {
                                "distance": 35.5,
                                "duration": 8.5,
                                "type": 6,
                                "instruction": "Continue straight onto Old Mysuru Road",
                                "name": "Old Mysuru Road",
                                "way_points": [
                                    374,
                                    375
                                ]
                            },
                            {
                                "distance": 563.7,
                                "duration": 53.5,
                                "type": 7,
                                "instruction": "Enter the roundabout and take the 2nd exit onto Gubbi Thotadappa Road",
                                "name": "Gubbi Thotadappa Road",
                                "exit_number": 2,
                                "way_points": [
                                    375,
                                    389
                                ]
                            },
                            {
                                "distance": 235.9,
                                "duration": 19.5,
                                "type": 6,
                                "instruction": "Continue straight onto Gubbi Thotadappa Road",
                                "name": "Gubbi Thotadappa Road",
                                "way_points": [
                                    389,
                                    395
                                ]
                            },
                            {
                                "distance": 145.0,
                                "duration": 26.1,
                                "type": 12,
                                "instruction": "Keep left",
                                "name": "-",
                                "way_points": [
                                    395,
                                    402
                                ]
                            },
                            {
                                "distance": 0.0,
                                "duration": 0.0,
                                "type": 10,
                                "instruction": "Arrive at your destination, straight ahead",
                                "name": "-",
                                "way_points": [
                                    402,
                                    402
                                ]
                            }
                        ]
                    }
                ],
                "way_points": [
                    0,
                    402
                ],
                "summary": {
                    "distance": 34532.2,
                    "duration": 2520.6
                }
            },
            "geometry": {
                "coordinates": [
                    [
                        77.703496,
                        13.199496
                    ],
                    [
                        77.70334,
                        13.199497
                    ],
                    [
                        77.701118,
                        13.199507
                    ],
                    [
                        77.700664,
                        13.199509
                    ],
                    [
                        77.700188,
                        13.199518
                    ],
                    [
                        77.700221,
                        13.199389
                    ],
                    [
                        77.700216,
                        13.198789
                    ],
                    [
                        77.700237,
                        13.198703
                    ],
                    [
                        77.70028,
                        13.198647
                    ],
                    [
                        77.700353,
                        13.1986
                    ],
                    [
                        77.700438,
                        13.198589
                    ],
                    [
                        77.70109,
                        13.198603
                    ],
                    [
                        77.701184,
                        13.19858
                    ],
                    [
                        77.701254,
                        13.198536
                    ],
                    [
                        77.701323,
                        13.198436
                    ],
                    [
                        77.701318,
                        13.198026
                    ],
                    [
                        77.701278,
                        13.197924
                    ],
                    [
                        77.701195,
                        13.197857
                    ],
                    [
                        77.701082,
                        13.197833
                    ],
                    [
                        77.700179,
                        13.197814
                    ],
                    [
                        77.699819,
                        13.19782
                    ],
                    [
                        77.699022,
                        13.198015
                    ],
                    [
                        77.684702,
                        13.19812
                    ],
                    [
                        77.682508,
                        13.198217
                    ],
                    [
                        77.68144,
                        13.198222
                    ],
                    [
                        77.680859,
                        13.198187
                    ],
                    [
                        77.680441,
                        13.198145
                    ],
                    [
                        77.679924,
                        13.198067
                    ],
                    [
                        77.679775,
                        13.198062
                    ],
                    [
                        77.679582,
                        13.198057
                    ],
                    [
                        77.679307,
                        13.198069
                    ],
                    [
                        77.676164,
                        13.198076
                    ],
                    [
                        77.675527,
                        13.198047
                    ],
                    [
                        77.674433,
                        13.19806
                    ],
                    [
                        77.674073,
                        13.198061
                    ],
                    [
                        77.670967,
                        13.198107
                    ],
                    [
                        77.667402,
                        13.198122
                    ],
                    [
                        77.667172,
                        13.198053
                    ],
                    [
                        77.666633,
                        13.198037
                    ],
                    [
                        77.664935,
                        13.198083
                    ],
                    [
                        77.664683,
                        13.198108
                    ],
                    [
                        77.664238,
                        13.198193
                    ],
                    [
                        77.663748,
                        13.198339
                    ],
                    [
                        77.663518,
                        13.198435
                    ],
                    [
                        77.663125,
                        13.198649
                    ],
                    [
                        77.663015,
                        13.198683
                    ],
                    [
                        77.662742,
                        13.19888
                    ],
                    [
                        77.662062,
                        13.199493
                    ],
                    [
                        77.661768,
                        13.199775
                    ],
                    [
                        77.661615,
                        13.19989
                    ],
                    [
                        77.661361,
                        13.20004
                    ],
                    [
                        77.661199,
                        13.2001
                    ],
                    [
                        77.660924,
                        13.200161
                    ],
                    [
                        77.660721,
                        13.200172
                    ],
                    [
                        77.660421,
                        13.200134
                    ],
                    [
                        77.660248,
                        13.200079
                    ],
                    [
                        77.660059,
                        13.199996
                    ],
                    [
                        77.659022,
                        13.199378
                    ],
                    [
                        77.658841,
                        13.199301
                    ],
                    [
                        77.657886,
                        13.198674
                    ],
                    [
                        77.65659,
                        13.19784
                    ],
                    [
                        77.655611,
                        13.197248
                    ],
                    [
                        77.654321,
                        13.196394
                    ],
                    [
                        77.654025,
                        13.196293
                    ],
                    [
                        77.652661,
                        13.195316
                    ],
                    [
                        77.65147,
                        13.194526
                    ],
                    [
                        77.651294,
                        13.194372
                    ],
                    [
                        77.650958,
                        13.194136
                    ],
                    [
                        77.650575,
                        13.193866
                    ],
                    [
                        77.649918,
                        13.193404
                    ],
                    [
                        77.649205,
                        13.19288
                    ],
                    [
                        77.649004,
                        13.192743
                    ],
                    [
                        77.648652,
                        13.192545
                    ],
                    [
                        77.647618,
                        13.19188
                    ],
                    [
                        77.647066,
                        13.191517
                    ],
                    [
                        77.64692,
                        13.191446
                    ],
                    [
                        77.646675,
                        13.191237
                    ],
                    [
                        77.64647,
                        13.191044
                    ],
                    [
                        77.646194,
                        13.190743
                    ],
                    [
                        77.6458,
                        13.190258
                    ],
                    [
                        77.645471,
                        13.189811
                    ],
                    [
                        77.641504,
                        13.184356
                    ],
                    [
                        77.640781,
                        13.183325
                    ],
                    [
                        77.640734,
                        13.183254
                    ],
                    [
                        77.639776,
                        13.181869
                    ],
                    [
                        77.638054,
                        13.179485
                    ],
                    [
                        77.636652,
                        13.177573
                    ],
                    [
                        77.635663,
                        13.176266
                    ],
                    [
                        77.635625,
                        13.176214
                    ],
                    [
                        77.635522,
                        13.176072
                    ],
                    [
                        77.635276,
                        13.175762
                    ],
                    [
                        77.634886,
                        13.175221
                    ],
                    [
                        77.634422,
                        13.174627
                    ],
                    [
                        77.634164,
                        13.174226
                    ],
                    [
                        77.633959,
                        13.17383
                    ],
                    [
                        77.6331,
                        13.171844
                    ],
                    [
                        77.631897,
                        13.16931
                    ],
                    [
                        77.630668,
                        13.166681
                    ],
                    [
                        77.630415,
                        13.166079
                    ],
                    [
                        77.630115,
                        13.165463
                    ],
                    [
                        77.629757,
                        13.164897
                    ],
                    [
                        77.62944,
                        13.164479
                    ],
                    [
                        77.628135,
                        13.162794
                    ],
                    [
                        77.626959,
                        13.161415
                    ],
                    [
                        77.626708,
                        13.161075
                    ],
                    [
                        77.626519,
                        13.160756
                    ],
                    [
                        77.625688,
                        13.159638
                    ],
                    [
                        77.624293,
                        13.157803
                    ],
                    [
                        77.623878,
                        13.157311
                    ],
                    [
                        77.623379,
                        13.156676
                    ],
                    [
                        77.621532,
                        13.154006
                    ],
                    [
                        77.621444,
                        13.153869
                    ],
                    [
                        77.621034,
                        13.15317
                    ],
                    [
                        77.620355,
                        13.151843
                    ],
                    [
                        77.619299,
                        13.149872
                    ],
                    [
                        77.619196,
                        13.14968
                    ],
                    [
                        77.618253,
                        13.147878
                    ],
                    [
                        77.618075,
                        13.147446
                    ],
                    [
                        77.617994,
                        13.147199
                    ],
                    [
                        77.617873,
                        13.146639
                    ],
                    [
                        77.617618,
                        13.144822
                    ],
                    [
                        77.617495,
                        13.143557
                    ],
                    [
                        77.617461,
                        13.142867
                    ],
                    [
                        77.617558,
                        13.139091
                    ],
                    [
                        77.617562,
                        13.138833
                    ],
                    [
                        77.6176,
                        13.137568
                    ],
                    [
                        77.61761,
                        13.137222
                    ],
                    [
                        77.617597,
                        13.136791
                    ],
                    [
                        77.617549,
                        13.136457
                    ],
                    [
                        77.617487,
                        13.136192
                    ],
                    [
                        77.617329,
                        13.135749
                    ],
                    [
                        77.61699,
                        13.134892
                    ],
                    [
                        77.615498,
                        13.131672
                    ],
                    [
                        77.615436,
                        13.131542
                    ],
                    [
                        77.61542,
                        13.131502
                    ],
                    [
                        77.614158,
                        13.128865
                    ],
                    [
                        77.612607,
                        13.125596
                    ],
                    [
                        77.612266,
                        13.124895
                    ],
                    [
                        77.611203,
                        13.122597
                    ],
                    [
                        77.610247,
                        13.120619
                    ],
                    [
                        77.60994,
                        13.119984
                    ],
                    [
                        77.608667,
                        13.11758
                    ],
                    [
                        77.608248,
                        13.116858
                    ],
                    [
                        77.607436,
                        13.115541
                    ],
                    [
                        77.606938,
                        13.114687
                    ],
                    [
                        77.606575,
                        13.114102
                    ],
                    [
                        77.60596,
                        13.113145
                    ],
                    [
                        77.605198,
                        13.111901
                    ],
                    [
                        77.604679,
                        13.111092
                    ],
                    [
                        77.602303,
                        13.107142
                    ],
                    [
                        77.601239,
                        13.105338
                    ],
                    [
                        77.600959,
                        13.104806
                    ],
                    [
                        77.600548,
                        13.103836
                    ],
                    [
                        77.600415,
                        13.103442
                    ],
                    [
                        77.599187,
                        13.098861
                    ],
                    [
                        77.599009,
                        13.098303
                    ],
                    [
                        77.59892,
                        13.098049
                    ],
                    [
                        77.598267,
                        13.096378
                    ],
                    [
                        77.597684,
                        13.094983
                    ],
                    [
                        77.597408,
                        13.09398
                    ],
                    [
                        77.597044,
                        13.092265
                    ],
                    [
                        77.596758,
                        13.09109
                    ],
                    [
                        77.596756,
                        13.091079
                    ],
                    [
                        77.596707,
                        13.090855
                    ],
                    [
                        77.596506,
                        13.09014
                    ],
                    [
                        77.59637,
                        13.089743
                    ],
                    [
                        77.596057,
                        13.088938
                    ],
                    [
                        77.595452,
                        13.087523
                    ],
                    [
                        77.594939,
                        13.086397
                    ],
                    [
                        77.594042,
                        13.084138
                    ],
                    [
                        77.593671,
                        13.08316
                    ],
                    [
                        77.593538,
                        13.082723
                    ],
                    [
                        77.593388,
                        13.082128
                    ],
                    [
                        77.593306,
                        13.081674
                    ],
                    [
                        77.593268,
                        13.081327
                    ],
                    [
                        77.593152,
                        13.079839
                    ],
                    [
                        77.592918,
                        13.077322
                    ],
                    [
                        77.59273,
                        13.075094
                    ],
                    [
                        77.592718,
                        13.073985
                    ],
                    [
                        77.592767,
                        13.072786
                    ],
                    [
                        77.593057,
                        13.068453
                    ],
                    [
                        77.593104,
                        13.067809
                    ],
                    [
                        77.593185,
                        13.067095
                    ],
                    [
                        77.593281,
                        13.066003
                    ],
                    [
                        77.593325,
                        13.065037
                    ],
                    [
                        77.593336,
                        13.063989
                    ],
                    [
                        77.593511,
                        13.060586
                    ],
                    [
                        77.593525,
                        13.059833
                    ],
                    [
                        77.593466,
                        13.055961
                    ],
                    [
                        77.593479,
                        13.0554
                    ],
                    [
                        77.593491,
                        13.055063
                    ],
                    [
                        77.593581,
                        13.053787
                    ],
                    [
                        77.593612,
                        13.053199
                    ],
                    [
                        77.5936,
                        13.052908
                    ],
                    [
                        77.593562,
                        13.052584
                    ],
                    [
                        77.593496,
                        13.052168
                    ],
                    [
                        77.593274,
                        13.051286
                    ],
                    [
                        77.593152,
                        13.050787
                    ],
                    [
                        77.592842,
                        13.049564
                    ],
                    [
                        77.592667,
                        13.049025
                    ],
                    [
                        77.592573,
                        13.048788
                    ],
                    [
                        77.592229,
                        13.048061
                    ],
                    [
                        77.592105,
                        13.047813
                    ],
                    [
                        77.591864,
                        13.047304
                    ],
                    [
                        77.591532,
                        13.046652
                    ],
                    [
                        77.591447,
                        13.046377
                    ],
                    [
                        77.591361,
                        13.045954
                    ],
                    [
                        77.591288,
                        13.045314
                    ],
                    [
                        77.591218,
                        13.04489
                    ],
                    [
                        77.591043,
                        13.044274
                    ],
                    [
                        77.590959,
                        13.044041
                    ],
                    [
                        77.590755,
                        13.043589
                    ],
                    [
                        77.590497,
                        13.043038
                    ],
                    [
                        77.590318,
                        13.042616
                    ],
                    [
                        77.590157,
                        13.04209
                    ],
                    [
                        77.589679,
                        13.040426
                    ],
                    [
                        77.589547,
                        13.039602
                    ],
                    [
                        77.589516,
                        13.039332
                    ],
                    [
                        77.589379,
                        13.038466
                    ],
                    [
                        77.589311,
                        13.037665
                    ],
                    [
                        77.58928,
                        13.03648
                    ],
                    [
                        77.589247,
                        13.036301
                    ],
                    [
                        77.589123,
                        13.035955
                    ],
                    [
                        77.588618,
                        13.034778
                    ],
                    [
                        77.588521,
                        13.034508
                    ],
                    [
                        77.588413,
                        13.034059
                    ],
                    [
                        77.588355,
                        13.033584
                    ],
                    [
                        77.58844,
                        13.033572
                    ],
                    [
                        77.588374,
                        13.033278
                    ],
                    [
                        77.588352,
                        13.03318
                    ],
                    [
                        77.588204,
                        13.032808
                    ],
                    [
                        77.588004,
                        13.032417
                    ],
                    [
                        77.587748,
                        13.031916
                    ],
                    [
                        77.58709,
                        13.030423
                    ],
                    [
                        77.586886,
                        13.029918
                    ],
                    [
                        77.586354,
                        13.028572
                    ],
                    [
                        77.586235,
                        13.028622
                    ],
                    [
                        77.586188,
                        13.028527
                    ],
                    [
                        77.58598,
                        13.028067
                    ],
                    [
                        77.585774,
                        13.027487
                    ],
                    [
                        77.585543,
                        13.026745
                    ],
                    [
                        77.585396,
                        13.026083
                    ],
                    [
                        77.585265,
                        13.025517
                    ],
                    [
                        77.585173,
                        13.025153
                    ],
                    [
                        77.584626,
                        13.023041
                    ],
                    [
                        77.584595,
                        13.02276
                    ],
                    [
                        77.584574,
                        13.022644
                    ],
                    [
                        77.584476,
                        13.022192
                    ],
                    [
                        77.584452,
                        13.022094
                    ],
                    [
                        77.584356,
                        13.021716
                    ],
                    [
                        77.584224,
                        13.021353
                    ],
                    [
                        77.584203,
                        13.021278
                    ],
                    [
                        77.584156,
                        13.02111
                    ],
                    [
                        77.584049,
                        13.020727
                    ],
                    [
                        77.583972,
                        13.020328
                    ],
                    [
                        77.583964,
                        13.020224
                    ],
                    [
                        77.583931,
                        13.019527
                    ],
                    [
                        77.583931,
                        13.019429
                    ],
                    [
                        77.583933,
                        13.019243
                    ],
                    [
                        77.583974,
                        13.017596
                    ],
                    [
                        77.583994,
                        13.017292
                    ],
                    [
                        77.584026,
                        13.016605
                    ],
                    [
                        77.584036,
                        13.015783
                    ],
                    [
                        77.584014,
                        13.014791
                    ],
                    [
                        77.584004,
                        13.014252
                    ],
                    [
                        77.583899,
                        13.010766
                    ],
                    [
                        77.583907,
                        13.010069
                    ],
                    [
                        77.583908,
                        13.009981
                    ],
                    [
                        77.583907,
                        13.009694
                    ],
                    [
                        77.583928,
                        13.009054
                    ],
                    [
                        77.583968,
                        13.008062
                    ],
                    [
                        77.584093,
                        13.005793
                    ],
                    [
                        77.584181,
                        13.004472
                    ],
                    [
                        77.584152,
                        13.002785
                    ],
                    [
                        77.584146,
                        13.002689
                    ],
                    [
                        77.584197,
                        13.000388
                    ],
                    [
                        77.584264,
                        12.999399
                    ],
                    [
                        77.584274,
                        12.998746
                    ],
                    [
                        77.58435,
                        12.998699
                    ],
                    [
                        77.584442,
                        12.998001
                    ],
                    [
                        77.584461,
                        12.997937
                    ],
                    [
                        77.584532,
                        12.997855
                    ],
                    [
                        77.584748,
                        12.997792
                    ],
                    [
                        77.58631,
                        12.997636
                    ],
                    [
                        77.586295,
                        12.99757
                    ],
                    [
                        77.585198,
                        12.997689
                    ],
                    [
                        77.584746,
                        12.997742
                    ],
                    [
                        77.584476,
                        12.997748
                    ],
                    [
                        77.584316,
                        12.99775
                    ],
                    [
                        77.584133,
                        12.997756
                    ],
                    [
                        77.58387,
                        12.99771
                    ],
                    [
                        77.583786,
                        12.997703
                    ],
                    [
                        77.583314,
                        12.997686
                    ],
                    [
                        77.582848,
                        12.997773
                    ],
                    [
                        77.582022,
                        12.998507
                    ],
                    [
                        77.581984,
                        12.998489
                    ],
                    [
                        77.581947,
                        12.998505
                    ],
                    [
                        77.581724,
                        12.99827
                    ],
                    [
                        77.581592,
                        12.99813
                    ],
                    [
                        77.581537,
                        12.998078
                    ],
                    [
                        77.581234,
                        12.997743
                    ],
                    [
                        77.580856,
                        12.997322
                    ],
                    [
                        77.580803,
                        12.997263
                    ],
                    [
                        77.580553,
                        12.996984
                    ],
                    [
                        77.580523,
                        12.996951
                    ],
                    [
                        77.580373,
                        12.996784
                    ],
                    [
                        77.580142,
                        12.996513
                    ],
                    [
                        77.580002,
                        12.996355
                    ],
                    [
                        77.579952,
                        12.996299
                    ],
                    [
                        77.579704,
                        12.995996
                    ],
                    [
                        77.579428,
                        12.995716
                    ],
                    [
                        77.579019,
                        12.995344
                    ],
                    [
                        77.578923,
                        12.995256
                    ],
                    [
                        77.578886,
                        12.995219
                    ],
                    [
                        77.578463,
                        12.994791
                    ],
                    [
                        77.578132,
                        12.99453
                    ],
                    [
                        77.578092,
                        12.994496
                    ],
                    [
                        77.577896,
                        12.994335
                    ],
                    [
                        77.577411,
                        12.993928
                    ],
                    [
                        77.577113,
                        12.993674
                    ],
                    [
                        77.576835,
                        12.993408
                    ],
                    [
                        77.576738,
                        12.993305
                    ],
                    [
                        77.576572,
                        12.993131
                    ],
                    [
                        77.576312,
                        12.992854
                    ],
                    [
                        77.575415,
                        12.991911
                    ],
                    [
                        77.575093,
                        12.991509
                    ],
                    [
                        77.574825,
                        12.991139
                    ],
                    [
                        77.574723,
                        12.99085
                    ],
                    [
                        77.574605,
                        12.990518
                    ],
                    [
                        77.574473,
                        12.990147
                    ],
                    [
                        77.574359,
                        12.989818
                    ],
                    [
                        77.574237,
                        12.989472
                    ],
                    [
                        77.57411,
                        12.989096
                    ],
                    [
                        77.573957,
                        12.989027
                    ],
                    [
                        77.574103,
                        12.988779
                    ],
                    [
                        77.57415,
                        12.988497
                    ],
                    [
                        77.574263,
                        12.987826
                    ],
                    [
                        77.574484,
                        12.986517
                    ],
                    [
                        77.574546,
                        12.986148
                    ],
                    [
                        77.574671,
                        12.985405
                    ],
                    [
                        77.574381,
                        12.985351
                    ],
                    [
                        77.574201,
                        12.985333
                    ],
                    [
                        77.573875,
                        12.985327
                    ],
                    [
                        77.573475,
                        12.985328
                    ],
                    [
                        77.573365,
                        12.98532
                    ],
                    [
                        77.573106,
                        12.985305
                    ],
                    [
                        77.572775,
                        12.985305
                    ],
                    [
                        77.57226,
                        12.985284
                    ],
                    [
                        77.572224,
                        12.985094
                    ],
                    [
                        77.572149,
                        12.984907
                    ],
                    [
                        77.572235,
                        12.984599
                    ],
                    [
                        77.572163,
                        12.984606
                    ],
                    [
                        77.572069,
                        12.98458
                    ],
                    [
                        77.571919,
                        12.984458
                    ],
                    [
                        77.57183,
                        12.984145
                    ],
                    [
                        77.571759,
                        12.983992
                    ],
                    [
                        77.571628,
                        12.983743
                    ],
                    [
                        77.571239,
                        12.983168
                    ],
                    [
                        77.571136,
                        12.982862
                    ],
                    [
                        77.571009,
                        12.982571
                    ],
                    [
                        77.570904,
                        12.982415
                    ],
                    [
                        77.570777,
                        12.982281
                    ],
                    [
                        77.570586,
                        12.982129
                    ],
                    [
                        77.570472,
                        12.981996
                    ],
                    [
                        77.570435,
                        12.981855
                    ],
                    [
                        77.570435,
                        12.981777
                    ],
                    [
                        77.570464,
                        12.98163
                    ],
                    [
                        77.570501,
                        12.981537
                    ],
                    [
                        77.570632,
                        12.981285
                    ],
                    [
                        77.570683,
                        12.981134
                    ],
                    [
                        77.57069,
                        12.980801
                    ],
                    [
                        77.570733,
                        12.980664
                    ],
                    [
                        77.570851,
                        12.980487
                    ],
                    [
                        77.570899,
                        12.980426
                    ],
                    [
                        77.570922,
                        12.9804
                    ],
                    [
                        77.571121,
                        12.980145
                    ],
                    [
                        77.571195,
                        12.980121
                    ],
                    [
                        77.571223,
                        12.980094
                    ],
                    [
                        77.571251,
                        12.98001
                    ],
                    [
                        77.571242,
                        12.979966
                    ],
                    [
                        77.571181,
                        12.979899
                    ],
                    [
                        77.571103,
                        12.979885
                    ],
                    [
                        77.571071,
                        12.97989
                    ],
                    [
                        77.570946,
                        12.978581
                    ],
                    [
                        77.57089,
                        12.977315
                    ],
                    [
                        77.570961,
                        12.976812
                    ],
                    [
                        77.57101,
                        12.976475
                    ],
                    [
                        77.571023,
                        12.97618
                    ],
                    [
                        77.570984,
                        12.97556
                    ],
                    [
                        77.570906,
                        12.975294
                    ],
                    [
                        77.570775,
                        12.975335
                    ],
                    [
                        77.57082,
                        12.975448
                    ],
                    [
                        77.570878,
                        12.975774
                    ],
                    [
                        77.570885,
                        12.975922
                    ],
                    [
                        77.570891,
                        12.976024
                    ],
                    [
                        77.570807,
                        12.977305
                    ],
                    [
                        77.57074,
                        12.977377
                    ],
                    [
                        77.570641,
                        12.977414
                    ],
                    [
                        77.569936,
                        12.977594
                    ],
                    [
                        77.569742,
                        12.977644
                    ],
                    [
                        77.569707,
                        12.977681
                    ],
                    [
                        77.569718,
                        12.977739
                    ],
                    [
                        77.569735,
                        12.977827
                    ]
                ],
                "type": "LineString"
            }
        }
    ],
    "metadata": {
        "attribution": "openrouteservice.org | OpenStreetMap contributors",
        "service": "routing",
        "timestamp": 1756624231231,
        "query": {
            "coordinates": [
                [
                    77.703511,
                    13.202552
                ],
                [
                    77.569744,
                    12.977825
                ]
            ],
            "profile": "driving-car",
            "profileName": "driving-car",
            "format": "geojson"
        },
        "engine": {
            "version": "9.3.0",
            "build_date": "2025-06-06T15:39:25Z",
            "graph_date": "2025-08-24T11:22:16Z",
            "osm_date": "2025-08-18T00:00:00Z"
        }
    }
}