{
    "type": "FeatureCollection",
    "bbox": [
        -82.613882,
        9.291925,
        -82.400858,
        9.506473
    ],
    "features": [
        {
            "bbox": [
                -82.613882,
                9.291925,
                -82.400858,
                9.506473
            ],
            "type": "Feature",
            "properties": {
                "segments": [
                    {
                        "distance": 42973.2,
                        "duration": 2810.0,
                        "steps": [
                            {
                                "distance": 507.0,
                                "duration": 59.7,
                                "type": 11,
                                "instruction": "Head south on Puente Binacional Sixaola, 36",
                                "name": "Puente Binacional Sixaola, 36",
                                "way_points": [
                                    0,
                                    3
                                ]
                            },
                            {
                                "distance": 19.1,
                                "duration": 6.9,
                                "type": 2,
                                "instruction": "Turn sharp left",
                                "name": "-",
                                "way_points": [
                                    3,
                                    4
                                ]
                            },
                            {
                                "distance": 172.9,
                                "duration": 15.6,
                                "type": 1,
                                "instruction": "Turn right onto 11",
                                "name": "11",
                                "way_points": [
                                    4,
                                    8
                                ]
                            },
                            {
                                "distance": 15202.0,
                                "duration": 935.0,
                                "type": 2,
                                "instruction": "Turn sharp left onto V\u00eda Changuinola - Guabito, 11",
                                "name": "V\u00eda Changuinola - Guabito, 11",
                                "way_points": [
                                    8,
                                    122
                                ]
                            },
                            {
                                "distance": 113.5,
                                "duration": 27.2,
                                "type": 0,
                                "instruction": "Turn left onto Calle Central",
                                "name": "Calle Central",
                                "way_points": [
                                    122,
                                    124
                                ]
                            },
                            {
                                "distance": 26666.2,
                                "duration": 1695.5,
                                "type": 1,
                                "instruction": "Turn right onto Avenida Omar Torrijos Herrera, 11",
                                "name": "Avenida Omar Torrijos Herrera, 11",
                                "way_points": [
                                    124,
                                    488
                                ]
                            },
                            {
                                "distance": 292.5,
                                "duration": 70.2,
                                "type": 1,
                                "instruction": "Turn right onto Calle O Sur",
                                "name": "Calle O Sur",
                                "way_points": [
                                    488,
                                    498
                                ]
                            },
                            {
                                "distance": 0.0,
                                "duration": 0.0,
                                "type": 10,
                                "instruction": "Arrive at Calle O Sur, on the right",
                                "name": "-",
                                "way_points": [
                                    498,
                                    498
                                ]
                            }
                        ]
                    }
                ],
                "way_points": [
                    0,
                    498
                ],
                "summary": {
                    "distance": 42973.2,
                    "duration": 2810.0
                }
            },
            "geometry": {
                "coordinates": [
                    [
                        -82.613882,
                        9.500084
                    ],
                    [
                        -82.6127,
                        9.496594
                    ],
                    [
                        -82.612524,
                        9.496131
                    ],
                    [
                        -82.612476,
                        9.495749
                    ],
                    [
                        -82.612317,
                        9.495819
                    ],
                    [
                        -82.612187,
                        9.495601
                    ],
                    [
                        -82.611642,
                        9.494758
                    ],
                    [
                        -82.611538,
                        9.494627
                    ],
                    [
                        -82.611433,
                        9.494538
                    ],
                    [
                        -82.611495,
                        9.49487
                    ],
                    [
                        -82.611505,
                        9.495241
                    ],
                    [
                        -82.611441,
                        9.495503
                    ],
                    [
                        -82.611361,
                        9.495671
                    ],
                    [
                        -82.611191,
                        9.495872
                    ],
                    [
                        -82.610934,
                        9.496074
                    ],
                    [
                        -82.610762,
                        9.496183
                    ],
                    [
                        -82.610629,
                        9.496266
                    ],
                    [
                        -82.610313,
                        9.496463
                    ],
                    [
                        -82.610111,
                        9.496634
                    ],
                    [
                        -82.609909,
                        9.496882
                    ],
                    [
                        -82.609103,
                        9.498151
                    ],
                    [
                        -82.608659,
                        9.498841
                    ],
                    [
                        -82.608506,
                        9.499075
                    ],
                    [
                        -82.608347,
                        9.49932
                    ],
                    [
                        -82.608174,
                        9.499596
                    ],
                    [
                        -82.608128,
                        9.499663
                    ],
                    [
                        -82.608059,
                        9.499771
                    ],
                    [
                        -82.607892,
                        9.500043
                    ],
                    [
                        -82.607717,
                        9.5003
                    ],
                    [
                        -82.607464,
                        9.50069
                    ],
                    [
                        -82.605996,
                        9.502949
                    ],
                    [
                        -82.605196,
                        9.504004
                    ],
                    [
                        -82.603527,
                        9.506067
                    ],
                    [
                        -82.603121,
                        9.506345
                    ],
                    [
                        -82.60275,
                        9.506473
                    ],
                    [
                        -82.602298,
                        9.506461
                    ],
                    [
                        -82.601881,
                        9.50638
                    ],
                    [
                        -82.601522,
                        9.506137
                    ],
                    [
                        -82.601209,
                        9.505893
                    ],
                    [
                        -82.599651,
                        9.50464
                    ],
                    [
                        -82.597859,
                        9.50324
                    ],
                    [
                        -82.597642,
                        9.503069
                    ],
                    [
                        -82.596785,
                        9.502311
                    ],
                    [
                        -82.596484,
                        9.501955
                    ],
                    [
                        -82.596151,
                        9.501605
                    ],
                    [
                        -82.595566,
                        9.501136
                    ],
                    [
                        -82.593257,
                        9.499286
                    ],
                    [
                        -82.592051,
                        9.498498
                    ],
                    [
                        -82.588899,
                        9.495988
                    ],
                    [
                        -82.588403,
                        9.495592
                    ],
                    [
                        -82.586508,
                        9.494072
                    ],
                    [
                        -82.585887,
                        9.493572
                    ],
                    [
                        -82.585672,
                        9.4934
                    ],
                    [
                        -82.585297,
                        9.493099
                    ],
                    [
                        -82.585013,
                        9.492871
                    ],
                    [
                        -82.58465,
                        9.492578
                    ],
                    [
                        -82.584437,
                        9.492407
                    ],
                    [
                        -82.58437,
                        9.492353
                    ],
                    [
                        -82.584106,
                        9.492142
                    ],
                    [
                        -82.581722,
                        9.490225
                    ],
                    [
                        -82.577065,
                        9.486435
                    ],
                    [
                        -82.575177,
                        9.484885
                    ],
                    [
                        -82.574982,
                        9.484718
                    ],
                    [
                        -82.574848,
                        9.484542
                    ],
                    [
                        -82.574739,
                        9.484337
                    ],
                    [
                        -82.574662,
                        9.48414
                    ],
                    [
                        -82.57389,
                        9.481652
                    ],
                    [
                        -82.573743,
                        9.481152
                    ],
                    [
                        -82.57245,
                        9.476741
                    ],
                    [
                        -82.572219,
                        9.476161
                    ],
                    [
                        -82.572091,
                        9.475987
                    ],
                    [
                        -82.571929,
                        9.475825
                    ],
                    [
                        -82.555805,
                        9.467549
                    ],
                    [
                        -82.552472,
                        9.465852
                    ],
                    [
                        -82.552222,
                        9.465747
                    ],
                    [
                        -82.551898,
                        9.465661
                    ],
                    [
                        -82.55159,
                        9.465632
                    ],
                    [
                        -82.551187,
                        9.465657
                    ],
                    [
                        -82.549953,
                        9.465826
                    ],
                    [
                        -82.549447,
                        9.465891
                    ],
                    [
                        -82.548898,
                        9.465962
                    ],
                    [
                        -82.548626,
                        9.465996
                    ],
                    [
                        -82.539411,
                        9.4672
                    ],
                    [
                        -82.537778,
                        9.467431
                    ],
                    [
                        -82.537498,
                        9.467463
                    ],
                    [
                        -82.535961,
                        9.467595
                    ],
                    [
                        -82.535141,
                        9.467699
                    ],
                    [
                        -82.534655,
                        9.467835
                    ],
                    [
                        -82.534245,
                        9.467885
                    ],
                    [
                        -82.526931,
                        9.468696
                    ],
                    [
                        -82.526385,
                        9.468724
                    ],
                    [
                        -82.525354,
                        9.468777
                    ],
                    [
                        -82.523465,
                        9.469114
                    ],
                    [
                        -82.520032,
                        9.469527
                    ],
                    [
                        -82.519502,
                        9.469539
                    ],
                    [
                        -82.519101,
                        9.469497
                    ],
                    [
                        -82.518716,
                        9.469378
                    ],
                    [
                        -82.518363,
                        9.469187
                    ],
                    [
                        -82.518054,
                        9.468932
                    ],
                    [
                        -82.517803,
                        9.468622
                    ],
                    [
                        -82.517618,
                        9.468269
                    ],
                    [
                        -82.517507,
                        9.467887
                    ],
                    [
                        -82.517573,
                        9.466928
                    ],
                    [
                        -82.517644,
                        9.465713
                    ],
                    [
                        -82.517782,
                        9.463396
                    ],
                    [
                        -82.517894,
                        9.461502
                    ],
                    [
                        -82.517903,
                        9.461344
                    ],
                    [
                        -82.517904,
                        9.461331
                    ],
                    [
                        -82.517969,
                        9.460149
                    ],
                    [
                        -82.518099,
                        9.458068
                    ],
                    [
                        -82.518146,
                        9.45734
                    ],
                    [
                        -82.5182,
                        9.456371
                    ],
                    [
                        -82.51836,
                        9.456119
                    ],
                    [
                        -82.518576,
                        9.455778
                    ],
                    [
                        -82.518667,
                        9.455413
                    ],
                    [
                        -82.518807,
                        9.453379
                    ],
                    [
                        -82.518935,
                        9.45161
                    ],
                    [
                        -82.518985,
                        9.451011
                    ],
                    [
                        -82.519049,
                        9.450236
                    ],
                    [
                        -82.519108,
                        9.449831
                    ],
                    [
                        -82.519191,
                        9.449385
                    ],
                    [
                        -82.519253,
                        9.449152
                    ],
                    [
                        -82.519619,
                        9.4483
                    ],
                    [
                        -82.519133,
                        9.448137
                    ],
                    [
                        -82.518618,
                        9.448052
                    ],
                    [
                        -82.518617,
                        9.447942
                    ],
                    [
                        -82.518616,
                        9.447276
                    ],
                    [
                        -82.518624,
                        9.446771
                    ],
                    [
                        -82.518774,
                        9.443688
                    ],
                    [
                        -82.518814,
                        9.443087
                    ],
                    [
                        -82.518933,
                        9.44131
                    ],
                    [
                        -82.518978,
                        9.440742
                    ],
                    [
                        -82.519045,
                        9.439904
                    ],
                    [
                        -82.519091,
                        9.439171
                    ],
                    [
                        -82.519171,
                        9.437763
                    ],
                    [
                        -82.519197,
                        9.437422
                    ],
                    [
                        -82.519309,
                        9.43569
                    ],
                    [
                        -82.519404,
                        9.433962
                    ],
                    [
                        -82.519518,
                        9.431834
                    ],
                    [
                        -82.519577,
                        9.430932
                    ],
                    [
                        -82.519762,
                        9.427871
                    ],
                    [
                        -82.51986,
                        9.425822
                    ],
                    [
                        -82.519939,
                        9.424545
                    ],
                    [
                        -82.520221,
                        9.420621
                    ],
                    [
                        -82.520271,
                        9.419919
                    ],
                    [
                        -82.520273,
                        9.419383
                    ],
                    [
                        -82.520322,
                        9.418919
                    ],
                    [
                        -82.52029,
                        9.418599
                    ],
                    [
                        -82.520202,
                        9.418268
                    ],
                    [
                        -82.52007,
                        9.417959
                    ],
                    [
                        -82.519973,
                        9.417816
                    ],
                    [
                        -82.519626,
                        9.417398
                    ],
                    [
                        -82.518779,
                        9.416519
                    ],
                    [
                        -82.518247,
                        9.415985
                    ],
                    [
                        -82.517979,
                        9.415735
                    ],
                    [
                        -82.517672,
                        9.41548
                    ],
                    [
                        -82.517468,
                        9.415278
                    ],
                    [
                        -82.517179,
                        9.414842
                    ],
                    [
                        -82.516998,
                        9.414509
                    ],
                    [
                        -82.516886,
                        9.414241
                    ],
                    [
                        -82.516779,
                        9.413836
                    ],
                    [
                        -82.516654,
                        9.413204
                    ],
                    [
                        -82.516511,
                        9.413024
                    ],
                    [
                        -82.516332,
                        9.412894
                    ],
                    [
                        -82.51328,
                        9.410751
                    ],
                    [
                        -82.511893,
                        9.409741
                    ],
                    [
                        -82.511058,
                        9.409113
                    ],
                    [
                        -82.510542,
                        9.408748
                    ],
                    [
                        -82.50985,
                        9.408356
                    ],
                    [
                        -82.509466,
                        9.408096
                    ],
                    [
                        -82.506546,
                        9.405939
                    ],
                    [
                        -82.505975,
                        9.405509
                    ],
                    [
                        -82.505749,
                        9.405266
                    ],
                    [
                        -82.505399,
                        9.404586
                    ],
                    [
                        -82.505233,
                        9.404388
                    ],
                    [
                        -82.504041,
                        9.403338
                    ],
                    [
                        -82.503625,
                        9.402979
                    ],
                    [
                        -82.502786,
                        9.402253
                    ],
                    [
                        -82.502485,
                        9.401892
                    ],
                    [
                        -82.502349,
                        9.401641
                    ],
                    [
                        -82.502221,
                        9.401404
                    ],
                    [
                        -82.502089,
                        9.400983
                    ],
                    [
                        -82.501968,
                        9.400752
                    ],
                    [
                        -82.501335,
                        9.400153
                    ],
                    [
                        -82.50117,
                        9.399907
                    ],
                    [
                        -82.501073,
                        9.399597
                    ],
                    [
                        -82.500751,
                        9.398472
                    ],
                    [
                        -82.500288,
                        9.397538
                    ],
                    [
                        -82.499697,
                        9.396497
                    ],
                    [
                        -82.498342,
                        9.394305
                    ],
                    [
                        -82.497647,
                        9.392801
                    ],
                    [
                        -82.497437,
                        9.392452
                    ],
                    [
                        -82.497146,
                        9.392215
                    ],
                    [
                        -82.496656,
                        9.391957
                    ],
                    [
                        -82.496367,
                        9.391733
                    ],
                    [
                        -82.495396,
                        9.390518
                    ],
                    [
                        -82.494211,
                        9.388804
                    ],
                    [
                        -82.493974,
                        9.38854
                    ],
                    [
                        -82.49366,
                        9.388296
                    ],
                    [
                        -82.49312,
                        9.388007
                    ],
                    [
                        -82.49231,
                        9.387465
                    ],
                    [
                        -82.492032,
                        9.387407
                    ],
                    [
                        -82.491609,
                        9.387474
                    ],
                    [
                        -82.491268,
                        9.387483
                    ],
                    [
                        -82.491034,
                        9.387447
                    ],
                    [
                        -82.49054,
                        9.387257
                    ],
                    [
                        -82.49006,
                        9.387031
                    ],
                    [
                        -82.489766,
                        9.387008
                    ],
                    [
                        -82.488607,
                        9.387327
                    ],
                    [
                        -82.48791,
                        9.387855
                    ],
                    [
                        -82.487559,
                        9.388085
                    ],
                    [
                        -82.487253,
                        9.388169
                    ],
                    [
                        -82.486934,
                        9.388157
                    ],
                    [
                        -82.486352,
                        9.387862
                    ],
                    [
                        -82.486128,
                        9.387812
                    ],
                    [
                        -82.485665,
                        9.387801
                    ],
                    [
                        -82.485463,
                        9.387754
                    ],
                    [
                        -82.4846,
                        9.387397
                    ],
                    [
                        -82.484337,
                        9.387349
                    ],
                    [
                        -82.484153,
                        9.387358
                    ],
                    [
                        -82.48348,
                        9.3876
                    ],
                    [
                        -82.483219,
                        9.387604
                    ],
                    [
                        -82.482959,
                        9.387524
                    ],
                    [
                        -82.482774,
                        9.387423
                    ],
                    [
                        -82.482576,
                        9.387155
                    ],
                    [
                        -82.482266,
                        9.386004
                    ],
                    [
                        -82.48196,
                        9.38539
                    ],
                    [
                        -82.481777,
                        9.384822
                    ],
                    [
                        -82.481667,
                        9.384617
                    ],
                    [
                        -82.481552,
                        9.384496
                    ],
                    [
                        -82.48106,
                        9.384106
                    ],
                    [
                        -82.480929,
                        9.383938
                    ],
                    [
                        -82.480508,
                        9.382664
                    ],
                    [
                        -82.48049,
                        9.382503
                    ],
                    [
                        -82.480485,
                        9.382024
                    ],
                    [
                        -82.48044,
                        9.381794
                    ],
                    [
                        -82.480178,
                        9.381101
                    ],
                    [
                        -82.479611,
                        9.38012
                    ],
                    [
                        -82.479489,
                        9.379823
                    ],
                    [
                        -82.479416,
                        9.379515
                    ],
                    [
                        -82.479433,
                        9.379422
                    ],
                    [
                        -82.479466,
                        9.379238
                    ],
                    [
                        -82.479652,
                        9.378963
                    ],
                    [
                        -82.480055,
                        9.378788
                    ],
                    [
                        -82.481012,
                        9.378574
                    ],
                    [
                        -82.481163,
                        9.378467
                    ],
                    [
                        -82.481321,
                        9.378279
                    ],
                    [
                        -82.481372,
                        9.378095
                    ],
                    [
                        -82.481321,
                        9.377304
                    ],
                    [
                        -82.481372,
                        9.376934
                    ],
                    [
                        -82.482048,
                        9.374981
                    ],
                    [
                        -82.4822,
                        9.374754
                    ],
                    [
                        -82.483094,
                        9.374114
                    ],
                    [
                        -82.483351,
                        9.373886
                    ],
                    [
                        -82.483465,
                        9.373651
                    ],
                    [
                        -82.483492,
                        9.373438
                    ],
                    [
                        -82.483448,
                        9.373199
                    ],
                    [
                        -82.483198,
                        9.37292
                    ],
                    [
                        -82.482378,
                        9.372423
                    ],
                    [
                        -82.481392,
                        9.371968
                    ],
                    [
                        -82.481086,
                        9.371759
                    ],
                    [
                        -82.480141,
                        9.370814
                    ],
                    [
                        -82.479982,
                        9.370525
                    ],
                    [
                        -82.479769,
                        9.369711
                    ],
                    [
                        -82.479643,
                        9.369511
                    ],
                    [
                        -82.479292,
                        9.369028
                    ],
                    [
                        -82.478924,
                        9.368287
                    ],
                    [
                        -82.478726,
                        9.368136
                    ],
                    [
                        -82.478476,
                        9.368059
                    ],
                    [
                        -82.477874,
                        9.367984
                    ],
                    [
                        -82.477543,
                        9.367863
                    ],
                    [
                        -82.476402,
                        9.36721
                    ],
                    [
                        -82.475988,
                        9.366858
                    ],
                    [
                        -82.474401,
                        9.364513
                    ],
                    [
                        -82.474328,
                        9.364234
                    ],
                    [
                        -82.474271,
                        9.363727
                    ],
                    [
                        -82.474317,
                        9.36332
                    ],
                    [
                        -82.475026,
                        9.360944
                    ],
                    [
                        -82.475267,
                        9.359706
                    ],
                    [
                        -82.475355,
                        9.359453
                    ],
                    [
                        -82.475554,
                        9.3592
                    ],
                    [
                        -82.476458,
                        9.358893
                    ],
                    [
                        -82.476686,
                        9.358773
                    ],
                    [
                        -82.476808,
                        9.358633
                    ],
                    [
                        -82.476952,
                        9.358288
                    ],
                    [
                        -82.477199,
                        9.357603
                    ],
                    [
                        -82.477646,
                        9.357061
                    ],
                    [
                        -82.477759,
                        9.356696
                    ],
                    [
                        -82.477766,
                        9.356568
                    ],
                    [
                        -82.477718,
                        9.35638
                    ],
                    [
                        -82.477516,
                        9.355952
                    ],
                    [
                        -82.476316,
                        9.354559
                    ],
                    [
                        -82.476228,
                        9.354358
                    ],
                    [
                        -82.476318,
                        9.353056
                    ],
                    [
                        -82.476266,
                        9.35279
                    ],
                    [
                        -82.4761,
                        9.352339
                    ],
                    [
                        -82.47549,
                        9.351496
                    ],
                    [
                        -82.475363,
                        9.351215
                    ],
                    [
                        -82.475165,
                        9.350198
                    ],
                    [
                        -82.474978,
                        9.349712
                    ],
                    [
                        -82.474653,
                        9.34919
                    ],
                    [
                        -82.47328,
                        9.347699
                    ],
                    [
                        -82.472991,
                        9.347307
                    ],
                    [
                        -82.47286,
                        9.347003
                    ],
                    [
                        -82.472748,
                        9.346632
                    ],
                    [
                        -82.472572,
                        9.345676
                    ],
                    [
                        -82.472203,
                        9.34427
                    ],
                    [
                        -82.472074,
                        9.343942
                    ],
                    [
                        -82.471768,
                        9.343508
                    ],
                    [
                        -82.470921,
                        9.34267
                    ],
                    [
                        -82.470731,
                        9.342432
                    ],
                    [
                        -82.47057,
                        9.342166
                    ],
                    [
                        -82.470232,
                        9.341429
                    ],
                    [
                        -82.47022,
                        9.341202
                    ],
                    [
                        -82.470293,
                        9.340986
                    ],
                    [
                        -82.470493,
                        9.340762
                    ],
                    [
                        -82.470716,
                        9.340555
                    ],
                    [
                        -82.470848,
                        9.340334
                    ],
                    [
                        -82.470912,
                        9.340104
                    ],
                    [
                        -82.470915,
                        9.33985
                    ],
                    [
                        -82.470772,
                        9.339392
                    ],
                    [
                        -82.47051,
                        9.338955
                    ],
                    [
                        -82.4701,
                        9.338555
                    ],
                    [
                        -82.469445,
                        9.338169
                    ],
                    [
                        -82.468755,
                        9.337902
                    ],
                    [
                        -82.468462,
                        9.33774
                    ],
                    [
                        -82.46803,
                        9.337364
                    ],
                    [
                        -82.467602,
                        9.337142
                    ],
                    [
                        -82.466957,
                        9.336832
                    ],
                    [
                        -82.465809,
                        9.335991
                    ],
                    [
                        -82.464872,
                        9.335465
                    ],
                    [
                        -82.464721,
                        9.335316
                    ],
                    [
                        -82.464136,
                        9.334147
                    ],
                    [
                        -82.463991,
                        9.333935
                    ],
                    [
                        -82.463829,
                        9.333784
                    ],
                    [
                        -82.463361,
                        9.333575
                    ],
                    [
                        -82.462016,
                        9.332673
                    ],
                    [
                        -82.460682,
                        9.33122
                    ],
                    [
                        -82.460039,
                        9.330808
                    ],
                    [
                        -82.459862,
                        9.330583
                    ],
                    [
                        -82.459773,
                        9.330012
                    ],
                    [
                        -82.45962,
                        9.32966
                    ],
                    [
                        -82.459667,
                        9.329379
                    ],
                    [
                        -82.459853,
                        9.329138
                    ],
                    [
                        -82.460308,
                        9.329013
                    ],
                    [
                        -82.460672,
                        9.3287
                    ],
                    [
                        -82.460709,
                        9.328449
                    ],
                    [
                        -82.460682,
                        9.328192
                    ],
                    [
                        -82.460433,
                        9.327534
                    ],
                    [
                        -82.460421,
                        9.32739
                    ],
                    [
                        -82.460527,
                        9.327128
                    ],
                    [
                        -82.460694,
                        9.326984
                    ],
                    [
                        -82.460932,
                        9.326882
                    ],
                    [
                        -82.46117,
                        9.326912
                    ],
                    [
                        -82.461852,
                        9.327282
                    ],
                    [
                        -82.462062,
                        9.327308
                    ],
                    [
                        -82.462202,
                        9.327262
                    ],
                    [
                        -82.462295,
                        9.327143
                    ],
                    [
                        -82.462312,
                        9.327007
                    ],
                    [
                        -82.462243,
                        9.326903
                    ],
                    [
                        -82.462088,
                        9.326838
                    ],
                    [
                        -82.461824,
                        9.326771
                    ],
                    [
                        -82.461644,
                        9.326693
                    ],
                    [
                        -82.461377,
                        9.326522
                    ],
                    [
                        -82.460889,
                        9.326248
                    ],
                    [
                        -82.46076,
                        9.326071
                    ],
                    [
                        -82.460575,
                        9.325663
                    ],
                    [
                        -82.460381,
                        9.325435
                    ],
                    [
                        -82.459571,
                        9.324912
                    ],
                    [
                        -82.459286,
                        9.32455
                    ],
                    [
                        -82.458911,
                        9.323599
                    ],
                    [
                        -82.458824,
                        9.322849
                    ],
                    [
                        -82.45877,
                        9.322523
                    ],
                    [
                        -82.45857,
                        9.322092
                    ],
                    [
                        -82.456728,
                        9.320293
                    ],
                    [
                        -82.455847,
                        9.319075
                    ],
                    [
                        -82.453695,
                        9.317464
                    ],
                    [
                        -82.452532,
                        9.316905
                    ],
                    [
                        -82.452098,
                        9.316598
                    ],
                    [
                        -82.451168,
                        9.315607
                    ],
                    [
                        -82.450852,
                        9.315165
                    ],
                    [
                        -82.450407,
                        9.313597
                    ],
                    [
                        -82.447923,
                        9.309778
                    ],
                    [
                        -82.447632,
                        9.309373
                    ],
                    [
                        -82.44719,
                        9.309027
                    ],
                    [
                        -82.446738,
                        9.308732
                    ],
                    [
                        -82.446417,
                        9.30863
                    ],
                    [
                        -82.446245,
                        9.308624
                    ],
                    [
                        -82.445959,
                        9.308718
                    ],
                    [
                        -82.445316,
                        9.309202
                    ],
                    [
                        -82.444866,
                        9.30936
                    ],
                    [
                        -82.444311,
                        9.309446
                    ],
                    [
                        -82.443929,
                        9.309393
                    ],
                    [
                        -82.44369,
                        9.309273
                    ],
                    [
                        -82.443515,
                        9.309021
                    ],
                    [
                        -82.443341,
                        9.308174
                    ],
                    [
                        -82.443024,
                        9.307722
                    ],
                    [
                        -82.442549,
                        9.307508
                    ],
                    [
                        -82.441923,
                        9.307482
                    ],
                    [
                        -82.441414,
                        9.307611
                    ],
                    [
                        -82.441013,
                        9.307776
                    ],
                    [
                        -82.4407,
                        9.307844
                    ],
                    [
                        -82.440424,
                        9.307835
                    ],
                    [
                        -82.440174,
                        9.307764
                    ],
                    [
                        -82.439944,
                        9.307639
                    ],
                    [
                        -82.438715,
                        9.30649
                    ],
                    [
                        -82.438281,
                        9.306196
                    ],
                    [
                        -82.438037,
                        9.306068
                    ],
                    [
                        -82.437777,
                        9.305973
                    ],
                    [
                        -82.437481,
                        9.305933
                    ],
                    [
                        -82.437184,
                        9.305961
                    ],
                    [
                        -82.436593,
                        9.3061
                    ],
                    [
                        -82.436458,
                        9.306148
                    ],
                    [
                        -82.436307,
                        9.306144
                    ],
                    [
                        -82.436162,
                        9.306111
                    ],
                    [
                        -82.435237,
                        9.305457
                    ],
                    [
                        -82.434272,
                        9.3047
                    ],
                    [
                        -82.434137,
                        9.304576
                    ],
                    [
                        -82.434081,
                        9.304501
                    ],
                    [
                        -82.43396,
                        9.304303
                    ],
                    [
                        -82.433914,
                        9.304173
                    ],
                    [
                        -82.433598,
                        9.302919
                    ],
                    [
                        -82.433539,
                        9.302754
                    ],
                    [
                        -82.433312,
                        9.302403
                    ],
                    [
                        -82.433065,
                        9.302153
                    ],
                    [
                        -82.432276,
                        9.301278
                    ],
                    [
                        -82.431844,
                        9.300912
                    ],
                    [
                        -82.431398,
                        9.300638
                    ],
                    [
                        -82.42971,
                        9.299745
                    ],
                    [
                        -82.42929,
                        9.299599
                    ],
                    [
                        -82.426574,
                        9.298882
                    ],
                    [
                        -82.423888,
                        9.297483
                    ],
                    [
                        -82.423479,
                        9.2973
                    ],
                    [
                        -82.423166,
                        9.297211
                    ],
                    [
                        -82.422781,
                        9.297177
                    ],
                    [
                        -82.422035,
                        9.297157
                    ],
                    [
                        -82.420827,
                        9.297159
                    ],
                    [
                        -82.420491,
                        9.297114
                    ],
                    [
                        -82.420143,
                        9.297067
                    ],
                    [
                        -82.419805,
                        9.296926
                    ],
                    [
                        -82.419396,
                        9.29663
                    ],
                    [
                        -82.418948,
                        9.296349
                    ],
                    [
                        -82.418455,
                        9.29618
                    ],
                    [
                        -82.417938,
                        9.296025
                    ],
                    [
                        -82.417721,
                        9.295927
                    ],
                    [
                        -82.417509,
                        9.295781
                    ],
                    [
                        -82.417354,
                        9.295615
                    ],
                    [
                        -82.417236,
                        9.295426
                    ],
                    [
                        -82.416918,
                        9.294811
                    ],
                    [
                        -82.416783,
                        9.294646
                    ],
                    [
                        -82.416597,
                        9.294509
                    ],
                    [
                        -82.41634,
                        9.294386
                    ],
                    [
                        -82.416194,
                        9.294388
                    ],
                    [
                        -82.416036,
                        9.294428
                    ],
                    [
                        -82.41583,
                        9.294605
                    ],
                    [
                        -82.414993,
                        9.295446
                    ],
                    [
                        -82.414711,
                        9.295688
                    ],
                    [
                        -82.414402,
                        9.295912
                    ],
                    [
                        -82.414143,
                        9.295949
                    ],
                    [
                        -82.413842,
                        9.295928
                    ],
                    [
                        -82.413403,
                        9.295739
                    ],
                    [
                        -82.413141,
                        9.295652
                    ],
                    [
                        -82.412905,
                        9.295616
                    ],
                    [
                        -82.41268,
                        9.295637
                    ],
                    [
                        -82.412492,
                        9.295692
                    ],
                    [
                        -82.412327,
                        9.295784
                    ],
                    [
                        -82.412143,
                        9.295925
                    ],
                    [
                        -82.411913,
                        9.296166
                    ],
                    [
                        -82.411432,
                        9.296793
                    ],
                    [
                        -82.41128,
                        9.296899
                    ],
                    [
                        -82.411133,
                        9.296965
                    ],
                    [
                        -82.410883,
                        9.297004
                    ],
                    [
                        -82.409994,
                        9.296883
                    ],
                    [
                        -82.409072,
                        9.296933
                    ],
                    [
                        -82.408748,
                        9.296907
                    ],
                    [
                        -82.40809,
                        9.296769
                    ],
                    [
                        -82.407836,
                        9.296717
                    ],
                    [
                        -82.407485,
                        9.296645
                    ],
                    [
                        -82.407007,
                        9.296571
                    ],
                    [
                        -82.406463,
                        9.29648
                    ],
                    [
                        -82.405994,
                        9.296414
                    ],
                    [
                        -82.405728,
                        9.296361
                    ],
                    [
                        -82.405389,
                        9.296232
                    ],
                    [
                        -82.404995,
                        9.296061
                    ],
                    [
                        -82.404701,
                        9.295927
                    ],
                    [
                        -82.404211,
                        9.295714
                    ],
                    [
                        -82.403344,
                        9.295325
                    ],
                    [
                        -82.40302,
                        9.295185
                    ],
                    [
                        -82.401175,
                        9.294337
                    ],
                    [
                        -82.401188,
                        9.294264
                    ],
                    [
                        -82.401176,
                        9.294197
                    ],
                    [
                        -82.401118,
                        9.294077
                    ],
                    [
                        -82.400989,
                        9.293835
                    ],
                    [
                        -82.400933,
                        9.293543
                    ],
                    [
                        -82.400858,
                        9.293368
                    ],
                    [
                        -82.400882,
                        9.293213
                    ],
                    [
                        -82.401449,
                        9.292158
                    ],
                    [
                        -82.401498,
                        9.292047
                    ],
                    [
                        -82.401513,
                        9.291925
                    ]
                ],
                "type": "LineString"
            }
        }
    ],
    "metadata": {
        "attribution": "openrouteservice.org | OpenStreetMap contributors",
        "service": "routing",
        "timestamp": 1756801402783,
        "query": {
            "coordinates": [
                [
                    -82.613864,
                    9.50009
                ],
                [
                    -82.401533,
                    9.291927
                ]
            ],
            "profile": "driving-car",
            "profileName": "driving-car",
            "format": "geojson"
        },
        "engine": {
            "version": "9.3.0",
            "build_date": "2025-06-06T15:39:25Z",
            "graph_date": "2025-08-31T11:45:10Z",
            "osm_date": "2025-08-24T23:59:58Z"
        }
    }
}