{
    "type": "FeatureCollection",
    "bbox": [
        -88.588625,
        20.683742,
        -88.198132,
        20.745687
    ],
    "features": [
        {
            "bbox": [
                -88.588625,
                20.683742,
                -88.198132,
                20.745687
            ],
            "type": "Feature",
            "properties": {
                "segments": [
                    {
                        "distance": 53246.6,
                        "duration": 2611.8,
                        "steps": [
                            {
                                "distance": 92.9,
                                "duration": 16.7,
                                "type": 11,
                                "instruction": "Head north on Calle 36",
                                "name": "Calle 36",
                                "way_points": [
                                    0,
                                    1
                                ]
                            },
                            {
                                "distance": 312.4,
                                "duration": 32.1,
                                "type": 0,
                                "instruction": "Turn left onto Calle 39, MEX 180",
                                "name": "Calle 39, MEX 180",
                                "way_points": [
                                    1,
                                    8
                                ]
                            },
                            {
                                "distance": 1652.3,
                                "duration": 176.6,
                                "type": 1,
                                "instruction": "Turn right onto Calle 40, MEX 295",
                                "name": "Calle 40, MEX 295",
                                "way_points": [
                                    8,
                                    37
                                ]
                            },
                            {
                                "distance": 2404.6,
                                "duration": 191.8,
                                "type": 13,
                                "instruction": "Keep right onto Avenida Zaci-Hual, MEX 295",
                                "name": "Avenida Zaci-Hual, MEX 295",
                                "way_points": [
                                    37,
                                    56
                                ]
                            },
                            {
                                "distance": 2142.7,
                                "duration": 171.6,
                                "type": 7,
                                "instruction": "Enter the roundabout and take the 2nd exit onto Carretera Valladolid - R\u00edo Lagartos, MEX 295",
                                "name": "Carretera Valladolid - R\u00edo Lagartos, MEX 295",
                                "exit_number": 2,
                                "way_points": [
                                    56,
                                    81
                                ]
                            },
                            {
                                "distance": 40269.9,
                                "duration": 1465.7,
                                "type": 2,
                                "instruction": "Turn sharp left",
                                "name": "-",
                                "way_points": [
                                    81,
                                    165
                                ]
                            },
                            {
                                "distance": 151.7,
                                "duration": 26.6,
                                "type": 13,
                                "instruction": "Keep right",
                                "name": "-",
                                "way_points": [
                                    165,
                                    168
                                ]
                            },
                            {
                                "distance": 243.6,
                                "duration": 25.1,
                                "type": 13,
                                "instruction": "Keep right",
                                "name": "-",
                                "way_points": [
                                    168,
                                    178
                                ]
                            },
                            {
                                "distance": 172.7,
                                "duration": 24.4,
                                "type": 13,
                                "instruction": "Keep right",
                                "name": "-",
                                "way_points": [
                                    178,
                                    184
                                ]
                            },
                            {
                                "distance": 436.9,
                                "duration": 42.5,
                                "type": 6,
                                "instruction": "Continue straight onto YUC 79",
                                "name": "YUC 79",
                                "way_points": [
                                    184,
                                    195
                                ]
                            },
                            {
                                "distance": 3017.0,
                                "duration": 204.7,
                                "type": 6,
                                "instruction": "Continue straight onto Calle 10, YUC 13",
                                "name": "Calle 10, YUC 13",
                                "way_points": [
                                    195,
                                    215
                                ]
                            },
                            {
                                "distance": 1582.6,
                                "duration": 191.4,
                                "type": 0,
                                "instruction": "Turn left onto Calle 15, MEX 180",
                                "name": "Calle 15, MEX 180",
                                "way_points": [
                                    215,
                                    233
                                ]
                            },
                            {
                                "distance": 767.4,
                                "duration": 42.5,
                                "type": 13,
                                "instruction": "Keep right",
                                "name": "-",
                                "way_points": [
                                    233,
                                    245
                                ]
                            },
                            {
                                "distance": 0.0,
                                "duration": 0.0,
                                "type": 10,
                                "instruction": "Arrive at your destination, on the right",
                                "name": "-",
                                "way_points": [
                                    245,
                                    245
                                ]
                            }
                        ]
                    }
                ],
                "way_points": [
                    0,
                    245
                ],
                "summary": {
                    "distance": 53246.6,
                    "duration": 2611.8
                }
            },
            "geometry": {
                "coordinates": [
                    [
                        -88.198147,
                        20.690006
                    ],
                    [
                        -88.198132,
                        20.690842
                    ],
                    [
                        -88.199124,
                        20.690826
                    ],
                    [
                        -88.199398,
                        20.690817
                    ],
                    [
                        -88.199763,
                        20.69082
                    ],
                    [
                        -88.200228,
                        20.690822
                    ],
                    [
                        -88.200349,
                        20.690821
                    ],
                    [
                        -88.200593,
                        20.690819
                    ],
                    [
                        -88.201134,
                        20.690791
                    ],
                    [
                        -88.20115,
                        20.690998
                    ],
                    [
                        -88.201227,
                        20.691946
                    ],
                    [
                        -88.201257,
                        20.692306
                    ],
                    [
                        -88.201317,
                        20.693193
                    ],
                    [
                        -88.201348,
                        20.693767
                    ],
                    [
                        -88.201414,
                        20.694774
                    ],
                    [
                        -88.201459,
                        20.696109
                    ],
                    [
                        -88.201503,
                        20.697302
                    ],
                    [
                        -88.201567,
                        20.697992
                    ],
                    [
                        -88.201577,
                        20.698532
                    ],
                    [
                        -88.201557,
                        20.69874
                    ],
                    [
                        -88.201406,
                        20.699074
                    ],
                    [
                        -88.201249,
                        20.699445
                    ],
                    [
                        -88.201019,
                        20.700037
                    ],
                    [
                        -88.200847,
                        20.700474
                    ],
                    [
                        -88.200773,
                        20.700661
                    ],
                    [
                        -88.200486,
                        20.701581
                    ],
                    [
                        -88.200419,
                        20.701808
                    ],
                    [
                        -88.200202,
                        20.702526
                    ],
                    [
                        -88.200166,
                        20.702771
                    ],
                    [
                        -88.200203,
                        20.702882
                    ],
                    [
                        -88.200279,
                        20.703007
                    ],
                    [
                        -88.200369,
                        20.703113
                    ],
                    [
                        -88.200501,
                        20.703217
                    ],
                    [
                        -88.200667,
                        20.703277
                    ],
                    [
                        -88.200916,
                        20.703318
                    ],
                    [
                        -88.201302,
                        20.703342
                    ],
                    [
                        -88.201373,
                        20.703345
                    ],
                    [
                        -88.202725,
                        20.703373
                    ],
                    [
                        -88.202842,
                        20.703474
                    ],
                    [
                        -88.202876,
                        20.70355
                    ],
                    [
                        -88.20289,
                        20.703661
                    ],
                    [
                        -88.20289,
                        20.705502
                    ],
                    [
                        -88.20289,
                        20.705587
                    ],
                    [
                        -88.202907,
                        20.706671
                    ],
                    [
                        -88.20289,
                        20.709988
                    ],
                    [
                        -88.202882,
                        20.710413
                    ],
                    [
                        -88.202876,
                        20.710735
                    ],
                    [
                        -88.202895,
                        20.712711
                    ],
                    [
                        -88.20289,
                        20.713593
                    ],
                    [
                        -88.202891,
                        20.714504
                    ],
                    [
                        -88.202893,
                        20.717219
                    ],
                    [
                        -88.202892,
                        20.718994
                    ],
                    [
                        -88.202866,
                        20.721191
                    ],
                    [
                        -88.202864,
                        20.721304
                    ],
                    [
                        -88.202846,
                        20.724271
                    ],
                    [
                        -88.202795,
                        20.724807
                    ],
                    [
                        -88.202747,
                        20.724932
                    ],
                    [
                        -88.202679,
                        20.724995
                    ],
                    [
                        -88.202639,
                        20.725069
                    ],
                    [
                        -88.202623,
                        20.72515
                    ],
                    [
                        -88.202648,
                        20.725271
                    ],
                    [
                        -88.202694,
                        20.72534
                    ],
                    [
                        -88.202726,
                        20.72537
                    ],
                    [
                        -88.202842,
                        20.725589
                    ],
                    [
                        -88.202858,
                        20.725712
                    ],
                    [
                        -88.202887,
                        20.728
                    ],
                    [
                        -88.202886,
                        20.728285
                    ],
                    [
                        -88.202882,
                        20.731027
                    ],
                    [
                        -88.202861,
                        20.734062
                    ],
                    [
                        -88.202829,
                        20.735332
                    ],
                    [
                        -88.202829,
                        20.735526
                    ],
                    [
                        -88.202812,
                        20.737075
                    ],
                    [
                        -88.202817,
                        20.73735
                    ],
                    [
                        -88.202957,
                        20.738423
                    ],
                    [
                        -88.202992,
                        20.738591
                    ],
                    [
                        -88.203079,
                        20.739309
                    ],
                    [
                        -88.203089,
                        20.739655
                    ],
                    [
                        -88.20295,
                        20.740849
                    ],
                    [
                        -88.202833,
                        20.741835
                    ],
                    [
                        -88.202752,
                        20.742598
                    ],
                    [
                        -88.202752,
                        20.74299
                    ],
                    [
                        -88.20283,
                        20.744076
                    ],
                    [
                        -88.202869,
                        20.743666
                    ],
                    [
                        -88.202924,
                        20.743432
                    ],
                    [
                        -88.202982,
                        20.743297
                    ],
                    [
                        -88.203091,
                        20.743129
                    ],
                    [
                        -88.203377,
                        20.7429
                    ],
                    [
                        -88.204509,
                        20.742114
                    ],
                    [
                        -88.204821,
                        20.741965
                    ],
                    [
                        -88.205008,
                        20.741912
                    ],
                    [
                        -88.205233,
                        20.741883
                    ],
                    [
                        -88.205491,
                        20.741887
                    ],
                    [
                        -88.206829,
                        20.741981
                    ],
                    [
                        -88.223163,
                        20.743559
                    ],
                    [
                        -88.226743,
                        20.743878
                    ],
                    [
                        -88.227817,
                        20.744098
                    ],
                    [
                        -88.228639,
                        20.744232
                    ],
                    [
                        -88.231656,
                        20.744526
                    ],
                    [
                        -88.232091,
                        20.744552
                    ],
                    [
                        -88.234049,
                        20.744538
                    ],
                    [
                        -88.23579,
                        20.744752
                    ],
                    [
                        -88.237995,
                        20.744994
                    ],
                    [
                        -88.239598,
                        20.745149
                    ],
                    [
                        -88.240255,
                        20.745209
                    ],
                    [
                        -88.242367,
                        20.745344
                    ],
                    [
                        -88.244245,
                        20.745396
                    ],
                    [
                        -88.253041,
                        20.745538
                    ],
                    [
                        -88.262353,
                        20.745668
                    ],
                    [
                        -88.264086,
                        20.745687
                    ],
                    [
                        -88.265389,
                        20.745662
                    ],
                    [
                        -88.266539,
                        20.7456
                    ],
                    [
                        -88.267451,
                        20.745513
                    ],
                    [
                        -88.268726,
                        20.745367
                    ],
                    [
                        -88.269533,
                        20.745231
                    ],
                    [
                        -88.271827,
                        20.744788
                    ],
                    [
                        -88.279543,
                        20.743231
                    ],
                    [
                        -88.280146,
                        20.743122
                    ],
                    [
                        -88.281443,
                        20.742963
                    ],
                    [
                        -88.284527,
                        20.74272
                    ],
                    [
                        -88.285013,
                        20.742653
                    ],
                    [
                        -88.285375,
                        20.742583
                    ],
                    [
                        -88.286276,
                        20.74237
                    ],
                    [
                        -88.288944,
                        20.741437
                    ],
                    [
                        -88.289424,
                        20.741298
                    ],
                    [
                        -88.29012,
                        20.741139
                    ],
                    [
                        -88.301093,
                        20.738921
                    ],
                    [
                        -88.315495,
                        20.735671
                    ],
                    [
                        -88.322946,
                        20.733815
                    ],
                    [
                        -88.334138,
                        20.731379
                    ],
                    [
                        -88.334353,
                        20.731333
                    ],
                    [
                        -88.395059,
                        20.717934
                    ],
                    [
                        -88.395933,
                        20.717758
                    ],
                    [
                        -88.396811,
                        20.717612
                    ],
                    [
                        -88.399025,
                        20.717369
                    ],
                    [
                        -88.401303,
                        20.717204
                    ],
                    [
                        -88.402221,
                        20.717163
                    ],
                    [
                        -88.402943,
                        20.717171
                    ],
                    [
                        -88.40616,
                        20.717337
                    ],
                    [
                        -88.406806,
                        20.717331
                    ],
                    [
                        -88.407554,
                        20.717272
                    ],
                    [
                        -88.408274,
                        20.717151
                    ],
                    [
                        -88.411303,
                        20.71653
                    ],
                    [
                        -88.412061,
                        20.716422
                    ],
                    [
                        -88.414049,
                        20.716248
                    ],
                    [
                        -88.414823,
                        20.716164
                    ],
                    [
                        -88.415752,
                        20.716028
                    ],
                    [
                        -88.416609,
                        20.715855
                    ],
                    [
                        -88.417375,
                        20.715676
                    ],
                    [
                        -88.427765,
                        20.712651
                    ],
                    [
                        -88.430277,
                        20.712062
                    ],
                    [
                        -88.431511,
                        20.711846
                    ],
                    [
                        -88.43297,
                        20.711606
                    ],
                    [
                        -88.455111,
                        20.708541
                    ],
                    [
                        -88.455943,
                        20.708437
                    ],
                    [
                        -88.45678,
                        20.708357
                    ],
                    [
                        -88.457497,
                        20.708338
                    ],
                    [
                        -88.458329,
                        20.708337
                    ],
                    [
                        -88.459081,
                        20.708386
                    ],
                    [
                        -88.459783,
                        20.708462
                    ],
                    [
                        -88.492913,
                        20.713403
                    ],
                    [
                        -88.525657,
                        20.71797
                    ],
                    [
                        -88.554376,
                        20.722849
                    ],
                    [
                        -88.556709,
                        20.723281
                    ],
                    [
                        -88.558243,
                        20.723543
                    ],
                    [
                        -88.559848,
                        20.723875
                    ],
                    [
                        -88.582081,
                        20.728839
                    ],
                    [
                        -88.582781,
                        20.729029
                    ],
                    [
                        -88.583096,
                        20.729097
                    ],
                    [
                        -88.583488,
                        20.729197
                    ],
                    [
                        -88.583778,
                        20.729305
                    ],
                    [
                        -88.583874,
                        20.729395
                    ],
                    [
                        -88.583897,
                        20.729469
                    ],
                    [
                        -88.583898,
                        20.72957
                    ],
                    [
                        -88.583856,
                        20.729669
                    ],
                    [
                        -88.583775,
                        20.729732
                    ],
                    [
                        -88.583652,
                        20.729767
                    ],
                    [
                        -88.583092,
                        20.729755
                    ],
                    [
                        -88.582844,
                        20.729725
                    ],
                    [
                        -88.582317,
                        20.72959
                    ],
                    [
                        -88.581627,
                        20.729301
                    ],
                    [
                        -88.5815,
                        20.729251
                    ],
                    [
                        -88.581321,
                        20.729149
                    ],
                    [
                        -88.581221,
                        20.729017
                    ],
                    [
                        -88.581198,
                        20.728948
                    ],
                    [
                        -88.5812,
                        20.728662
                    ],
                    [
                        -88.581201,
                        20.728655
                    ],
                    [
                        -88.58126,
                        20.728407
                    ],
                    [
                        -88.581377,
                        20.728118
                    ],
                    [
                        -88.581438,
                        20.727968
                    ],
                    [
                        -88.581845,
                        20.727338
                    ],
                    [
                        -88.581926,
                        20.727159
                    ],
                    [
                        -88.582001,
                        20.726812
                    ],
                    [
                        -88.582003,
                        20.726528
                    ],
                    [
                        -88.581996,
                        20.725893
                    ],
                    [
                        -88.58201,
                        20.725658
                    ],
                    [
                        -88.582113,
                        20.724904
                    ],
                    [
                        -88.586439,
                        20.706953
                    ],
                    [
                        -88.586675,
                        20.706288
                    ],
                    [
                        -88.586857,
                        20.70542
                    ],
                    [
                        -88.586863,
                        20.705394
                    ],
                    [
                        -88.58703,
                        20.704719
                    ],
                    [
                        -88.587118,
                        20.704392
                    ],
                    [
                        -88.587196,
                        20.704115
                    ],
                    [
                        -88.587218,
                        20.703947
                    ],
                    [
                        -88.587447,
                        20.703264
                    ],
                    [
                        -88.587858,
                        20.702258
                    ],
                    [
                        -88.5879,
                        20.70215
                    ],
                    [
                        -88.588272,
                        20.701243
                    ],
                    [
                        -88.588471,
                        20.700739
                    ],
                    [
                        -88.588552,
                        20.700341
                    ],
                    [
                        -88.588559,
                        20.70024
                    ],
                    [
                        -88.58851,
                        20.699575
                    ],
                    [
                        -88.588467,
                        20.698965
                    ],
                    [
                        -88.588472,
                        20.698843
                    ],
                    [
                        -88.588508,
                        20.698727
                    ],
                    [
                        -88.588625,
                        20.698572
                    ],
                    [
                        -88.588434,
                        20.698479
                    ],
                    [
                        -88.588369,
                        20.698447
                    ],
                    [
                        -88.587782,
                        20.697954
                    ],
                    [
                        -88.587308,
                        20.697543
                    ],
                    [
                        -88.586819,
                        20.697122
                    ],
                    [
                        -88.585995,
                        20.696407
                    ],
                    [
                        -88.585693,
                        20.696155
                    ],
                    [
                        -88.584932,
                        20.69551
                    ],
                    [
                        -88.584068,
                        20.694761
                    ],
                    [
                        -88.584021,
                        20.694719
                    ],
                    [
                        -88.583723,
                        20.69447
                    ],
                    [
                        -88.582584,
                        20.693515
                    ],
                    [
                        -88.5818,
                        20.692848
                    ],
                    [
                        -88.580465,
                        20.691627
                    ],
                    [
                        -88.580206,
                        20.691406
                    ],
                    [
                        -88.578072,
                        20.689587
                    ],
                    [
                        -88.577749,
                        20.689322
                    ],
                    [
                        -88.577376,
                        20.689004
                    ],
                    [
                        -88.57648,
                        20.688236
                    ],
                    [
                        -88.576277,
                        20.688072
                    ],
                    [
                        -88.574574,
                        20.686631
                    ],
                    [
                        -88.57446,
                        20.686489
                    ],
                    [
                        -88.574365,
                        20.686351
                    ],
                    [
                        -88.574265,
                        20.686037
                    ],
                    [
                        -88.574238,
                        20.685365
                    ],
                    [
                        -88.574217,
                        20.685178
                    ],
                    [
                        -88.574151,
                        20.685003
                    ],
                    [
                        -88.574008,
                        20.684817
                    ],
                    [
                        -88.573589,
                        20.684338
                    ],
                    [
                        -88.573016,
                        20.683742
                    ]
                ],
                "type": "LineString"
            }
        }
    ],
    "metadata": {
        "attribution": "openrouteservice.org | OpenStreetMap contributors",
        "service": "routing",
        "timestamp": 1756798596457,
        "query": {
            "coordinates": [
                [
                    -88.198215,
                    20.690007
                ],
                [
                    -88.57257,
                    20.683086
                ]
            ],
            "profile": "driving-car",
            "profileName": "driving-car",
            "format": "geojson"
        },
        "engine": {
            "version": "9.3.0",
            "build_date": "2025-06-06T15:39:25Z",
            "graph_date": "2025-08-31T11:45:10Z",
            "osm_date": "2025-08-24T23:59:58Z"
        }
    }
}