{
    "type": "FeatureCollection",
    "bbox": [
        77.662865,
        27.093615,
        78.039102,
        27.17668
    ],
    "features": [
        {
            "bbox": [
                77.662865,
                27.093615,
                78.039102,
                27.17668
            ],
            "type": "Feature",
            "properties": {
                "segments": [
                    {
                        "distance": 40666.6,
                        "duration": 2160.6,
                        "steps": [
                            {
                                "distance": 96.5,
                                "duration": 6.9,
                                "type": 11,
                                "instruction": "Head northwest",
                                "name": "-",
                                "way_points": [
                                    0,
                                    2
                                ]
                            },
                            {
                                "distance": 10.9,
                                "duration": 3.9,
                                "type": 1,
                                "instruction": "Turn right",
                                "name": "-",
                                "way_points": [
                                    2,
                                    3
                                ]
                            },
                            {
                                "distance": 108.6,
                                "duration": 7.8,
                                "type": 1,
                                "instruction": "Turn right",
                                "name": "-",
                                "way_points": [
                                    3,
                                    6
                                ]
                            },
                            {
                                "distance": 467.2,
                                "duration": 84.1,
                                "type": 6,
                                "instruction": "Continue straight onto Cicuit House Road",
                                "name": "Cicuit House Road",
                                "way_points": [
                                    6,
                                    15
                                ]
                            },
                            {
                                "distance": 1554.4,
                                "duration": 99.7,
                                "type": 7,
                                "instruction": "Enter the roundabout and take the 5th exit onto SH62",
                                "name": "SH62",
                                "exit_number": 5,
                                "way_points": [
                                    15,
                                    45
                                ]
                            },
                            {
                                "distance": 277.8,
                                "duration": 18.2,
                                "type": 0,
                                "instruction": "Turn left",
                                "name": "-",
                                "way_points": [
                                    45,
                                    47
                                ]
                            },
                            {
                                "distance": 19.8,
                                "duration": 1.3,
                                "type": 13,
                                "instruction": "Keep right",
                                "name": "-",
                                "way_points": [
                                    47,
                                    48
                                ]
                            },
                            {
                                "distance": 407.1,
                                "duration": 29.3,
                                "type": 0,
                                "instruction": "Turn left",
                                "name": "-",
                                "way_points": [
                                    48,
                                    59
                                ]
                            },
                            {
                                "distance": 295.7,
                                "duration": 23.7,
                                "type": 1,
                                "instruction": "Turn right",
                                "name": "-",
                                "way_points": [
                                    59,
                                    62
                                ]
                            },
                            {
                                "distance": 13.6,
                                "duration": 0.8,
                                "type": 0,
                                "instruction": "Turn left",
                                "name": "-",
                                "way_points": [
                                    62,
                                    64
                                ]
                            },
                            {
                                "distance": 12.7,
                                "duration": 0.8,
                                "type": 5,
                                "instruction": "Turn slight right",
                                "name": "-",
                                "way_points": [
                                    64,
                                    66
                                ]
                            },
                            {
                                "distance": 290.0,
                                "duration": 23.2,
                                "type": 0,
                                "instruction": "Turn left",
                                "name": "-",
                                "way_points": [
                                    66,
                                    72
                                ]
                            },
                            {
                                "distance": 425.5,
                                "duration": 27.8,
                                "type": 4,
                                "instruction": "Turn slight left",
                                "name": "-",
                                "way_points": [
                                    72,
                                    81
                                ]
                            },
                            {
                                "distance": 757.3,
                                "duration": 32.1,
                                "type": 3,
                                "instruction": "Turn sharp right onto Mahatma Gandhi Road, NH44",
                                "name": "Mahatma Gandhi Road, NH44",
                                "way_points": [
                                    81,
                                    105
                                ]
                            },
                            {
                                "distance": 2200.9,
                                "duration": 146.1,
                                "type": 0,
                                "instruction": "Turn left onto Shahganj Road",
                                "name": "Shahganj Road",
                                "way_points": [
                                    105,
                                    166
                                ]
                            },
                            {
                                "distance": 7461.3,
                                "duration": 419.6,
                                "type": 12,
                                "instruction": "Keep left onto Fatehpur Sikri Road",
                                "name": "Fatehpur Sikri Road",
                                "way_points": [
                                    166,
                                    248
                                ]
                            },
                            {
                                "distance": 24321.2,
                                "duration": 1030.0,
                                "type": 6,
                                "instruction": "Continue straight onto Fatehpur Sikri road, NH21",
                                "name": "Fatehpur Sikri road, NH21",
                                "way_points": [
                                    248,
                                    408
                                ]
                            },
                            {
                                "distance": 27.5,
                                "duration": 5.0,
                                "type": 0,
                                "instruction": "Turn left",
                                "name": "-",
                                "way_points": [
                                    408,
                                    410
                                ]
                            },
                            {
                                "distance": 1408.9,
                                "duration": 78.0,
                                "type": 1,
                                "instruction": "Turn right onto 45, SH45",
                                "name": "45, SH45",
                                "way_points": [
                                    410,
                                    417
                                ]
                            },
                            {
                                "distance": 93.5,
                                "duration": 22.4,
                                "type": 13,
                                "instruction": "Keep right",
                                "name": "-",
                                "way_points": [
                                    417,
                                    419
                                ]
                            },
                            {
                                "distance": 338.5,
                                "duration": 81.2,
                                "type": 13,
                                "instruction": "Keep right",
                                "name": "-",
                                "way_points": [
                                    419,
                                    425
                                ]
                            },
                            {
                                "distance": 77.6,
                                "duration": 18.6,
                                "type": 12,
                                "instruction": "Keep left",
                                "name": "-",
                                "way_points": [
                                    425,
                                    429
                                ]
                            },
                            {
                                "distance": 0.0,
                                "duration": 0.0,
                                "type": 10,
                                "instruction": "Arrive at your destination, on the right",
                                "name": "-",
                                "way_points": [
                                    429,
                                    429
                                ]
                            }
                        ]
                    }
                ],
                "extras": {
                    "roadaccessrestrictions": {
                        "values": [
                            [
                                0,
                                2,
                                1
                            ],
                            [
                                2,
                                429,
                                0
                            ]
                        ],
                        "summary": [
                            {
                                "value": 0.0,
                                "distance": 40570.1,
                                "amount": 99.76
                            },
                            {
                                "value": 1.0,
                                "distance": 96.5,
                                "amount": 0.24
                            }
                        ]
                    }
                },
                "warnings": [
                    {
                        "code": 1,
                        "message": "There may be restrictions on some roads"
                    }
                ],
                "way_points": [
                    0,
                    429
                ],
                "summary": {
                    "distance": 40666.6,
                    "duration": 2160.6
                }
            },
            "geometry": {
                "coordinates": [
                    [
                        78.039022,
                        27.171132
                    ],
                    [
                        78.038861,
                        27.171304
                    ],
                    [
                        78.038367,
                        27.171774
                    ],
                    [
                        78.038425,
                        27.171857
                    ],
                    [
                        78.038654,
                        27.171661
                    ],
                    [
                        78.03909,
                        27.171204
                    ],
                    [
                        78.039102,
                        27.17111
                    ],
                    [
                        78.039101,
                        27.17104
                    ],
                    [
                        78.038834,
                        27.170705
                    ],
                    [
                        78.038535,
                        27.1704
                    ],
                    [
                        78.038367,
                        27.170276
                    ],
                    [
                        78.037815,
                        27.169927
                    ],
                    [
                        78.037682,
                        27.169798
                    ],
                    [
                        78.037533,
                        27.169595
                    ],
                    [
                        78.037106,
                        27.16873
                    ],
                    [
                        78.036462,
                        27.167725
                    ],
                    [
                        78.036498,
                        27.167702
                    ],
                    [
                        78.036546,
                        27.167638
                    ],
                    [
                        78.036556,
                        27.167561
                    ],
                    [
                        78.036523,
                        27.167486
                    ],
                    [
                        78.036436,
                        27.167426
                    ],
                    [
                        78.036324,
                        27.167421
                    ],
                    [
                        78.03628,
                        27.167437
                    ],
                    [
                        78.036213,
                        27.167494
                    ],
                    [
                        78.036186,
                        27.167574
                    ],
                    [
                        78.036214,
                        27.167669
                    ],
                    [
                        78.035834,
                        27.167941
                    ],
                    [
                        78.035043,
                        27.168595
                    ],
                    [
                        78.034169,
                        27.169614
                    ],
                    [
                        78.033775,
                        27.169931
                    ],
                    [
                        78.033412,
                        27.170145
                    ],
                    [
                        78.031594,
                        27.171376
                    ],
                    [
                        78.031072,
                        27.171683
                    ],
                    [
                        78.03026,
                        27.172063
                    ],
                    [
                        78.029372,
                        27.172458
                    ],
                    [
                        78.029299,
                        27.172475
                    ],
                    [
                        78.027671,
                        27.172576
                    ],
                    [
                        78.027336,
                        27.17266
                    ],
                    [
                        78.026074,
                        27.173229
                    ],
                    [
                        78.025883,
                        27.17334
                    ],
                    [
                        78.02556,
                        27.173578
                    ],
                    [
                        78.025288,
                        27.173869
                    ],
                    [
                        78.024872,
                        27.174502
                    ],
                    [
                        78.0247,
                        27.174797
                    ],
                    [
                        78.024673,
                        27.174886
                    ],
                    [
                        78.024654,
                        27.175062
                    ],
                    [
                        78.024323,
                        27.175133
                    ],
                    [
                        78.021909,
                        27.175593
                    ],
                    [
                        78.02172,
                        27.175652
                    ],
                    [
                        78.021388,
                        27.175472
                    ],
                    [
                        78.021114,
                        27.175349
                    ],
                    [
                        78.020331,
                        27.175156
                    ],
                    [
                        78.020025,
                        27.175064
                    ],
                    [
                        78.019475,
                        27.17479
                    ],
                    [
                        78.019309,
                        27.174659
                    ],
                    [
                        78.019111,
                        27.174433
                    ],
                    [
                        78.018843,
                        27.173956
                    ],
                    [
                        78.018723,
                        27.173667
                    ],
                    [
                        78.018665,
                        27.173585
                    ],
                    [
                        78.018647,
                        27.173538
                    ],
                    [
                        78.018492,
                        27.17356
                    ],
                    [
                        78.018322,
                        27.173562
                    ],
                    [
                        78.015693,
                        27.17319
                    ],
                    [
                        78.015693,
                        27.173138
                    ],
                    [
                        78.015635,
                        27.17309
                    ],
                    [
                        78.015583,
                        27.173092
                    ],
                    [
                        78.015531,
                        27.173142
                    ],
                    [
                        78.01497,
                        27.173102
                    ],
                    [
                        78.014502,
                        27.173105
                    ],
                    [
                        78.013386,
                        27.173242
                    ],
                    [
                        78.01323,
                        27.173247
                    ],
                    [
                        78.012949,
                        27.173209
                    ],
                    [
                        78.01263,
                        27.173122
                    ],
                    [
                        78.012553,
                        27.173004
                    ],
                    [
                        78.012366,
                        27.172821
                    ],
                    [
                        78.011756,
                        27.172236
                    ],
                    [
                        78.01163,
                        27.172124
                    ],
                    [
                        78.011231,
                        27.17181
                    ],
                    [
                        78.010916,
                        27.171559
                    ],
                    [
                        78.01042,
                        27.171185
                    ],
                    [
                        78.00958,
                        27.170578
                    ],
                    [
                        78.009488,
                        27.170528
                    ],
                    [
                        78.009467,
                        27.170745
                    ],
                    [
                        78.009445,
                        27.170825
                    ],
                    [
                        78.009181,
                        27.171402
                    ],
                    [
                        78.008927,
                        27.17189
                    ],
                    [
                        78.008839,
                        27.172063
                    ],
                    [
                        78.008686,
                        27.172506
                    ],
                    [
                        78.008565,
                        27.172972
                    ],
                    [
                        78.008541,
                        27.173207
                    ],
                    [
                        78.008547,
                        27.173774
                    ],
                    [
                        78.008573,
                        27.174156
                    ],
                    [
                        78.008643,
                        27.174504
                    ],
                    [
                        78.008708,
                        27.174743
                    ],
                    [
                        78.008762,
                        27.175043
                    ],
                    [
                        78.008769,
                        27.17531
                    ],
                    [
                        78.008742,
                        27.175441
                    ],
                    [
                        78.008702,
                        27.175528
                    ],
                    [
                        78.008638,
                        27.17567
                    ],
                    [
                        78.008465,
                        27.175921
                    ],
                    [
                        78.00831,
                        27.176164
                    ],
                    [
                        78.008127,
                        27.176526
                    ],
                    [
                        78.008057,
                        27.176577
                    ],
                    [
                        78.007894,
                        27.176601
                    ],
                    [
                        78.007808,
                        27.176612
                    ],
                    [
                        78.007588,
                        27.17668
                    ],
                    [
                        78.007495,
                        27.176598
                    ],
                    [
                        78.007381,
                        27.176534
                    ],
                    [
                        78.00682,
                        27.176466
                    ],
                    [
                        78.006367,
                        27.17643
                    ],
                    [
                        78.00617,
                        27.176376
                    ],
                    [
                        78.005959,
                        27.176284
                    ],
                    [
                        78.005844,
                        27.176203
                    ],
                    [
                        78.005662,
                        27.176033
                    ],
                    [
                        78.005525,
                        27.175928
                    ],
                    [
                        78.005458,
                        27.175894
                    ],
                    [
                        78.005011,
                        27.175822
                    ],
                    [
                        78.004868,
                        27.175801
                    ],
                    [
                        78.003905,
                        27.175585
                    ],
                    [
                        78.003718,
                        27.175539
                    ],
                    [
                        78.003436,
                        27.175469
                    ],
                    [
                        78.003209,
                        27.175418
                    ],
                    [
                        78.002801,
                        27.17531
                    ],
                    [
                        78.002247,
                        27.175182
                    ],
                    [
                        78.001615,
                        27.175096
                    ],
                    [
                        78.001035,
                        27.175062
                    ],
                    [
                        78.000468,
                        27.175021
                    ],
                    [
                        78.000246,
                        27.175
                    ],
                    [
                        78.000155,
                        27.174992
                    ],
                    [
                        77.999785,
                        27.174965
                    ],
                    [
                        77.999487,
                        27.174944
                    ],
                    [
                        77.998869,
                        27.174896
                    ],
                    [
                        77.997992,
                        27.174903
                    ],
                    [
                        77.997783,
                        27.174921
                    ],
                    [
                        77.996469,
                        27.175173
                    ],
                    [
                        77.996368,
                        27.175168
                    ],
                    [
                        77.995968,
                        27.175246
                    ],
                    [
                        77.995795,
                        27.17529
                    ],
                    [
                        77.995734,
                        27.175302
                    ],
                    [
                        77.995671,
                        27.175311
                    ],
                    [
                        77.995659,
                        27.175314
                    ],
                    [
                        77.995119,
                        27.17542
                    ],
                    [
                        77.995047,
                        27.17546
                    ],
                    [
                        77.994628,
                        27.175551
                    ],
                    [
                        77.993793,
                        27.175731
                    ],
                    [
                        77.993658,
                        27.175756
                    ],
                    [
                        77.993498,
                        27.175784
                    ],
                    [
                        77.993251,
                        27.175822
                    ],
                    [
                        77.99264,
                        27.175929
                    ],
                    [
                        77.992188,
                        27.175982
                    ],
                    [
                        77.991832,
                        27.176007
                    ],
                    [
                        77.991138,
                        27.176049
                    ],
                    [
                        77.990961,
                        27.176057
                    ],
                    [
                        77.990822,
                        27.176065
                    ],
                    [
                        77.990189,
                        27.176088
                    ],
                    [
                        77.990014,
                        27.176097
                    ],
                    [
                        77.989395,
                        27.176136
                    ],
                    [
                        77.989264,
                        27.176145
                    ],
                    [
                        77.988897,
                        27.176168
                    ],
                    [
                        77.988459,
                        27.176186
                    ],
                    [
                        77.988434,
                        27.176187
                    ],
                    [
                        77.988231,
                        27.17621
                    ],
                    [
                        77.987186,
                        27.176269
                    ],
                    [
                        77.986834,
                        27.176289
                    ],
                    [
                        77.986218,
                        27.176317
                    ],
                    [
                        77.985966,
                        27.176326
                    ],
                    [
                        77.985874,
                        27.176329
                    ],
                    [
                        77.98468,
                        27.175611
                    ],
                    [
                        77.984354,
                        27.175454
                    ],
                    [
                        77.984059,
                        27.175344
                    ],
                    [
                        77.982696,
                        27.174907
                    ],
                    [
                        77.982576,
                        27.174874
                    ],
                    [
                        77.982241,
                        27.174769
                    ],
                    [
                        77.981317,
                        27.174485
                    ],
                    [
                        77.980891,
                        27.174408
                    ],
                    [
                        77.980793,
                        27.174399
                    ],
                    [
                        77.980368,
                        27.174349
                    ],
                    [
                        77.979973,
                        27.174304
                    ],
                    [
                        77.979589,
                        27.174233
                    ],
                    [
                        77.9791,
                        27.174116
                    ],
                    [
                        77.978662,
                        27.174012
                    ],
                    [
                        77.978475,
                        27.173951
                    ],
                    [
                        77.978355,
                        27.173912
                    ],
                    [
                        77.97822,
                        27.173875
                    ],
                    [
                        77.977421,
                        27.17363
                    ],
                    [
                        77.976791,
                        27.17342
                    ],
                    [
                        77.976634,
                        27.173367
                    ],
                    [
                        77.976408,
                        27.173283
                    ],
                    [
                        77.975959,
                        27.173065
                    ],
                    [
                        77.975807,
                        27.172989
                    ],
                    [
                        77.975714,
                        27.172938
                    ],
                    [
                        77.975383,
                        27.172741
                    ],
                    [
                        77.975208,
                        27.172664
                    ],
                    [
                        77.975107,
                        27.172622
                    ],
                    [
                        77.974885,
                        27.17253
                    ],
                    [
                        77.974674,
                        27.17245
                    ],
                    [
                        77.974477,
                        27.172377
                    ],
                    [
                        77.974298,
                        27.172312
                    ],
                    [
                        77.973661,
                        27.172081
                    ],
                    [
                        77.972903,
                        27.171855
                    ],
                    [
                        77.972468,
                        27.171653
                    ],
                    [
                        77.971557,
                        27.171312
                    ],
                    [
                        77.969573,
                        27.170679
                    ],
                    [
                        77.964728,
                        27.169296
                    ],
                    [
                        77.964588,
                        27.169248
                    ],
                    [
                        77.963996,
                        27.169079
                    ],
                    [
                        77.959617,
                        27.167759
                    ],
                    [
                        77.956077,
                        27.166746
                    ],
                    [
                        77.951945,
                        27.165424
                    ],
                    [
                        77.948312,
                        27.164447
                    ],
                    [
                        77.945091,
                        27.163552
                    ],
                    [
                        77.941259,
                        27.162536
                    ],
                    [
                        77.940949,
                        27.162451
                    ],
                    [
                        77.94083,
                        27.16242
                    ],
                    [
                        77.940009,
                        27.162225
                    ],
                    [
                        77.939336,
                        27.162046
                    ],
                    [
                        77.939207,
                        27.162007
                    ],
                    [
                        77.938359,
                        27.161787
                    ],
                    [
                        77.93764,
                        27.1616
                    ],
                    [
                        77.936734,
                        27.161322
                    ],
                    [
                        77.936599,
                        27.161275
                    ],
                    [
                        77.936052,
                        27.161111
                    ],
                    [
                        77.935862,
                        27.161072
                    ],
                    [
                        77.935625,
                        27.161079
                    ],
                    [
                        77.935217,
                        27.161085
                    ],
                    [
                        77.935037,
                        27.161092
                    ],
                    [
                        77.934602,
                        27.161097
                    ],
                    [
                        77.934398,
                        27.161087
                    ],
                    [
                        77.934112,
                        27.161059
                    ],
                    [
                        77.933652,
                        27.161013
                    ],
                    [
                        77.933245,
                        27.160933
                    ],
                    [
                        77.932877,
                        27.160858
                    ],
                    [
                        77.932823,
                        27.160847
                    ],
                    [
                        77.93216,
                        27.160715
                    ],
                    [
                        77.931811,
                        27.160645
                    ],
                    [
                        77.931138,
                        27.160525
                    ],
                    [
                        77.930672,
                        27.160442
                    ],
                    [
                        77.928786,
                        27.160106
                    ],
                    [
                        77.925842,
                        27.159546
                    ],
                    [
                        77.925097,
                        27.159413
                    ],
                    [
                        77.924727,
                        27.159352
                    ],
                    [
                        77.923942,
                        27.159222
                    ],
                    [
                        77.922839,
                        27.159051
                    ],
                    [
                        77.919459,
                        27.158537
                    ],
                    [
                        77.917245,
                        27.158205
                    ],
                    [
                        77.916189,
                        27.158026
                    ],
                    [
                        77.915122,
                        27.157811
                    ],
                    [
                        77.914713,
                        27.157729
                    ],
                    [
                        77.913841,
                        27.157553
                    ],
                    [
                        77.91376,
                        27.157538
                    ],
                    [
                        77.91361,
                        27.157506
                    ],
                    [
                        77.913595,
                        27.157502
                    ],
                    [
                        77.913429,
                        27.157467
                    ],
                    [
                        77.913373,
                        27.157454
                    ],
                    [
                        77.910803,
                        27.156873
                    ],
                    [
                        77.908776,
                        27.15641
                    ],
                    [
                        77.908209,
                        27.156281
                    ],
                    [
                        77.908014,
                        27.156242
                    ],
                    [
                        77.904166,
                        27.155483
                    ],
                    [
                        77.903073,
                        27.155337
                    ],
                    [
                        77.902648,
                        27.155303
                    ],
                    [
                        77.901688,
                        27.155367
                    ],
                    [
                        77.901261,
                        27.155401
                    ],
                    [
                        77.900427,
                        27.15542
                    ],
                    [
                        77.900259,
                        27.155422
                    ],
                    [
                        77.899564,
                        27.155426
                    ],
                    [
                        77.89901,
                        27.155403
                    ],
                    [
                        77.898798,
                        27.155394
                    ],
                    [
                        77.897352,
                        27.155312
                    ],
                    [
                        77.895038,
                        27.155281
                    ],
                    [
                        77.894472,
                        27.155256
                    ],
                    [
                        77.892585,
                        27.155111
                    ],
                    [
                        77.891315,
                        27.155019
                    ],
                    [
                        77.889035,
                        27.154854
                    ],
                    [
                        77.887856,
                        27.154766
                    ],
                    [
                        77.887096,
                        27.154708
                    ],
                    [
                        77.886458,
                        27.15466
                    ],
                    [
                        77.881682,
                        27.154522
                    ],
                    [
                        77.877845,
                        27.154445
                    ],
                    [
                        77.876468,
                        27.154372
                    ],
                    [
                        77.876056,
                        27.154328
                    ],
                    [
                        77.875588,
                        27.154278
                    ],
                    [
                        77.874367,
                        27.154155
                    ],
                    [
                        77.874338,
                        27.154154
                    ],
                    [
                        77.874235,
                        27.154147
                    ],
                    [
                        77.874206,
                        27.154146
                    ],
                    [
                        77.873136,
                        27.15408
                    ],
                    [
                        77.872147,
                        27.154019
                    ],
                    [
                        77.871681,
                        27.153991
                    ],
                    [
                        77.871295,
                        27.153944
                    ],
                    [
                        77.870823,
                        27.153888
                    ],
                    [
                        77.870472,
                        27.153822
                    ],
                    [
                        77.869811,
                        27.153698
                    ],
                    [
                        77.869033,
                        27.153526
                    ],
                    [
                        77.868918,
                        27.153499
                    ],
                    [
                        77.867884,
                        27.153254
                    ],
                    [
                        77.867825,
                        27.153239
                    ],
                    [
                        77.867492,
                        27.153149
                    ],
                    [
                        77.867322,
                        27.153104
                    ],
                    [
                        77.866411,
                        27.152857
                    ],
                    [
                        77.866169,
                        27.152788
                    ],
                    [
                        77.8656,
                        27.152628
                    ],
                    [
                        77.864953,
                        27.152445
                    ],
                    [
                        77.86368,
                        27.152046
                    ],
                    [
                        77.862395,
                        27.151643
                    ],
                    [
                        77.861502,
                        27.151379
                    ],
                    [
                        77.861051,
                        27.151246
                    ],
                    [
                        77.858012,
                        27.150358
                    ],
                    [
                        77.856827,
                        27.15003
                    ],
                    [
                        77.856656,
                        27.149983
                    ],
                    [
                        77.851814,
                        27.148606
                    ],
                    [
                        77.851093,
                        27.1484
                    ],
                    [
                        77.850184,
                        27.148137
                    ],
                    [
                        77.849612,
                        27.147972
                    ],
                    [
                        77.849105,
                        27.147825
                    ],
                    [
                        77.847814,
                        27.147452
                    ],
                    [
                        77.846096,
                        27.146984
                    ],
                    [
                        77.842396,
                        27.14609
                    ],
                    [
                        77.838572,
                        27.145245
                    ],
                    [
                        77.838221,
                        27.145166
                    ],
                    [
                        77.834934,
                        27.144422
                    ],
                    [
                        77.834419,
                        27.144253
                    ],
                    [
                        77.834106,
                        27.144166
                    ],
                    [
                        77.833677,
                        27.144095
                    ],
                    [
                        77.832961,
                        27.143952
                    ],
                    [
                        77.829734,
                        27.143509
                    ],
                    [
                        77.827978,
                        27.143269
                    ],
                    [
                        77.827637,
                        27.143223
                    ],
                    [
                        77.827149,
                        27.143157
                    ],
                    [
                        77.823185,
                        27.142608
                    ],
                    [
                        77.822545,
                        27.142519
                    ],
                    [
                        77.82091,
                        27.142284
                    ],
                    [
                        77.811484,
                        27.141105
                    ],
                    [
                        77.810586,
                        27.141045
                    ],
                    [
                        77.807308,
                        27.140639
                    ],
                    [
                        77.804274,
                        27.140186
                    ],
                    [
                        77.80148,
                        27.139666
                    ],
                    [
                        77.799979,
                        27.139407
                    ],
                    [
                        77.798054,
                        27.139136
                    ],
                    [
                        77.795902,
                        27.138686
                    ],
                    [
                        77.794959,
                        27.138635
                    ],
                    [
                        77.794711,
                        27.138639
                    ],
                    [
                        77.79435,
                        27.138654
                    ],
                    [
                        77.794082,
                        27.138716
                    ],
                    [
                        77.793837,
                        27.138772
                    ],
                    [
                        77.793653,
                        27.138816
                    ],
                    [
                        77.792334,
                        27.139308
                    ],
                    [
                        77.791988,
                        27.139414
                    ],
                    [
                        77.791619,
                        27.139499
                    ],
                    [
                        77.791348,
                        27.139543
                    ],
                    [
                        77.790681,
                        27.139602
                    ],
                    [
                        77.790063,
                        27.139631
                    ],
                    [
                        77.788864,
                        27.139678
                    ],
                    [
                        77.788118,
                        27.139677
                    ],
                    [
                        77.787415,
                        27.139636
                    ],
                    [
                        77.786847,
                        27.139558
                    ],
                    [
                        77.786264,
                        27.139437
                    ],
                    [
                        77.785111,
                        27.139238
                    ],
                    [
                        77.783357,
                        27.138903
                    ],
                    [
                        77.783013,
                        27.138833
                    ],
                    [
                        77.782305,
                        27.13863
                    ],
                    [
                        77.78179,
                        27.138429
                    ],
                    [
                        77.781241,
                        27.138121
                    ],
                    [
                        77.781174,
                        27.138075
                    ],
                    [
                        77.780784,
                        27.137801
                    ],
                    [
                        77.780264,
                        27.137345
                    ],
                    [
                        77.778734,
                        27.13584
                    ],
                    [
                        77.778404,
                        27.13555
                    ],
                    [
                        77.778357,
                        27.135512
                    ],
                    [
                        77.777888,
                        27.135202
                    ],
                    [
                        77.777688,
                        27.135087
                    ],
                    [
                        77.777408,
                        27.134957
                    ],
                    [
                        77.777119,
                        27.134848
                    ],
                    [
                        77.776589,
                        27.134671
                    ],
                    [
                        77.775036,
                        27.134195
                    ],
                    [
                        77.773758,
                        27.133735
                    ],
                    [
                        77.770925,
                        27.13277
                    ],
                    [
                        77.766766,
                        27.131376
                    ],
                    [
                        77.76278,
                        27.1302
                    ],
                    [
                        77.755547,
                        27.128135
                    ],
                    [
                        77.754171,
                        27.127743
                    ],
                    [
                        77.74912,
                        27.126241
                    ],
                    [
                        77.747438,
                        27.125711
                    ],
                    [
                        77.744295,
                        27.124479
                    ],
                    [
                        77.743185,
                        27.124065
                    ],
                    [
                        77.742637,
                        27.123861
                    ],
                    [
                        77.737247,
                        27.121898
                    ],
                    [
                        77.73605,
                        27.121464
                    ],
                    [
                        77.730659,
                        27.11964
                    ],
                    [
                        77.729299,
                        27.1192
                    ],
                    [
                        77.723551,
                        27.117373
                    ],
                    [
                        77.721164,
                        27.116618
                    ],
                    [
                        77.71751,
                        27.115362
                    ],
                    [
                        77.714378,
                        27.114393
                    ],
                    [
                        77.70948,
                        27.112908
                    ],
                    [
                        77.705435,
                        27.111623
                    ],
                    [
                        77.697785,
                        27.109093
                    ],
                    [
                        77.690783,
                        27.106853
                    ],
                    [
                        77.69042,
                        27.106746
                    ],
                    [
                        77.689094,
                        27.106294
                    ],
                    [
                        77.686892,
                        27.105596
                    ],
                    [
                        77.686554,
                        27.105489
                    ],
                    [
                        77.683227,
                        27.104413
                    ],
                    [
                        77.680409,
                        27.103387
                    ],
                    [
                        77.679973,
                        27.103228
                    ],
                    [
                        77.679743,
                        27.103174
                    ],
                    [
                        77.679521,
                        27.103121
                    ],
                    [
                        77.679171,
                        27.103088
                    ],
                    [
                        77.678797,
                        27.103096
                    ],
                    [
                        77.6788,
                        27.103033
                    ],
                    [
                        77.67881,
                        27.102849
                    ],
                    [
                        77.678071,
                        27.102543
                    ],
                    [
                        77.676044,
                        27.101795
                    ],
                    [
                        77.675877,
                        27.101705
                    ],
                    [
                        77.672999,
                        27.09947
                    ],
                    [
                        77.671046,
                        27.09806
                    ],
                    [
                        77.667756,
                        27.095472
                    ],
                    [
                        77.667563,
                        27.095262
                    ],
                    [
                        77.667181,
                        27.095003
                    ],
                    [
                        77.666798,
                        27.094769
                    ],
                    [
                        77.666284,
                        27.094616
                    ],
                    [
                        77.665342,
                        27.094496
                    ],
                    [
                        77.665003,
                        27.09443
                    ],
                    [
                        77.664055,
                        27.09412
                    ],
                    [
                        77.663639,
                        27.093857
                    ],
                    [
                        77.66358,
                        27.093861
                    ],
                    [
                        77.663409,
                        27.093751
                    ],
                    [
                        77.663114,
                        27.093648
                    ],
                    [
                        77.66302,
                        27.093616
                    ],
                    [
                        77.662865,
                        27.093615
                    ]
                ],
                "type": "LineString"
            }
        }
    ],
    "metadata": {
        "attribution": "openrouteservice.org | OpenStreetMap contributors",
        "service": "routing",
        "timestamp": 1756628519201,
        "query": {
            "coordinates": [
                [
                    78.038945,
                    27.171074
                ],
                [
                    77.662817,
                    27.093647
                ]
            ],
            "profile": "driving-car",
            "profileName": "driving-car",
            "format": "geojson"
        },
        "engine": {
            "version": "9.3.0",
            "build_date": "2025-06-06T15:39:25Z",
            "graph_date": "2025-08-24T11:22:16Z",
            "osm_date": "2025-08-18T00:00:00Z"
        }
    }
}