{
    "type": "FeatureCollection",
    "bbox": [
        75.82055,
        26.91595,
        75.82055,
        26.91595
    ],
    "features": [
        {
            "bbox": [
                75.82055,
                26.91595,
                75.82055,
                26.91595
            ],
            "type": "Feature",
            "properties": {
                "segments": [
                    {
                        "distance": 0.0,
                        "duration": 0.0,
                        "steps": [
                            {
                                "distance": 0.0,
                                "duration": 0.0,
                                "type": 11,
                                "instruction": "Head east",
                                "name": "-",
                                "way_points": [
                                    0,
                                    0
                                ]
                            }
                        ]
                    }
                ],
                "way_points": [
                    0,
                    0
                ],
                "summary": {}
            },
            "geometry": {
                "coordinates": [
                    [
                        75.82055,
                        26.91595
                    ]
                ],
                "type": "LineString"
            }
        }
    ],
    "metadata": {
        "attribution": "openrouteservice.org | OpenStreetMap contributors",
        "service": "routing",
        "timestamp": 1756632297137,
        "query": {
            "coordinates": [
                [
                    75.820505,
                    26.915956
                ],
                [
                    75.820505,
                    26.915956
                ]
            ],
            "profile": "driving-car",
            "profileName": "driving-car",
            "format": "geojson"
        },
        "engine": {
            "version": "9.3.0",
            "build_date": "2025-06-06T15:39:25Z",
            "graph_date": "2025-08-24T11:22:16Z",
            "osm_date": "2025-08-18T00:00:00Z"
        }
    }
}