{
    "type": "FeatureCollection",
    "bbox": [
        76.278331,
        9.971349,
        76.285332,
        9.985563
    ],
    "features": [
        {
            "bbox": [
                76.278331,
                9.971349,
                76.285332,
                9.985563
            ],
            "type": "Feature",
            "properties": {
                "segments": [
                    {
                        "distance": 2575.5,
                        "duration": 312.9,
                        "steps": [
                            {
                                "distance": 1549.1,
                                "duration": 126.3,
                                "type": 11,
                                "instruction": "Head south on Mahatma Gandhi Road",
                                "name": "Mahatma Gandhi Road",
                                "way_points": [
                                    0,
                                    21
                                ]
                            },
                            {
                                "distance": 576.5,
                                "duration": 87.7,
                                "type": 1,
                                "instruction": "Turn right onto KPCC Junction",
                                "name": "KPCC Junction",
                                "way_points": [
                                    21,
                                    34
                                ]
                            },
                            {
                                "distance": 220.6,
                                "duration": 35.3,
                                "type": 1,
                                "instruction": "Turn right onto Park Avenue",
                                "name": "Park Avenue",
                                "way_points": [
                                    34,
                                    37
                                ]
                            },
                            {
                                "distance": 110.0,
                                "duration": 20.6,
                                "type": 0,
                                "instruction": "Turn left onto Boat Jetty Road",
                                "name": "Boat Jetty Road",
                                "way_points": [
                                    37,
                                    40
                                ]
                            },
                            {
                                "distance": 119.4,
                                "duration": 43.0,
                                "type": 1,
                                "instruction": "Turn right",
                                "name": "-",
                                "way_points": [
                                    40,
                                    44
                                ]
                            },
                            {
                                "distance": 0.0,
                                "duration": 0.0,
                                "type": 10,
                                "instruction": "Arrive at your destination, on the right",
                                "name": "-",
                                "way_points": [
                                    44,
                                    44
                                ]
                            }
                        ]
                    }
                ],
                "way_points": [
                    0,
                    44
                ],
                "summary": {
                    "distance": 2575.5,
                    "duration": 312.9
                }
            },
            "geometry": {
                "coordinates": [
                    [
                        76.281615,
                        9.985563
                    ],
                    [
                        76.281957,
                        9.984601
                    ],
                    [
                        76.282249,
                        9.98389
                    ],
                    [
                        76.282785,
                        9.982321
                    ],
                    [
                        76.282925,
                        9.981895
                    ],
                    [
                        76.283028,
                        9.981563
                    ],
                    [
                        76.283085,
                        9.981204
                    ],
                    [
                        76.283114,
                        9.980878
                    ],
                    [
                        76.283241,
                        9.980043
                    ],
                    [
                        76.283281,
                        9.97981
                    ],
                    [
                        76.283384,
                        9.979376
                    ],
                    [
                        76.28358,
                        9.978705
                    ],
                    [
                        76.283716,
                        9.978365
                    ],
                    [
                        76.284057,
                        9.97735
                    ],
                    [
                        76.284304,
                        9.976512
                    ],
                    [
                        76.284589,
                        9.975538
                    ],
                    [
                        76.28474,
                        9.974936
                    ],
                    [
                        76.284995,
                        9.973846
                    ],
                    [
                        76.285095,
                        9.973534
                    ],
                    [
                        76.28518,
                        9.973198
                    ],
                    [
                        76.285321,
                        9.972238
                    ],
                    [
                        76.285332,
                        9.972162
                    ],
                    [
                        76.28521,
                        9.972147
                    ],
                    [
                        76.284899,
                        9.972079
                    ],
                    [
                        76.284764,
                        9.972084
                    ],
                    [
                        76.284275,
                        9.972
                    ],
                    [
                        76.283805,
                        9.971925
                    ],
                    [
                        76.283567,
                        9.971894
                    ],
                    [
                        76.283314,
                        9.971856
                    ],
                    [
                        76.283064,
                        9.971819
                    ],
                    [
                        76.282833,
                        9.971811
                    ],
                    [
                        76.282189,
                        9.971721
                    ],
                    [
                        76.281084,
                        9.971524
                    ],
                    [
                        76.280576,
                        9.97144
                    ],
                    [
                        76.28014,
                        9.971349
                    ],
                    [
                        76.279921,
                        9.971995
                    ],
                    [
                        76.279648,
                        9.972932
                    ],
                    [
                        76.27952,
                        9.973235
                    ],
                    [
                        76.279152,
                        9.973072
                    ],
                    [
                        76.278635,
                        9.972861
                    ],
                    [
                        76.278598,
                        9.972844
                    ],
                    [
                        76.278415,
                        9.97327
                    ],
                    [
                        76.278331,
                        9.973243
                    ],
                    [
                        76.278352,
                        9.973139
                    ],
                    [
                        76.278481,
                        9.972741
                    ]
                ],
                "type": "LineString"
            }
        }
    ],
    "metadata": {
        "attribution": "openrouteservice.org | OpenStreetMap contributors",
        "service": "routing",
        "timestamp": 1756626423819,
        "query": {
            "coordinates": [
                [
                    76.28172,
                    9.985599
                ],
                [
                    76.278355,
                    9.972701
                ]
            ],
            "profile": "driving-car",
            "profileName": "driving-car",
            "format": "geojson"
        },
        "engine": {
            "version": "9.3.0",
            "build_date": "2025-06-06T15:39:25Z",
            "graph_date": "2025-08-24T11:22:16Z",
            "osm_date": "2025-08-18T00:00:00Z"
        }
    }
}