{"type": "FeatureCollection", "features": [{"type": "Feature", "geometry": {"type": "LineString", "coordinates": [[-157.919828, 21.332046], [-157.904927, 21.327748], [-157.890027, 21.323448], [-157.875128, 21.319147], [-157.86023, 21.314844], [-157.845333, 21.31054], [-157.830436, 21.306235], [-157.815541, 21.301928], [-157.800646, 21.297621], [-157.785752, 21.293311], [-157.770859, 21.289001], [-157.755967, 21.284689], [-157.741076, 21.280376], [-157.726185, 21.276061], [-157.711296, 21.271746], [-157.696407, 21.267429], [-157.68152, 21.26311], [-157.666633, 21.25879], [-157.651747, 21.254469], [-157.636861, 21.250147], [-157.621977, 21.245823], [-157.607094, 21.241498], [-157.592211, 21.237172], [-157.577329, 21.232844], [-157.562449, 21.228516], [-157.547569, 21.224185], [-157.53269, 21.219854], [-157.517811, 21.215521], [-157.502934, 21.211187], [-157.488057, 21.206851], [-157.473182, 21.202514], [-157.458307, 21.198176], [-157.443433, 21.193837], [-157.42856, 21.189496], [-157.413688, 21.185154], [-157.398817, 21.180811], [-157.383946, 21.176466], [-157.369077, 21.17212], [-157.354208, 21.167773], [-157.33934, 21.163424], [-157.324473, 21.159074], [-157.309607, 21.154723], [-157.294742, 21.15037], [-157.279878, 21.146016], [-157.265014, 21.141661], [-157.250152, 21.137305], [-157.23529, 21.132947], [-157.220429, 21.128588], [-157.205569, 21.124228], [-157.19071, 21.119866], [-157.175852, 21.115503], [-157.160994, 21.111139], [-157.146138, 21.106773], [-157.131282, 21.102406], [-157.116428, 21.098038], [-157.101574, 21.093668], [-157.086721, 21.089298], [-157.071868, 21.084926], [-157.057017, 21.080552], [-157.042167, 21.076177], [-157.027317, 21.071801], [-157.012469, 21.067424], [-156.997621, 21.063045], [-156.982774, 21.058666], [-156.967928, 21.054284], [-156.953082, 21.049902], [-156.938238, 21.045518], [-156.923395, 21.041133], [-156.908552, 21.036746], [-156.89371, 21.032359], [-156.878869, 21.02797], [-156.864029, 21.023579], [-156.84919, 21.019188], [-156.834352, 21.014795], [-156.819515, 21.010401], [-156.804678, 21.006005], [-156.789842, 21.001608], [-156.775008, 20.99721], [-156.760174, 20.992811], [-156.745341, 20.98841], [-156.730509, 20.984008], [-156.715677, 20.979605], [-156.700847, 20.975201], [-156.686017, 20.970795], [-156.671189, 20.966388], [-156.656361, 20.961979], [-156.641534, 20.957569], [-156.626708, 20.953158], [-156.611882, 20.948746], [-156.597058, 20.944333], [-156.582235, 20.939918], [-156.567412, 20.935501], [-156.55259, 20.931084], [-156.537769, 20.926665], [-156.522949, 20.922245], [-156.50813, 20.917824], [-156.493312, 20.913401], [-156.478495, 20.908977], [-156.463678, 20.904552], [-156.448862, 20.900126], [-156.434048, 20.895698]]}, "properties": {"transport_mode": "plane"}}]}