{"type": "FeatureCollection", "features": [{"type": "Feature", "geometry": {"type": "LineString", "coordinates": [[-77.448319, 38.955788], [-77.352043, 38.694232], [-77.256467, 38.432586], [-77.161577, 38.170851], [-77.067365, 37.909028], [-76.973817, 37.647119], [-76.880924, 37.385124], [-76.788676, 37.123045], [-76.697062, 36.860883], [-76.606071, 36.59864], [-76.515694, 36.336316], [-76.425922, 36.073912], [-76.336744, 35.81143], [-76.248151, 35.548871], [-76.160134, 35.286236], [-76.072684, 35.023526], [-75.985791, 34.760742], [-75.899448, 34.497884], [-75.813645, 34.234955], [-75.728373, 33.971955], [-75.643626, 33.708885], [-75.559393, 33.445746], [-75.475668, 33.182539], [-75.392442, 32.919264], [-75.309707, 32.655924], [-75.227456, 32.392518], [-75.145681, 32.129048], [-75.064375, 31.865514], [-74.983531, 31.601918], [-74.90314, 31.33826], [-74.823197, 31.074541], [-74.743694, 30.810762], [-74.664624, 30.546923], [-74.585981, 30.283027], [-74.507758, 30.019072], [-74.429948, 29.755061], [-74.352544, 29.490994], [-74.275542, 29.226871], [-74.198933, 28.962694], [-74.122712, 28.698463], [-74.046874, 28.434179], [-73.971411, 28.169843], [-73.896319, 27.905455], [-73.82159, 27.641016], [-73.74722, 27.376527], [-73.673203, 27.111989], [-73.599534, 26.847402], [-73.526206, 26.582766], [-73.453215, 26.318084], [-73.380554, 26.053354], [-73.30822, 25.788579], [-73.236205, 25.523758], [-73.164507, 25.258892], [-73.093119, 24.993982], [-73.022036, 24.729028], [-72.951254, 24.464032], [-72.880767, 24.198993], [-72.810571, 23.933913], [-72.740662, 23.668791], [-72.671034, 23.40363], [-72.601682, 23.138428], [-72.532603, 22.873187], [-72.463792, 22.607907], [-72.395244, 22.342589], [-72.326955, 22.077233], [-72.25892, 21.81184], [-72.191136, 21.546411], [-72.123598, 21.280946], [-72.056302, 21.015446], [-71.989244, 20.749911], [-71.92242, 20.484342], [-71.855825, 20.218739], [-71.789456, 19.953102], [-71.723308, 19.687433], [-71.657379, 19.421732], [-71.591663, 19.156], [-71.526158, 18.890236], [-71.460859, 18.624441], [-71.395762, 18.358617], [-71.330865, 18.092763], [-71.266163, 17.82688], [-71.201652, 17.560968], [-71.13733, 17.295028], [-71.073192, 17.029061], [-71.009235, 16.763066], [-70.945456, 16.497045], [-70.881851, 16.230997], [-70.818416, 15.964924], [-70.755149, 15.698826], [-70.692046, 15.432703], [-70.629103, 15.166556], [-70.566318, 14.900385], [-70.503686, 14.63419], [-70.441206, 14.367973], [-70.378873, 14.101733], [-70.316685, 13.835472], [-70.254638, 13.569189], [-70.192729, 13.302885], [-70.130955, 13.03656], [-70.069313, 12.770215], [-70.0078, 12.50385]]}, "properties": {"transport_mode": "plane"}}]}