{"type": "FeatureCollection", "features": [{"type": "Feature", "geometry": {"type": "LineString", "coordinates": [[-159.336715, 21.972066], [-159.307477, 21.961555], [-159.278243, 21.951038], [-159.249014, 21.940517], [-159.219788, 21.92999], [-159.190567, 21.919458], [-159.161351, 21.908921], [-159.132138, 21.898379], [-159.10293, 21.887831], [-159.073727, 21.877279], [-159.044527, 21.866721], [-159.015332, 21.856158], [-158.986141, 21.845589], [-158.956954, 21.835016], [-158.927772, 21.824437], [-158.898594, 21.813854], [-158.86942, 21.803265], [-158.840251, 21.79267], [-158.811086, 21.782071], [-158.781925, 21.771467], [-158.752768, 21.760857], [-158.723616, 21.750242], [-158.694468, 21.739623], [-158.665324, 21.728997], [-158.636185, 21.718367], [-158.607049, 21.707732], [-158.577919, 21.697091], [-158.548792, 21.686446], [-158.51967, 21.675795], [-158.490552, 21.665139], [-158.461438, 21.654478], [-158.432328, 21.643812], [-158.403223, 21.633141], [-158.374122, 21.622465], [-158.345025, 21.611783], [-158.315933, 21.601097], [-158.286845, 21.590405], [-158.257761, 21.579709], [-158.228682, 21.569007], [-158.199606, 21.5583], [-158.170535, 21.547588], [-158.141468, 21.536871], [-158.112406, 21.526149], [-158.083348, 21.515422], [-158.054294, 21.504689], [-158.025244, 21.493952], [-157.996199, 21.48321], [-157.967157, 21.472462], [-157.938121, 21.46171], [-157.909088, 21.450952], [-157.880059, 21.44019], [-157.851035, 21.429422], [-157.822015, 21.418649], [-157.793, 21.407871], [-157.763988, 21.397089], [-157.734981, 21.386301], [-157.705978, 21.375508], [-157.67698, 21.36471], [-157.647985, 21.353907], [-157.618995, 21.343099], [-157.59001, 21.332286], [-157.561028, 21.321469], [-157.532051, 21.310646], [-157.503077, 21.299818], [-157.474109, 21.288985], [-157.445144, 21.278147], [-157.416184, 21.267304], [-157.387227, 21.256456], [-157.358276, 21.245603], [-157.329328, 21.234745], [-157.300384, 21.223882], [-157.271445, 21.213014], [-157.24251, 21.202142], [-157.21358, 21.191264], [-157.184653, 21.180381], [-157.155731, 21.169493], [-157.126813, 21.158601], [-157.097899, 21.147703], [-157.06899, 21.1368], [-157.040084, 21.125893], [-157.011183, 21.11498], [-156.982286, 21.104063], [-156.953394, 21.093141], [-156.924505, 21.082213], [-156.895621, 21.071281], [-156.866741, 21.060344], [-156.837865, 21.049402], [-156.808994, 21.038455], [-156.780127, 21.027503], [-156.751263, 21.016546], [-156.722405, 21.005584], [-156.69355, 20.994618], [-156.664699, 20.983646], [-156.635853, 20.97267], [-156.607011, 20.961689], [-156.578173, 20.950702], [-156.54934, 20.939711], [-156.52051, 20.928715], [-156.491685, 20.917714], [-156.462864, 20.906709], [-156.434048, 20.895698]]}, "properties": {"transport_mode": "plane"}}]}