{
  "type": "FeatureCollection",
  "generator": "overpass-turbo",
  "copyright": "The data included in this document is from www.openstreetmap.org. The data is made available under ODbL.",
  "timestamp": "2026-03-08T00:13:01Z",
  "features": [
    {
      "type": "Feature",
      "properties": {
        "@id": "way/22208846",
        "highway": "footway",
        "name": "Mt. Britton Spur",
        "sac_scale": "mountain_hiking",
        "surface": "ground",
        "tiger:cfcc": "A51",
        "tiger:county": "Rio Grande, PR"
      },
      "geometry": {
        "type": "LineString",
        "coordinates": [
          [
            -65.7946375,
            18.3018802
          ],
          [
            -65.7947956,
            18.3020242
          ],
          [
            -65.7950248,
            18.3022367
          ],
          [
            -65.7951682,
            18.3024683
          ],
          [
            -65.7952168,
            18.3026584
          ],
          [
            -65.7952182,
            18.302775
          ],
          [
            -65.7951556,
            18.30306
          ],
          [
            -65.7948763,
            18.3032828
          ],
          [
            -65.7948048,
            18.3035685
          ],
          [
            -65.7945849,
            18.3037977
          ],
          [
            -65.7944128,
            18.3039111
          ],
          [
            -65.7943727,
            18.3040287
          ],
          [
            -65.7941414,
            18.3041486
          ],
          [
            -65.7938131,
            18.3042338
          ],
          [
            -65.7934581,
            18.3043712
          ],
          [
            -65.7932711,
            18.3044617
          ],
          [
            -65.7930871,
            18.3045852
          ],
          [
            -65.7930148,
            18.3047072
          ],
          [
            -65.7929738,
            18.3047558
          ]
        ]
      },
      "id": "way/22208846"
    },
    {
      "type": "Feature",
      "properties": {
        "@id": "way/22208950",
        "highway": "footway",
        "surface": "gravel",
        "tiger:cfcc": "A51",
        "tiger:county": "Rio Grande, PR"
      },
      "geometry": {
        "type": "LineString",
        "coordinates": [
          [
            -65.7931449,
            18.3009804
          ],
          [
            -65.7932423,
            18.3010936
          ],
          [
            -65.7933593,
            18.3012359
          ],
          [
            -65.7935146,
            18.3014465
          ],
          [
            -65.7935845,
            18.30149
          ],
          [
            -65.7936467,
            18.3015057
          ],
          [
            -65.7937675,
            18.3015209
          ],
          [
            -65.7938711,
            18.3015378
          ],
          [
            -65.7939643,
            18.3015479
          ],
          [
            -65.7941111,
            18.3015692
          ],
          [
            -65.7941951,
            18.3016042
          ],
          [
            -65.7942555,
            18.3016395
          ],
          [
            -65.7943031,
            18.3016846
          ],
          [
            -65.7943581,
            18.3017389
          ],
          [
            -65.7944534,
            18.3018132
          ],
          [
            -65.7945251,
            18.3018247
          ]
        ]
      },
      "id": "way/22208950"
    },
    {
      "type": "Feature",
      "properties": {
        "@id": "way/22209355",
        "bicycle": "no",
        "foot": "yes",
        "highway": "footway",
        "horse": "no",
        "motor_vehicle": "no",
        "name": "Baño de Oro Trail",
        "tiger:cfcc": "A51",
        "tiger:county": "Rio Grande, PR"
      },
      "geometry": {
        "type": "LineString",
        "coordinates": [
          [
            -65.7862213,
            18.3006981
          ],
          [
            -65.786187,
            18.300906
          ],
          [
            -65.786244,
            18.300935
          ],
          [
            -65.786444,
            18.300914
          ],
          [
            -65.78666,
            18.300946
          ],
          [
            -65.786818,
            18.300923
          ],
          [
            -65.787301,
            18.300623
          ],
          [
            -65.787471,
            18.300508
          ],
          [
            -65.787531,
            18.300548
          ],
          [
            -65.787496,
            18.300678
          ],
          [
            -65.78743,
            18.300983
          ],
          [
            -65.787487,
            18.301172
          ],
          [
            -65.787738,
            18.301245
          ],
          [
            -65.788009,
            18.301385
          ],
          [
            -65.788008,
            18.301542
          ],
          [
            -65.787907,
            18.301798
          ],
          [
            -65.787948,
            18.302016
          ],
          [
            -65.788112,
            18.302233
          ],
          [
            -65.788267,
            18.302455
          ],
          [
            -65.788272,
            18.302554
          ],
          [
            -65.788191,
            18.302626
          ],
          [
            -65.7880865,
            18.3026482
          ]
        ]
      },
      "id": "way/22209355"
    },
    {
      "type": "Feature",
      "properties": {
        "@id": "way/22210376",
        "bicycle": "no",
        "highway": "footway",
        "incline": "up",
        "name": "El Yunque Trail",
        "sac_scale": "mountain_hiking",
        "surface": "gravel",
        "tiger:county": "Rio Grande, PR"
      },
      "geometry": {
        "type": "LineString",
        "coordinates": [
          [
            -65.7851892,
            18.3031061
          ],
          [
            -65.7853875,
            18.3031076
          ],
          [
            -65.7855087,
            18.3031321
          ],
          [
            -65.7855701,
            18.3032052
          ],
          [
            -65.7855894,
            18.3031533
          ],
          [
            -65.7854373,
            18.3029634
          ],
          [
            -65.7852123,
            18.3029313
          ],
          [
            -65.7849693,
            18.3029389
          ],
          [
            -65.784878,
            18.3028784
          ],
          [
            -65.785039,
            18.302705
          ],
          [
            -65.785124,
            18.3026609
          ],
          [
            -65.7850852,
            18.302573
          ],
          [
            -65.7850543,
            18.3023911
          ],
          [
            -65.785085,
            18.3022788
          ],
          [
            -65.7850972,
            18.3022344
          ],
          [
            -65.785377,
            18.30229
          ],
          [
            -65.7855235,
            18.3023848
          ],
          [
            -65.785725,
            18.302373
          ],
          [
            -65.785839,
            18.3024077
          ],
          [
            -65.7859449,
            18.3025052
          ],
          [
            -65.7859836,
            18.3026311
          ],
          [
            -65.786031,
            18.3028045
          ],
          [
            -65.7861043,
            18.3028868
          ],
          [
            -65.786249,
            18.302888
          ],
          [
            -65.7863925,
            18.302914
          ],
          [
            -65.7865362,
            18.3029095
          ],
          [
            -65.786681,
            18.3028754
          ],
          [
            -65.7867212,
            18.3027789
          ],
          [
            -65.7867329,
            18.3026743
          ],
          [
            -65.7868069,
            18.3026268
          ],
          [
            -65.7869783,
            18.3026054
          ],
          [
            -65.7869942,
            18.3025618
          ],
          [
            -65.7869399,
            18.3024748
          ],
          [
            -65.7869106,
            18.3023399
          ],
          [
            -65.787064,
            18.302315
          ],
          [
            -65.7871874,
            18.3023151
          ],
          [
            -65.7873422,
            18.302336
          ],
          [
            -65.7874787,
            18.3023894
          ],
          [
            -65.7875872,
            18.3024277
          ],
          [
            -65.7876865,
            18.3023848
          ],
          [
            -65.7877767,
            18.3023741
          ],
          [
            -65.787842,
            18.3025263
          ],
          [
            -65.7880865,
            18.3026482
          ]
        ]
      },
      "id": "way/22210376"
    },
    {
      "type": "Feature",
      "properties": {
        "@id": "way/891296539",
        "highway": "footway",
        "name": "El Yunque Trail",
        "sac_scale": "mountain_hiking",
        "surface": "ground"
      },
      "geometry": {
        "type": "LineString",
        "coordinates": [
          [
            -65.7905292,
            18.3048831
          ],
          [
            -65.7904718,
            18.3049945
          ],
          [
            -65.7904194,
            18.3049908
          ],
          [
            -65.7903369,
            18.3049695
          ],
          [
            -65.7902118,
            18.3049081
          ],
          [
            -65.7900088,
            18.3049397
          ],
          [
            -65.7898259,
            18.3049744
          ],
          [
            -65.7897327,
            18.3050408
          ],
          [
            -65.7897094,
            18.3050787
          ],
          [
            -65.789726,
            18.3051513
          ],
          [
            -65.7897327,
            18.3052303
          ],
          [
            -65.7897094,
            18.3053029
          ],
          [
            -65.7896429,
            18.3053629
          ],
          [
            -65.7895796,
            18.305423
          ],
          [
            -65.7894532,
            18.3054293
          ],
          [
            -65.7893102,
            18.3053851
          ],
          [
            -65.7892137,
            18.3054324
          ],
          [
            -65.7891238,
            18.3054861
          ],
          [
            -65.7890939,
            18.3055272
          ],
          [
            -65.7891172,
            18.3055714
          ],
          [
            -65.7891671,
            18.305603
          ],
          [
            -65.7892503,
            18.3056441
          ],
          [
            -65.7893301,
            18.3056693
          ],
          [
            -65.7895364,
            18.3055809
          ],
          [
            -65.7896728,
            18.3055967
          ],
          [
            -65.7898425,
            18.3055998
          ],
          [
            -65.789909,
            18.3054577
          ],
          [
            -65.7900621,
            18.3053693
          ],
          [
            -65.7901452,
            18.3053471
          ],
          [
            -65.7902817,
            18.3053787
          ],
          [
            -65.7903448,
            18.305405
          ],
          [
            -65.7906004,
            18.3054412
          ]
        ]
      },
      "id": "way/891296539"
    },
    {
      "type": "Feature",
      "properties": {
        "@id": "way/891298365",
        "highway": "footway",
        "name": "El Yunque Trail",
        "sac_scale": "mountain_hiking",
        "surface": "ground",
        "tiger:cfcc": "A51",
        "tiger:county": "Rio Grande, PR"
      },
      "geometry": {
        "type": "LineString",
        "coordinates": [
          [
            -65.7906004,
            18.3054412
          ],
          [
            -65.7906696,
            18.3055292
          ],
          [
            -65.7907581,
            18.3056422
          ],
          [
            -65.7909179,
            18.3057503
          ],
          [
            -65.7911301,
            18.3057662
          ],
          [
            -65.7914486,
            18.3055926
          ],
          [
            -65.7913428,
            18.305414
          ],
          [
            -65.7913291,
            18.3053357
          ],
          [
            -65.7913698,
            18.3052969
          ],
          [
            -65.791418,
            18.3052765
          ],
          [
            -65.7915523,
            18.3052157
          ],
          [
            -65.7917256,
            18.3052022
          ],
          [
            -65.7917734,
            18.3051279
          ],
          [
            -65.7919471,
            18.3049973
          ],
          [
            -65.7920596,
            18.3049895
          ],
          [
            -65.7921365,
            18.3049073
          ],
          [
            -65.7921478,
            18.3045969
          ],
          [
            -65.7922722,
            18.3044345
          ],
          [
            -65.7924321,
            18.3043823
          ],
          [
            -65.7925123,
            18.3044123
          ],
          [
            -65.792668,
            18.30449
          ],
          [
            -65.792769,
            18.304628
          ],
          [
            -65.7928865,
            18.3046938
          ],
          [
            -65.7929738,
            18.3047558
          ]
        ]
      },
      "id": "way/891298365"
    },
    {
      "type": "Feature",
      "properties": {
        "@id": "way/905575350",
        "highway": "footway"
      },
      "geometry": {
        "type": "LineString",
        "coordinates": [
          [
            -65.7859063,
            18.3007112
          ],
          [
            -65.7859688,
            18.3007142
          ],
          [
            -65.7860678,
            18.3007172
          ],
          [
            -65.7862213,
            18.3006981
          ],
          [
            -65.7864686,
            18.3005502
          ]
        ]
      },
      "id": "way/905575350"
    },
    {
      "type": "Feature",
      "properties": {
        "@id": "way/1268040370",
        "highway": "footway",
        "name": "El Yunque Trail",
        "tiger:cfcc": "A51",
        "tiger:county": "Rio Grande, PR"
      },
      "geometry": {
        "type": "LineString",
        "coordinates": [
          [
            -65.7849572,
            18.301364
          ],
          [
            -65.784966,
            18.301401
          ],
          [
            -65.7851304,
            18.3015799
          ],
          [
            -65.7851046,
            18.3016047
          ],
          [
            -65.7850697,
            18.3015954
          ],
          [
            -65.7850205,
            18.3015623
          ],
          [
            -65.7849615,
            18.3015334
          ],
          [
            -65.7848916,
            18.3015367
          ],
          [
            -65.7848097,
            18.3015822
          ],
          [
            -65.7847344,
            18.3016582
          ],
          [
            -65.7847934,
            18.3017507
          ],
          [
            -65.7847545,
            18.3018254
          ],
          [
            -65.7846933,
            18.3018814
          ],
          [
            -65.7845987,
            18.3018708
          ],
          [
            -65.7844662,
            18.3018577
          ],
          [
            -65.7844405,
            18.3018824
          ],
          [
            -65.7843576,
            18.3019445
          ],
          [
            -65.784255,
            18.302006
          ],
          [
            -65.7841479,
            18.3020232
          ],
          [
            -65.7840272,
            18.302013
          ],
          [
            -65.7840102,
            18.3020622
          ],
          [
            -65.784071,
            18.3020987
          ],
          [
            -65.784048,
            18.302199
          ],
          [
            -65.784175,
            18.302429
          ],
          [
            -65.78434,
            18.302573
          ],
          [
            -65.784516,
            18.302602
          ],
          [
            -65.78469,
            18.302768
          ],
          [
            -65.784822,
            18.303057
          ],
          [
            -65.785101,
            18.303053
          ],
          [
            -65.7851892,
            18.3031061
          ]
        ]
      },
      "id": "way/1268040370"
    },
    {
      "type": "Feature",
      "properties": {
        "@id": "way/1268200188",
        "highway": "footway",
        "name": "El Yunque Trail",
        "sac_scale": "mountain_hiking",
        "surface": "ground",
        "tiger:cfcc": "A51",
        "tiger:county": "Rio Grande, PR"
      },
      "geometry": {
        "type": "LineString",
        "coordinates": [
          [
            -65.7880865,
            18.3026482
          ],
          [
            -65.7884016,
            18.3028779
          ],
          [
            -65.7885678,
            18.3029778
          ],
          [
            -65.7887673,
            18.3029365
          ],
          [
            -65.7889276,
            18.3029524
          ],
          [
            -65.7890517,
            18.3030544
          ],
          [
            -65.7891142,
            18.3031643
          ],
          [
            -65.7891887,
            18.303293
          ],
          [
            -65.7891933,
            18.3034395
          ],
          [
            -65.7892175,
            18.3034915
          ],
          [
            -65.7892991,
            18.3035888
          ],
          [
            -65.7893617,
            18.303531
          ],
          [
            -65.7893966,
            18.3033668
          ],
          [
            -65.789472,
            18.3032201
          ],
          [
            -65.789474,
            18.3030151
          ],
          [
            -65.789491,
            18.302908
          ],
          [
            -65.789621,
            18.302913
          ],
          [
            -65.789709,
            18.30306
          ],
          [
            -65.7898108,
            18.3032683
          ],
          [
            -65.7898788,
            18.303417
          ],
          [
            -65.7898646,
            18.3036466
          ],
          [
            -65.7898089,
            18.303841
          ],
          [
            -65.7898382,
            18.3039202
          ],
          [
            -65.7898968,
            18.3039759
          ],
          [
            -65.7900512,
            18.3038924
          ],
          [
            -65.7901788,
            18.3038966
          ],
          [
            -65.7902595,
            18.3039642
          ],
          [
            -65.7902915,
            18.3041236
          ],
          [
            -65.7903927,
            18.3042832
          ],
          [
            -65.7903502,
            18.304402
          ],
          [
            -65.790426,
            18.304507
          ],
          [
            -65.7905321,
            18.3048317
          ],
          [
            -65.7905292,
            18.3048831
          ]
        ]
      },
      "id": "way/1268200188"
    }
  ]
}