{
  "type": "FeatureCollection",
  "generator": "overpass-turbo",
  "copyright": "The data included in this document is from www.openstreetmap.org. The data is made available under ODbL.",
  "timestamp": "2026-08-13T06:17:19Z",
  "features": [
    {
      "type": "Feature",
      "properties": {
        "@id": "way/30263535",
        "highway": "track",
        "noname": "yes"
      },
      "geometry": {
        "type": "LineString",
        "coordinates": [
          [
            -69.9179798,
            12.5048306
          ],
          [
            -69.9176575,
            12.504882
          ],
          [
            -69.9174111,
            12.5048609
          ],
          [
            -69.9169562,
            12.5047184
          ],
          [
            -69.9166276,
            12.5045665
          ],
          [
            -69.9164945,
            12.5045116
          ],
          [
            -69.9163447,
            12.5044364
          ],
          [
            -69.9162565,
            12.50437
          ],
          [
            -69.9161655,
            12.5042905
          ],
          [
            -69.9159034,
            12.5039941
          ],
          [
            -69.9158203,
            12.5039111
          ],
          [
            -69.9157425,
            12.5038386
          ],
          [
            -69.9153237,
            12.5035462
          ],
          [
            -69.9147503,
            12.5029084
          ],
          [
            -69.9144826,
            12.5025103
          ],
          [
            -69.9144455,
            12.5020892
          ],
          [
            -69.9145071,
            12.501604
          ],
          [
            -69.9144292,
            12.5008154
          ],
          [
            -69.9141233,
            12.5003185
          ],
          [
            -69.9139295,
            12.4996967
          ],
          [
            -69.9136512,
            12.4990183
          ],
          [
            -69.9135546,
            12.4987611
          ],
          [
            -69.9133623,
            12.4983236
          ],
          [
            -69.9133441,
            12.4982823
          ],
          [
            -69.9132818,
            12.4980522
          ],
          [
            -69.9132992,
            12.497966
          ],
          [
            -69.9133634,
            12.4979138
          ],
          [
            -69.9136794,
            12.4977973
          ],
          [
            -69.9138851,
            12.4976884
          ],
          [
            -69.9140405,
            12.4975637
          ],
          [
            -69.9141652,
            12.4974734
          ],
          [
            -69.9143041,
            12.4973982
          ],
          [
            -69.9143671,
            12.4973054
          ],
          [
            -69.9143582,
            12.4972646
          ],
          [
            -69.9143469,
            12.4972124
          ],
          [
            -69.9142699,
            12.4971373
          ],
          [
            -69.9141147,
            12.4971222
          ],
          [
            -69.9138161,
            12.4971149
          ],
          [
            -69.9133882,
            12.4970785
          ],
          [
            -69.9132007,
            12.4970337
          ],
          [
            -69.9130057,
            12.4969554
          ],
          [
            -69.9128919,
            12.4968638
          ],
          [
            -69.9128092,
            12.4966573
          ],
          [
            -69.9127865,
            12.4964819
          ],
          [
            -69.9127502,
            12.4963286
          ],
          [
            -69.9127464,
            12.4962423
          ]
        ]
      },
      "id": "way/30263535"
    },
    {
      "type": "Feature",
      "properties": {
        "@id": "way/43114273",
        "highway": "track",
        "noname": "yes",
        "surface": "compacted",
        "tracktype": "grade2"
      },
      "geometry": {
        "type": "LineString",
        "coordinates": [
          [
            -69.9070968,
            12.4967869
          ],
          [
            -69.9071287,
            12.4965364
          ],
          [
            -69.9072466,
            12.4933263
          ],
          [
            -69.9072387,
            12.4931973
          ],
          [
            -69.9071924,
            12.4930745
          ],
          [
            -69.9070512,
            12.4929765
          ]
        ]
      },
      "id": "way/43114273"
    },
    {
      "type": "Feature",
      "properties": {
        "@id": "way/724157646",
        "highway": "path"
      },
      "geometry": {
        "type": "LineString",
        "coordinates": [
          [
            -69.9358776,
            12.498071
          ],
          [
            -69.9357086,
            12.4981378
          ],
          [
            -69.9355128,
            12.4981404
          ],
          [
            -69.9353412,
            12.4981771
          ],
          [
            -69.9351937,
            12.4982085
          ],
          [
            -69.9350515,
            12.4982085
          ],
          [
            -69.9347806,
            12.4982295
          ],
          [
            -69.9346331,
            12.4982347
          ],
          [
            -69.9344587,
            12.4982295
          ],
          [
            -69.9343488,
            12.4982583
          ],
          [
            -69.9342468,
            12.4983447
          ],
          [
            -69.934153,
            12.4984442
          ],
          [
            -69.9340671,
            12.4985123
          ],
          [
            -69.933984,
            12.4985673
          ],
          [
            -69.9339277,
            12.4986118
          ],
          [
            -69.9338686,
            12.498672
          ],
          [
            -69.9338257,
            12.4987139
          ],
          [
            -69.9337775,
            12.4987427
          ],
          [
            -69.9336943,
            12.4987899
          ],
          [
            -69.9336633,
            12.4988308
          ],
          [
            -69.933646,
            12.4989103
          ],
          [
            -69.9336362,
            12.4989494
          ],
          [
            -69.9336192,
            12.4990098
          ],
          [
            -69.9335817,
            12.4990989
          ],
          [
            -69.9335414,
            12.4991617
          ],
          [
            -69.9334744,
            12.4992324
          ],
          [
            -69.9334207,
            12.4992367
          ],
          [
            -69.9333751,
            12.4992403
          ],
          [
            -69.9332678,
            12.4992141
          ],
          [
            -69.9332061,
            12.4991931
          ],
          [
            -69.9331525,
            12.4991696
          ],
          [
            -69.9330345,
            12.4991957
          ],
          [
            -69.9329191,
            12.499201
          ],
          [
            -69.9328038,
            12.4992402
          ],
          [
            -69.9326348,
            12.4992534
          ],
          [
            -69.9325436,
            12.4992429
          ],
          [
            -69.9324793,
            12.4992507
          ],
          [
            -69.9323612,
            12.499256
          ],
          [
            -69.9322513,
            12.4992782
          ],
          [
            -69.9321615,
            12.499294
          ],
          [
            -69.9320809,
            12.4992992
          ],
          [
            -69.9319978,
            12.4992966
          ],
          [
            -69.9319106,
            12.4992809
          ],
          [
            -69.9317899,
            12.4992795
          ],
          [
            -69.9316968,
            12.4993265
          ],
          [
            -69.9316169,
            12.499366
          ],
          [
            -69.9315354,
            12.4993917
          ],
          [
            -69.9314399,
            12.499421
          ],
          [
            -69.9312723,
            12.4994249
          ],
          [
            -69.9311864,
            12.4994301
          ],
          [
            -69.9310818,
            12.4994615
          ],
          [
            -69.931004,
            12.4994707
          ],
          [
            -69.9308941,
            12.4994602
          ],
          [
            -69.9307895,
            12.4994301
          ],
          [
            -69.9307117,
            12.4994092
          ],
          [
            -69.9306285,
            12.4993908
          ],
          [
            -69.9305306,
            12.4993895
          ],
          [
            -69.9304676,
            12.4994288
          ],
          [
            -69.9303898,
            12.499438
          ],
          [
            -69.9302852,
            12.499417
          ],
          [
            -69.9302155,
            12.4993869
          ],
          [
            -69.9301337,
            12.4994
          ],
          [
            -69.9300398,
            12.4993686
          ],
          [
            -69.9299821,
            12.4993372
          ],
          [
            -69.9299312,
            12.4993083
          ],
          [
            -69.9298333,
            12.4993044
          ],
          [
            -69.9297501,
            12.4992848
          ],
          [
            -69.9296603,
            12.4992337
          ],
          [
            -69.929612,
            12.499184
          ],
          [
            -69.9294953,
            12.4991355
          ],
          [
            -69.9294028,
            12.499125
          ],
          [
            -69.9292874,
            12.4991381
          ],
          [
            -69.9291949,
            12.4991787
          ],
          [
            -69.9291506,
            12.4992075
          ],
          [
            -69.9290527,
            12.499307
          ],
          [
            -69.9289562,
            12.4994065
          ],
          [
            -69.9289039,
            12.4994694
          ],
          [
            -69.9288221,
            12.4995427
          ],
          [
            -69.9287362,
            12.4995938
          ],
          [
            -69.9286062,
            12.499675
          ],
          [
            -69.9284814,
            12.4997247
          ],
          [
            -69.9283192,
            12.4997692
          ],
          [
            -69.928177,
            12.4997928
          ],
          [
            -69.9280402,
            12.4998229
          ],
          [
            -69.9279007,
            12.4998583
          ],
          [
            -69.9277304,
            12.4999263
          ],
          [
            -69.9276017,
            12.4999944
          ],
          [
            -69.9274662,
            12.5000664
          ],
          [
            -69.927312,
            12.500145
          ],
          [
            -69.9270532,
            12.5002628
          ],
          [
            -69.9268869,
            12.5003912
          ],
          [
            -69.9267407,
            12.5004815
          ],
          [
            -69.9266106,
            12.500543
          ],
          [
            -69.9264912,
            12.5006085
          ],
          [
            -69.9262968,
            12.5006164
          ],
          [
            -69.9261077,
            12.5006281
          ],
          [
            -69.925928,
            12.5006203
          ],
          [
            -69.9257711,
            12.5005561
          ],
          [
            -69.9256249,
            12.5004645
          ],
          [
            -69.9254076,
            12.5004488
          ],
          [
            -69.9252749,
            12.5005155
          ],
          [
            -69.9251434,
            12.5005535
          ],
          [
            -69.925016,
            12.5006177
          ],
          [
            -69.9249409,
            12.5007093
          ],
          [
            -69.9248645,
            12.5008245
          ],
          [
            -69.9247719,
            12.5009528
          ],
          [
            -69.9246754,
            12.5010078
          ],
          [
            -69.9245708,
            12.5010497
          ],
          [
            -69.9244541,
            12.5010903
          ],
          [
            -69.9242891,
            12.5011728
          ],
          [
            -69.9241081,
            12.5013116
          ],
          [
            -69.9239525,
            12.5014504
          ],
          [
            -69.9236991,
            12.501652
          ],
          [
            -69.9236095,
            12.5017308
          ],
          [
            -69.9234281,
            12.5018903
          ],
          [
            -69.9232954,
            12.5020474
          ],
          [
            -69.9231894,
            12.5021587
          ],
          [
            -69.923058,
            12.5022491
          ],
          [
            -69.9229346,
            12.50238
          ],
          [
            -69.9228877,
            12.5024572
          ],
          [
            -69.9228528,
            12.5026261
          ],
          [
            -69.92283,
            12.5026982
          ],
          [
            -69.9228662,
            12.502799
          ],
          [
            -69.9229266,
            12.5028762
          ],
          [
            -69.9229789,
            12.5029823
          ],
          [
            -69.9230352,
            12.5030517
          ],
          [
            -69.9230754,
            12.5031682
          ],
          [
            -69.9231116,
            12.5032821
          ],
          [
            -69.9231265,
            12.5034377
          ],
          [
            -69.9231396,
            12.5034525
          ],
          [
            -69.9231673,
            12.5034836
          ],
          [
            -69.9231465,
            12.5035505
          ],
          [
            -69.923066,
            12.5036487
          ],
          [
            -69.9229252,
            12.5037142
          ],
          [
            -69.9228395,
            12.503751
          ],
          [
            -69.9227455,
            12.5037914
          ],
          [
            -69.9226412,
            12.5037678
          ],
          [
            -69.9224934,
            12.5037757
          ],
          [
            -69.9223767,
            12.5038189
          ],
          [
            -69.9222372,
            12.5038438
          ],
          [
            -69.9220455,
            12.5039263
          ],
          [
            -69.9219435,
            12.5040179
          ],
          [
            -69.9218416,
            12.5040729
          ],
          [
            -69.9217201,
            12.504162
          ],
          [
            -69.9215627,
            12.5042601
          ],
          [
            -69.9214031,
            12.504357
          ],
          [
            -69.9213092,
            12.5044002
          ],
          [
            -69.9212194,
            12.5044146
          ],
          [
            -69.921163,
            12.5044173
          ],
          [
            -69.9210222,
            12.5044186
          ],
          [
            -69.9209203,
            12.504412
          ],
          [
            -69.9207969,
            12.5044709
          ],
          [
            -69.9207164,
            12.5044788
          ],
          [
            -69.9206454,
            12.5044605
          ],
          [
            -69.9205877,
            12.5044421
          ],
          [
            -69.9204858,
            12.5044631
          ],
          [
            -69.9204388,
            12.5045076
          ],
          [
            -69.9203986,
            12.5045456
          ],
          [
            -69.9203382,
            12.5045547
          ],
          [
            -69.9201988,
            12.50456
          ],
          [
            -69.9201116,
            12.5045979
          ],
          [
            -69.920105,
            12.5046191
          ],
          [
            -69.9200821,
            12.5046922
          ],
          [
            -69.9200419,
            12.5047786
          ],
          [
            -69.9199681,
            12.5048729
          ],
          [
            -69.9199252,
            12.504958
          ],
          [
            -69.9198174,
            12.5050724
          ],
          [
            -69.9197119,
            12.5051452
          ],
          [
            -69.9195738,
            12.505174
          ],
          [
            -69.9193726,
            12.5051884
          ],
          [
            -69.9190575,
            12.5052212
          ],
          [
            -69.9188536,
            12.5052185
          ],
          [
            -69.9186605,
            12.5052107
          ],
          [
            -69.9184915,
            12.5051452
          ],
          [
            -69.9183896,
            12.5051007
          ],
          [
            -69.9183494,
            12.5050326
          ],
          [
            -69.9183923,
            12.5049593
          ],
          [
            -69.9183816,
            12.5048886
          ],
          [
            -69.918218,
            12.5048415
          ],
          [
            -69.9180946,
            12.5048258
          ],
          [
            -69.9179798,
            12.5048306
          ]
        ]
      },
      "id": "way/724157646"
    }
  ]
}