{
  "type": "FeatureCollection",
  "generator": "overpass-turbo",
  "copyright": "The data included in this document is from www.openstreetmap.org. The data is made available under ODbL.",
  "timestamp": "2026-01-30T03:28:41Z",
  "features": [
    {
      "type": "Feature",
      "properties": {
        "@id": "way/333251235",
        "highway": "footway",
        "lit": "no",
        "name": "Calle Puerto Vargas",
        "surface": "sand"
      },
      "geometry": {
        "type": "LineString",
        "coordinates": [
          [
            -82.8146719,
            9.7316007
          ],
          [
            -82.8143513,
            9.7324935
          ],
          [
            -82.8142305,
            9.7327043
          ],
          [
            -82.8140671,
            9.7329183
          ],
          [
            -82.8138134,
            9.7334106
          ],
          [
            -82.8129809,
            9.7344064
          ],
          [
            -82.812872,
            9.73463
          ],
          [
            -82.8125124,
            9.7350683
          ],
          [
            -82.8122643,
            9.7354029
          ],
          [
            -82.8120391,
            9.7356013
          ],
          [
            -82.8117559,
            9.7358031
          ],
          [
            -82.8115695,
            9.7359985
          ],
          [
            -82.8111203,
            9.7365217
          ],
          [
            -82.8110445,
            9.7366792
          ],
          [
            -82.8110214,
            9.7369645
          ],
          [
            -82.8110279,
            9.7372251
          ],
          [
            -82.8111225,
            9.7375682
          ],
          [
            -82.811229,
            9.7380409
          ],
          [
            -82.8113073,
            9.738513
          ],
          [
            -82.811318,
            9.7387418
          ],
          [
            -82.8113696,
            9.7390744
          ],
          [
            -82.8113718,
            9.739263
          ],
          [
            -82.8113266,
            9.7394515
          ],
          [
            -82.8112614,
            9.7398216
          ],
          [
            -82.8112353,
            9.7401498
          ],
          [
            -82.8112106,
            9.7403095
          ],
          [
            -82.8111439,
            9.7405065
          ],
          [
            -82.8111053,
            9.740659
          ],
          [
            -82.8110558,
            9.7411653
          ],
          [
            -82.8109857,
            9.7415441
          ],
          [
            -82.8109032,
            9.7417648
          ],
          [
            -82.810871,
            9.7419703
          ],
          [
            -82.8108043,
            9.7421885
          ],
          [
            -82.810656,
            9.7426926
          ],
          [
            -82.81049,
            9.7430571
          ],
          [
            -82.8102009,
            9.7436029
          ],
          [
            -82.8100252,
            9.7438282
          ],
          [
            -82.8098969,
            9.7439494
          ],
          [
            -82.8097471,
            9.744128
          ],
          [
            -82.8095879,
            9.7443388
          ],
          [
            -82.8092869,
            9.7445772
          ],
          [
            -82.8092478,
            9.7446499
          ],
          [
            -82.8092467,
            9.7447191
          ],
          [
            -82.8092682,
            9.7447951
          ],
          [
            -82.8093568,
            9.7449012
          ],
          [
            -82.8098141,
            9.7452765
          ],
          [
            -82.8100534,
            9.7453953
          ],
          [
            -82.8101889,
            9.7455074
          ],
          [
            -82.8103997,
            9.7457854
          ],
          [
            -82.8105698,
            9.7459366
          ],
          [
            -82.8110254,
            9.7462873
          ],
          [
            -82.8113987,
            9.7465978
          ],
          [
            -82.8118494,
            9.747027
          ],
          [
            -82.8120435,
            9.7471234
          ],
          [
            -82.8124167,
            9.747434
          ],
          [
            -82.8127464,
            9.747735
          ],
          [
            -82.8130664,
            9.7481118
          ],
          [
            -82.8133136,
            9.7483084
          ],
          [
            -82.8135609,
            9.7484613
          ],
          [
            -82.8138033,
            9.7486333
          ],
          [
            -82.814156,
            9.7489622
          ],
          [
            -82.8146089,
            9.7492997
          ],
          [
            -82.8147716,
            9.7493994
          ],
          [
            -82.8150977,
            9.749522
          ],
          [
            -82.8153852,
            9.7496742
          ],
          [
            -82.8155596,
            9.7497518
          ],
          [
            -82.8158284,
            9.7498145
          ],
          [
            -82.8159461,
            9.7498258
          ],
          [
            -82.8160241,
            9.749802
          ],
          [
            -82.8160592,
            9.7497509
          ],
          [
            -82.8160676,
            9.7496677
          ],
          [
            -82.8159939,
            9.7491827
          ],
          [
            -82.815992,
            9.7489037
          ],
          [
            -82.8159895,
            9.7486413
          ],
          [
            -82.8159747,
            9.7483786
          ],
          [
            -82.8159939,
            9.748151
          ],
          [
            -82.816068,
            9.7477955
          ],
          [
            -82.8161368,
            9.7475471
          ],
          [
            -82.8162627,
            9.7471924
          ],
          [
            -82.8164095,
            9.7469341
          ],
          [
            -82.8165393,
            9.7467632
          ],
          [
            -82.8167026,
            9.7466323
          ],
          [
            -82.8168776,
            9.7464701
          ],
          [
            -82.8170912,
            9.7462804
          ],
          [
            -82.8172859,
            9.7461448
          ],
          [
            -82.8174058,
            9.7460012
          ],
          [
            -82.8174428,
            9.7458695
          ],
          [
            -82.8174498,
            9.7456732
          ],
          [
            -82.8174637,
            9.7455423
          ],
          [
            -82.8175023,
            9.7454164
          ],
          [
            -82.8175472,
            9.7452914
          ],
          [
            -82.8175363,
            9.7451839
          ],
          [
            -82.8174811,
            9.7449879
          ],
          [
            -82.817456,
            9.7448222
          ],
          [
            -82.8174375,
            9.7445106
          ],
          [
            -82.8174504,
            9.744152
          ],
          [
            -82.8175207,
            9.7439569
          ],
          [
            -82.8177304,
            9.7434917
          ],
          [
            -82.8178054,
            9.743288
          ],
          [
            -82.81785,
            9.7430655
          ],
          [
            -82.8178916,
            9.7429505
          ],
          [
            -82.817994,
            9.7428282
          ],
          [
            -82.8180667,
            9.7427159
          ],
          [
            -82.8181217,
            9.7425096
          ],
          [
            -82.8181877,
            9.7424026
          ],
          [
            -82.8183894,
            9.7421714
          ],
          [
            -82.8185768,
            9.7419167
          ],
          [
            -82.81884,
            9.7416394
          ]
        ]
      },
      "id": "way/333251235"
    },
    {
      "type": "Feature",
      "properties": {
        "@id": "way/679340029",
        "bicycle": "no",
        "bridge": "boardwalk",
        "highway": "path",
        "horse": "no",
        "surface": "wood",
        "width": "1.5"
      },
      "geometry": {
        "type": "LineString",
        "coordinates": [
          [
            -82.8146719,
            9.7316007
          ],
          [
            -82.8151224,
            9.7318421
          ],
          [
            -82.8152837,
            9.7318845
          ],
          [
            -82.8156447,
            9.7319735
          ],
          [
            -82.816061,
            9.7321549
          ],
          [
            -82.8161415,
            9.7321576
          ],
          [
            -82.8162137,
            9.7321297
          ],
          [
            -82.8162654,
            9.7320689
          ],
          [
            -82.8164576,
            9.731679
          ],
          [
            -82.8167067,
            9.7312515
          ],
          [
            -82.8167621,
            9.7311275
          ],
          [
            -82.8168238,
            9.730883
          ],
          [
            -82.8169082,
            9.7306639
          ],
          [
            -82.8169943,
            9.7303467
          ],
          [
            -82.8170799,
            9.7301563
          ],
          [
            -82.8173696,
            9.7291413
          ],
          [
            -82.8174876,
            9.7287182
          ],
          [
            -82.8177321,
            9.7279358
          ],
          [
            -82.8178094,
            9.7274704
          ],
          [
            -82.8179811,
            9.7270686
          ],
          [
            -82.8180971,
            9.7266942
          ],
          [
            -82.8186033,
            9.7254295
          ],
          [
            -82.8188264,
            9.7246706
          ],
          [
            -82.8189681,
            9.7243086
          ],
          [
            -82.8197191,
            9.7229021
          ],
          [
            -82.8198694,
            9.7221408
          ],
          [
            -82.8200196,
            9.7218341
          ],
          [
            -82.8201268,
            9.7214851
          ],
          [
            -82.8201698,
            9.7210939
          ],
          [
            -82.8203249,
            9.7208338
          ],
          [
            -82.8204624,
            9.7205121
          ],
          [
            -82.8206154,
            9.7200581
          ],
          [
            -82.8208319,
            9.7196513
          ],
          [
            -82.8210495,
            9.7193279
          ],
          [
            -82.8212739,
            9.7187705
          ],
          [
            -82.8213352,
            9.7185304
          ],
          [
            -82.8213254,
            9.7182198
          ],
          [
            -82.82117,
            9.7177003
          ],
          [
            -82.8210436,
            9.7172949
          ],
          [
            -82.8209635,
            9.7169541
          ],
          [
            -82.820991,
            9.7164751
          ],
          [
            -82.8210573,
            9.7163412
          ],
          [
            -82.8212208,
            9.7162849
          ],
          [
            -82.8213446,
            9.7162142
          ],
          [
            -82.821407,
            9.7158731
          ],
          [
            -82.8213744,
            9.7158744
          ]
        ]
      },
      "id": "way/679340029"
    },
    {
      "type": "Feature",
      "properties": {
        "@id": "way/1275068164",
        "highway": "footway",
        "lit": "no",
        "name": "Calle Puerto Vargas",
        "surface": "sand"
      },
      "geometry": {
        "type": "LineString",
        "coordinates": [
          [
            -82.8213884,
            9.7402537
          ],
          [
            -82.821486,
            9.7401581
          ],
          [
            -82.8215447,
            9.7400341
          ],
          [
            -82.8216362,
            9.7397084
          ],
          [
            -82.8217255,
            9.7395695
          ],
          [
            -82.8218436,
            9.739479
          ],
          [
            -82.8219117,
            9.7393704
          ],
          [
            -82.8219446,
            9.7392566
          ],
          [
            -82.8220089,
            9.7391731
          ],
          [
            -82.822095,
            9.7391253
          ],
          [
            -82.8221918,
            9.7390617
          ],
          [
            -82.8222562,
            9.7389452
          ],
          [
            -82.8222949,
            9.7387651
          ],
          [
            -82.8223431,
            9.7386392
          ],
          [
            -82.8225829,
            9.7383478
          ],
          [
            -82.8229258,
            9.7380206
          ],
          [
            -82.8232219,
            9.7376821
          ],
          [
            -82.8234479,
            9.7375577
          ],
          [
            -82.8237187,
            9.7373456
          ],
          [
            -82.8241256,
            9.7370909
          ],
          [
            -82.8243688,
            9.7368711
          ],
          [
            -82.8246633,
            9.7366707
          ],
          [
            -82.8248423,
            9.7365734
          ],
          [
            -82.8249584,
            9.7364815
          ],
          [
            -82.8251441,
            9.7363288
          ],
          [
            -82.8254209,
            9.7360673
          ],
          [
            -82.8258092,
            9.7357167
          ],
          [
            -82.8259823,
            9.7356217
          ],
          [
            -82.8261724,
            9.7355769
          ],
          [
            -82.8263524,
            9.735557
          ],
          [
            -82.8264755,
            9.7355049
          ],
          [
            -82.8266593,
            9.7354579
          ],
          [
            -82.8268664,
            9.7353355
          ],
          [
            -82.8269723,
            9.7352305
          ],
          [
            -82.8269968,
            9.7351054
          ],
          [
            -82.8270465,
            9.7349068
          ],
          [
            -82.827164,
            9.7347669
          ],
          [
            -82.827458,
            9.7345307
          ],
          [
            -82.8276942,
            9.7344203
          ],
          [
            -82.8279876,
            9.7343279
          ],
          [
            -82.8281622,
            9.7342681
          ],
          [
            -82.8283863,
            9.7341555
          ],
          [
            -82.8286548,
            9.7340861
          ],
          [
            -82.8290247,
            9.7340617
          ],
          [
            -82.8295664,
            9.7340224
          ],
          [
            -82.8298626,
            9.7340441
          ],
          [
            -82.8302398,
            9.7340293
          ],
          [
            -82.8306284,
            9.734071
          ],
          [
            -82.8310072,
            9.7341668
          ],
          [
            -82.8312996,
            9.7341866
          ],
          [
            -82.8315206,
            9.7342336
          ],
          [
            -82.831954,
            9.7342876
          ],
          [
            -82.8323145,
            9.7343487
          ],
          [
            -82.832637,
            9.7343981
          ],
          [
            -82.8329316,
            9.7344566
          ],
          [
            -82.8334783,
            9.7345668
          ],
          [
            -82.8339384,
            9.7346453
          ],
          [
            -82.8343414,
            9.7347779
          ],
          [
            -82.8346862,
            9.7348812
          ],
          [
            -82.8350864,
            9.7349487
          ],
          [
            -82.8356065,
            9.7351058
          ],
          [
            -82.8360308,
            9.7352
          ],
          [
            -82.8364858,
            9.7353476
          ],
          [
            -82.8367856,
            9.7354595
          ],
          [
            -82.8370788,
            9.7355254
          ],
          [
            -82.8375729,
            9.7356926
          ],
          [
            -82.8378967,
            9.735838
          ],
          [
            -82.8382455,
            9.7358989
          ],
          [
            -82.8384068,
            9.7359656
          ],
          [
            -82.8387393,
            9.736279
          ],
          [
            -82.8387749,
            9.7363002
          ]
        ]
      },
      "id": "way/1275068164"
    },
    {
      "type": "Feature",
      "properties": {
        "@id": "way/1275068165",
        "bridge": "boardwalk",
        "highway": "footway",
        "layer": "1",
        "lit": "no",
        "name": "Calle Puerto Vargas"
      },
      "geometry": {
        "type": "LineString",
        "coordinates": [
          [
            -82.81884,
            9.7416394
          ],
          [
            -82.8189955,
            9.7415647
          ],
          [
            -82.819139,
            9.741538
          ],
          [
            -82.8192741,
            9.7414622
          ],
          [
            -82.8195494,
            9.741253
          ],
          [
            -82.8198347,
            9.7410763
          ],
          [
            -82.8202975,
            9.7406784
          ],
          [
            -82.8204625,
            9.7405663
          ],
          [
            -82.8207194,
            9.7404291
          ],
          [
            -82.8212621,
            9.7402996
          ],
          [
            -82.8213884,
            9.7402537
          ]
        ]
      },
      "id": "way/1275068165"
    }
  ]
}